{"type": "FeatureCollection", "metadata": {"region": "Auvergne", "source": "OpenStreetMap via Geofabrik", "methode": "recollage des polygones contigus, erosion de W/2, toutes les cordes inscrites dont les milieux sont ecartes d'au moins ECART_MIN_M", "largeur_libre_m": 60, "ecart_min_m": 5000, "plusieurs_courses": "Un plan d'eau peut porter plusieurs courses : plan_eau les relie, rang 1 est la plus longue. aire_ha vaut pour l'etendue entiere et se repete sur chaque course ; pour totaliser une surface, ne sommer que les rang 1.", "avertissement": "profondeur, obstacles et degagement d'approche NON pris en compte : borne haute de candidats"}, "features": [{"type": "Feature", "geometry": {"type": "LineString", "coordinates": [[3.0697, 46.8503], [3.06421, 46.87419]]}, "properties": {"nom": "L'Allier", "region": "Auvergne", "longueur_m": 2686, "aire_ha": 2505.3, "seuil_max_m": 2000, "largeur_libre_m": 60, "plan_eau": 3, "rang": 1, "nb_courses": 8}}, {"type": "Feature", "geometry": {"type": "LineString", "coordinates": [[3.4148, 46.12027], [3.41165, 46.14222]]}, "properties": {"nom": "L'Allier", "region": "Auvergne", "longueur_m": 2449, "aire_ha": 2505.3, "seuil_max_m": 2000, "largeur_libre_m": 60, "plan_eau": 3, "rang": 2, "nb_courses": 8}}, {"type": "Feature", "geometry": {"type": "LineString", "coordinates": [[3.03523, 46.80115], [3.04455, 46.8155]]}, "properties": {"nom": "L'Allier", "region": "Auvergne", "longueur_m": 1745, "aire_ha": 2505.3, "seuil_max_m": 1500, "largeur_libre_m": 60, "plan_eau": 3, "rang": 3, "nb_courses": 8}}, {"type": "Feature", "geometry": {"type": "LineString", "coordinates": [[3.14481, 46.71182], [3.13641, 46.71981]]}, "properties": {"nom": "L'Allier", "region": "Auvergne", "longueur_m": 1094, "aire_ha": 2505.3, "seuil_max_m": 1000, "largeur_libre_m": 60, "plan_eau": 3, "rang": 4, "nb_courses": 8}}, {"type": "Feature", "geometry": {"type": "LineString", "coordinates": [[3.33257, 46.53856], [3.32431, 46.54431]]}, "properties": {"nom": "L'Allier", "region": "Auvergne", "longueur_m": 899, "aire_ha": 2505.3, "seuil_max_m": 700, "largeur_libre_m": 60, "plan_eau": 3, "rang": 5, "nb_courses": 8}}, {"type": "Feature", "geometry": {"type": "LineString", "coordinates": [[3.38598, 46.31257], [3.37653, 46.31595]]}, "properties": {"nom": "L'Allier", "region": "Auvergne", "longueur_m": 818, "aire_ha": 2505.3, "seuil_max_m": 700, "largeur_libre_m": 60, "plan_eau": 3, "rang": 6, "nb_courses": 8}}, {"type": "Feature", "geometry": {"type": "LineString", "coordinates": [[3.31938, 46.38651], [3.30919, 46.38843]]}, "properties": {"nom": "L'Allier", "region": "Auvergne", "longueur_m": 811, "aire_ha": 2505.3, "seuil_max_m": 700, "largeur_libre_m": 60, "plan_eau": 3, "rang": 7, "nb_courses": 8}}, {"type": "Feature", "geometry": {"type": "LineString", "coordinates": [[3.05291, 46.91561], [3.05673, 46.92242]]}, "properties": {"nom": "L'Allier", "region": "Auvergne", "longueur_m": 811, "aire_ha": 2505.3, "seuil_max_m": 700, "largeur_libre_m": 60, "plan_eau": 3, "rang": 8, "nb_courses": 8}}, {"type": "Feature", "geometry": {"type": "LineString", "coordinates": [[2.21359, 45.0751], [2.23656, 45.07697]]}, "properties": {"nom": "Lac d'Enchanet", "region": "Auvergne", "longueur_m": 1819, "aire_ha": 318.8, "seuil_max_m": 1500, "largeur_libre_m": 60, "plan_eau": 7, "rang": 1, "nb_courses": 1}}, {"type": "Feature", "geometry": {"type": "LineString", "coordinates": [[2.8342, 45.45687], [2.82716, 45.46235]]}, "properties": {"nom": "Lac Chauvet", "region": "Auvergne", "longueur_m": 820, "aire_ha": 52.5, "seuil_max_m": 700, "largeur_libre_m": 60, "plan_eau": 9, "rang": 1, "nb_courses": 1}}, {"type": "Feature", "geometry": {"type": "LineString", "coordinates": [[2.89901, 45.45571], [2.89348, 45.46168]]}, "properties": {"nom": "Lac de Montcineyre", "region": "Auvergne", "longueur_m": 792, "aire_ha": 39.1, "seuil_max_m": 700, "largeur_libre_m": 60, "plan_eau": 10, "rang": 1, "nb_courses": 1}}, {"type": "Feature", "geometry": {"type": "LineString", "coordinates": [[2.88608, 45.49276], [2.88801, 45.49918]]}, "properties": {"nom": "Lac Pavin", "region": "Auvergne", "longueur_m": 728, "aire_ha": 43.9, "seuil_max_m": 700, "largeur_libre_m": 60, "plan_eau": 11, "rang": 1, "nb_courses": 1}}, {"type": "Feature", "geometry": {"type": "LineString", "coordinates": [[3.36676, 46.32787], [3.36083, 46.33358]]}, "properties": {"nom": null, "region": "Auvergne", "longueur_m": 782, "aire_ha": 24.0, "seuil_max_m": 700, "largeur_libre_m": 60, "plan_eau": 17, "rang": 1, "nb_courses": 1}}, {"type": "Feature", "geometry": {"type": "LineString", "coordinates": [[3.67977, 44.93485], [3.67212, 44.93933]]}, "properties": {"nom": "L'Allier", "region": "Auvergne", "longueur_m": 782, "aire_ha": 135.9, "seuil_max_m": 700, "largeur_libre_m": 60, "plan_eau": 25, "rang": 1, "nb_courses": 1}}, {"type": "Feature", "geometry": {"type": "LineString", "coordinates": [[4.2113, 45.14483], [4.23723, 45.15382]]}, "properties": {"nom": "Barrage de Lavalette", "region": "Auvergne", "longueur_m": 2269, "aire_ha": 204.4, "seuil_max_m": 2000, "largeur_libre_m": 60, "plan_eau": 27, "rang": 1, "nb_courses": 1}}, {"type": "Feature", "geometry": {"type": "LineString", "coordinates": [[4.24735, 45.45206], [4.2576, 45.4628]]}, "properties": {"nom": null, "region": "Auvergne", "longueur_m": 1437, "aire_ha": 749.0, "seuil_max_m": 1340, "largeur_libre_m": 60, "plan_eau": 29, "rang": 1, "nb_courses": 2}}, {"type": "Feature", "geometry": {"type": "LineString", "coordinates": [[4.23651, 45.40158], [4.24858, 45.40825]]}, "properties": {"nom": null, "region": "Auvergne", "longueur_m": 1201, "aire_ha": 749.0, "seuil_max_m": 1000, "largeur_libre_m": 60, "plan_eau": 29, "rang": 2, "nb_courses": 2}}, {"type": "Feature", "geometry": {"type": "LineString", "coordinates": [[2.74724, 44.84726], [2.78358, 44.85284]]}, "properties": {"nom": "Lac du Barrage de Sarrans", "region": "Auvergne", "longueur_m": 2937, "aire_ha": 779.5, "seuil_max_m": 2000, "largeur_libre_m": 60, "plan_eau": 33, "rang": 1, "nb_courses": 3}}, {"type": "Feature", "geometry": {"type": "LineString", "coordinates": [[2.87428, 44.87154], [2.85466, 44.87525]]}, "properties": {"nom": "Lac du Barrage de Sarrans", "region": "Auvergne", "longueur_m": 1603, "aire_ha": 779.5, "seuil_max_m": 1500, "largeur_libre_m": 60, "plan_eau": 33, "rang": 2, "nb_courses": 3}}, {"type": "Feature", "geometry": {"type": "LineString", "coordinates": [[2.92937, 44.88748], [2.94281, 44.89174]]}, "properties": {"nom": "Lac du Barrage de Sarrans", "region": "Auvergne", "longueur_m": 1162, "aire_ha": 779.5, "seuil_max_m": 1000, "largeur_libre_m": 60, "plan_eau": 33, "rang": 3, "nb_courses": 3}}, {"type": "Feature", "geometry": {"type": "LineString", "coordinates": [[2.75712, 45.91401], [2.77192, 45.92156]]}, "properties": {"nom": "Retenue de Fades-Besserve", "region": "Auvergne", "longueur_m": 1421, "aire_ha": 341.1, "seuil_max_m": 1340, "largeur_libre_m": 60, "plan_eau": 34, "rang": 1, "nb_courses": 2}}, {"type": "Feature", "geometry": {"type": "LineString", "coordinates": [[2.78934, 45.95949], [2.79146, 45.96898]]}, "properties": {"nom": "Retenue de Fades-Besserve", "region": "Auvergne", "longueur_m": 1067, "aire_ha": 341.1, "seuil_max_m": 1000, "largeur_libre_m": 60, "plan_eau": 34, "rang": 2, "nb_courses": 2}}, {"type": "Feature", "geometry": {"type": "LineString", "coordinates": [[2.6946, 46.64698], [2.68863, 46.65497]]}, "properties": {"nom": "Étang de Saint-Bonnet", "region": "Auvergne", "longueur_m": 997, "aire_ha": 35.5, "seuil_max_m": 700, "largeur_libre_m": 60, "plan_eau": 41, "rang": 1, "nb_courses": 1}}, {"type": "Feature", "geometry": {"type": "LineString", "coordinates": [[2.91337, 46.50508], [2.90251, 46.50708]]}, "properties": {"nom": "Plan d'eau de Vieure", "region": "Auvergne", "longueur_m": 862, "aire_ha": 28.6, "seuil_max_m": 700, "largeur_libre_m": 60, "plan_eau": 42, "rang": 1, "nb_courses": 1}}, {"type": "Feature", "geometry": {"type": "LineString", "coordinates": [[2.55208, 46.32791], [2.56087, 46.33192]]}, "properties": {"nom": "Étang de Sault", "region": "Auvergne", "longueur_m": 809, "aire_ha": 21.8, "seuil_max_m": 700, "largeur_libre_m": 60, "plan_eau": 43, "rang": 1, "nb_courses": 1}}, {"type": "Feature", "geometry": {"type": "LineString", "coordinates": [[2.71657, 46.24247], [2.72419, 46.24593]]}, "properties": {"nom": "Étang de la Ganne", "region": "Auvergne", "longueur_m": 702, "aire_ha": 13.7, "seuil_max_m": 700, "largeur_libre_m": 60, "plan_eau": 44, "rang": 1, "nb_courses": 1}}, {"type": "Feature", "geometry": {"type": "LineString", "coordinates": [[2.62987, 45.95722], [2.61083, 45.96677]]}, "properties": {"nom": "Étang de Chancelade", "region": "Auvergne", "longueur_m": 1816, "aire_ha": 95.4, "seuil_max_m": 1500, "largeur_libre_m": 60, "plan_eau": 46, "rang": 1, "nb_courses": 1}}, {"type": "Feature", "geometry": {"type": "LineString", "coordinates": [[2.42342, 45.78101], [2.42664, 45.78968]]}, "properties": {"nom": "Étang de la Ramade", "region": "Auvergne", "longueur_m": 995, "aire_ha": 62.5, "seuil_max_m": 700, "largeur_libre_m": 60, "plan_eau": 47, "rang": 1, "nb_courses": 1}}, {"type": "Feature", "geometry": {"type": "LineString", "coordinates": [[2.76178, 45.41921], [2.77218, 45.42347]]}, "properties": {"nom": "Lac de la Landie", "region": "Auvergne", "longueur_m": 941, "aire_ha": 26.2, "seuil_max_m": 700, "largeur_libre_m": 60, "plan_eau": 48, "rang": 1, "nb_courses": 1}}, {"type": "Feature", "geometry": {"type": "LineString", "coordinates": [[2.357, 45.39895], [2.35127, 45.40672]]}, "properties": {"nom": null, "region": "Auvergne", "longueur_m": 973, "aire_ha": 147.4, "seuil_max_m": 700, "largeur_libre_m": 60, "plan_eau": 49, "rang": 1, "nb_courses": 1}}, {"type": "Feature", "geometry": {"type": "LineString", "coordinates": [[2.7988, 46.72784], [2.81306, 46.72838]]}, "properties": {"nom": "Étang de Goule", "region": "Auvergne", "longueur_m": 1090, "aire_ha": 67.4, "seuil_max_m": 1000, "largeur_libre_m": 60, "plan_eau": 51, "rang": 1, "nb_courses": 1}}, {"type": "Feature", "geometry": {"type": "LineString", "coordinates": [[2.95408, 46.69824], [2.94432, 46.6993]]}, "properties": {"nom": "Étang de Billot", "region": "Auvergne", "longueur_m": 755, "aire_ha": 25.9, "seuil_max_m": 700, "largeur_libre_m": 60, "plan_eau": 52, "rang": 1, "nb_courses": 1}}, {"type": "Feature", "geometry": {"type": "LineString", "coordinates": [[3.02336, 46.02985], [3.01357, 46.03427]]}, "properties": {"nom": null, "region": "Auvergne", "longueur_m": 903, "aire_ha": 30.9, "seuil_max_m": 700, "largeur_libre_m": 60, "plan_eau": 54, "rang": 1, "nb_courses": 1}}, {"type": "Feature", "geometry": {"type": "LineString", "coordinates": [[3.54638, 46.78672], [3.52656, 46.79471]]}, "properties": {"nom": "La Loire", "region": "Auvergne", "longueur_m": 1753, "aire_ha": 1084.4, "seuil_max_m": 1500, "largeur_libre_m": 60, "plan_eau": 57, "rang": 1, "nb_courses": 7}}, {"type": "Feature", "geometry": {"type": "LineString", "coordinates": [[3.74452, 46.53692], [3.73337, 46.54661]]}, "properties": {"nom": "La Loire", "region": "Auvergne", "longueur_m": 1374, "aire_ha": 1084.4, "seuil_max_m": 1340, "largeur_libre_m": 60, "plan_eau": 57, "rang": 2, "nb_courses": 7}}, {"type": "Feature", "geometry": {"type": "LineString", "coordinates": [[3.89047, 46.48107], [3.87743, 46.48706]]}, "properties": {"nom": "La Loire", "region": "Auvergne", "longueur_m": 1201, "aire_ha": 1084.4, "seuil_max_m": 1000, "largeur_libre_m": 60, "plan_eau": 57, "rang": 3, "nb_courses": 7}}, {"type": "Feature", "geometry": {"type": "LineString", "coordinates": [[3.81769, 46.52533], [3.82749, 46.52869]]}, "properties": {"nom": "La Loire", "region": "Auvergne", "longueur_m": 838, "aire_ha": 1084.4, "seuil_max_m": 700, "largeur_libre_m": 60, "plan_eau": 57, "rang": 4, "nb_courses": 7}}, {"type": "Feature", "geometry": {"type": "LineString", "coordinates": [[3.73606, 46.59131], [3.73181, 46.59808]]}, "properties": {"nom": "La Loire", "region": "Auvergne", "longueur_m": 819, "aire_ha": 1084.4, "seuil_max_m": 700, "largeur_libre_m": 60, "plan_eau": 57, "rang": 5, "nb_courses": 7}}, {"type": "Feature", "geometry": {"type": "LineString", "coordinates": [[3.98817, 46.34349], [3.98618, 46.35038]]}, "properties": {"nom": "La Loire", "region": "Auvergne", "longueur_m": 781, "aire_ha": 1084.4, "seuil_max_m": 700, "largeur_libre_m": 60, "plan_eau": 57, "rang": 6, "nb_courses": 7}}, {"type": "Feature", "geometry": {"type": "LineString", "coordinates": [[3.6659, 46.68805], [3.65833, 46.69234]]}, "properties": {"nom": "La Loire", "region": "Auvergne", "longueur_m": 749, "aire_ha": 1084.4, "seuil_max_m": 700, "largeur_libre_m": 60, "plan_eau": 57, "rang": 7, "nb_courses": 7}}, {"type": "Feature", "geometry": {"type": "LineString", "coordinates": [[2.35988, 46.35441], [2.36834, 46.35875]]}, "properties": {"nom": "Grand Étang", "region": "Auvergne", "longueur_m": 810, "aire_ha": 17.2, "seuil_max_m": 700, "largeur_libre_m": 60, "plan_eau": 72, "rang": 1, "nb_courses": 1}}, {"type": "Feature", "geometry": {"type": "LineString", "coordinates": [[2.59147, 46.64597], [2.57433, 46.64906]]}, "properties": {"nom": null, "region": "Auvergne", "longueur_m": 1355, "aire_ha": 26.1, "seuil_max_m": 1340, "largeur_libre_m": 60, "plan_eau": 80, "rang": 1, "nb_courses": 1}}, {"type": "Feature", "geometry": {"type": "LineString", "coordinates": [[2.52118, 46.23577], [2.53435, 46.2399]]}, "properties": {"nom": null, "region": "Auvergne", "longueur_m": 1113, "aire_ha": 142.3, "seuil_max_m": 1000, "largeur_libre_m": 60, "plan_eau": 84, "rang": 1, "nb_courses": 1}}, {"type": "Feature", "geometry": {"type": "LineString", "coordinates": [[3.60667, 45.74399], [3.6107, 45.75119]]}, "properties": {"nom": "Lac d'Aubusson", "region": "Auvergne", "longueur_m": 858, "aire_ha": 25.7, "seuil_max_m": 700, "largeur_libre_m": 60, "plan_eau": 121, "rang": 1, "nb_courses": 1}}, {"type": "Feature", "geometry": {"type": "LineString", "coordinates": [[2.48984, 45.41189], [2.50068, 45.46216]]}, "properties": {"nom": "Lac de Bort-les-Orgues", "region": "Auvergne", "longueur_m": 5646, "aire_ha": 975.4, "seuil_max_m": 3000, "largeur_libre_m": 60, "plan_eau": 146, "rang": 1, "nb_courses": 2}}, {"type": "Feature", "geometry": {"type": "LineString", "coordinates": [[2.50332, 45.47168], [2.52205, 45.50177]]}, "properties": {"nom": "Lac de Bort-les-Orgues", "region": "Auvergne", "longueur_m": 3648, "aire_ha": 975.4, "seuil_max_m": 3000, "largeur_libre_m": 60, "plan_eau": 146, "rang": 2, "nb_courses": 2}}, {"type": "Feature", "geometry": {"type": "LineString", "coordinates": [[2.50703, 45.85192], [2.49682, 45.85826]]}, "properties": {"nom": "Étang de Tyx", "region": "Auvergne", "longueur_m": 1060, "aire_ha": 64.6, "seuil_max_m": 1000, "largeur_libre_m": 60, "plan_eau": 164, "rang": 1, "nb_courses": 1}}, {"type": "Feature", "geometry": {"type": "LineString", "coordinates": [[3.25128, 46.64242], [3.24389, 46.64754]]}, "properties": {"nom": null, "region": "Auvergne", "longueur_m": 802, "aire_ha": 23.1, "seuil_max_m": 700, "largeur_libre_m": 60, "plan_eau": 178, "rang": 1, "nb_courses": 1}}, {"type": "Feature", "geometry": {"type": "LineString", "coordinates": [[2.29768, 45.29631], [2.30981, 45.316]]}, "properties": {"nom": "Lac du Barrage de l'Aigle", "region": "Auvergne", "longueur_m": 2385, "aire_ha": 602.4, "seuil_max_m": 2000, "largeur_libre_m": 60, "plan_eau": 194, "rang": 1, "nb_courses": 3}}, {"type": "Feature", "geometry": {"type": "LineString", "coordinates": [[2.2402, 45.26543], [2.25979, 45.27006]]}, "properties": {"nom": "Lac du Barrage de l'Aigle", "region": "Auvergne", "longueur_m": 1620, "aire_ha": 602.4, "seuil_max_m": 1500, "largeur_libre_m": 60, "plan_eau": 194, "rang": 2, "nb_courses": 3}}, {"type": "Feature", "geometry": {"type": "LineString", "coordinates": [[2.3528, 45.33019], [2.36019, 45.33673]]}, "properties": {"nom": "Lac du Barrage de l'Aigle", "region": "Auvergne", "longueur_m": 929, "aire_ha": 602.4, "seuil_max_m": 700, "largeur_libre_m": 60, "plan_eau": 194, "rang": 3, "nb_courses": 3}}, {"type": "Feature", "geometry": {"type": "LineString", "coordinates": [[3.87083, 46.48925], [3.863, 46.49326]]}, "properties": {"nom": null, "region": "Auvergne", "longueur_m": 748, "aire_ha": 18.8, "seuil_max_m": 700, "largeur_libre_m": 60, "plan_eau": 208, "rang": 1, "nb_courses": 1}}, {"type": "Feature", "geometry": {"type": "LineString", "coordinates": [[2.25166, 44.91416], [2.22784, 44.94659]]}, "properties": {"nom": "Lac du Barrage de Saint-Étienne-Cantalès", "region": "Auvergne", "longueur_m": 4063, "aire_ha": 501.3, "seuil_max_m": 3000, "largeur_libre_m": 60, "plan_eau": 241, "rang": 1, "nb_courses": 1}}, {"type": "Feature", "geometry": {"type": "LineString", "coordinates": [[3.29351, 46.59182], [3.28651, 46.5962]]}, "properties": {"nom": null, "region": "Auvergne", "longueur_m": 723, "aire_ha": 12.2, "seuil_max_m": 700, "largeur_libre_m": 60, "plan_eau": 251, "rang": 1, "nb_courses": 1}}, {"type": "Feature", "geometry": {"type": "LineString", "coordinates": [[2.32826, 46.4919], [2.33525, 46.503]]}, "properties": {"nom": "Lac de Sidiailles", "region": "Auvergne", "longueur_m": 1345, "aire_ha": 69.8, "seuil_max_m": 1340, "largeur_libre_m": 60, "plan_eau": 258, "rang": 1, "nb_courses": 1}}, {"type": "Feature", "geometry": {"type": "LineString", "coordinates": [[2.98079, 45.66135], [2.98849, 45.66967]]}, "properties": {"nom": "Lac d'Aydat", "region": "Auvergne", "longueur_m": 1101, "aire_ha": 54.8, "seuil_max_m": 1000, "largeur_libre_m": 60, "plan_eau": 265, "rang": 1, "nb_courses": 1}}, {"type": "Feature", "geometry": {"type": "LineString", "coordinates": [[3.00364, 44.89165], [3.01068, 44.90147]]}, "properties": {"nom": "Lac du Barrage de Lanau", "region": "Auvergne", "longueur_m": 1224, "aire_ha": 167.1, "seuil_max_m": 1000, "largeur_libre_m": 60, "plan_eau": 287, "rang": 1, "nb_courses": 1}}, {"type": "Feature", "geometry": {"type": "LineString", "coordinates": [[2.9285, 45.56857], [2.91539, 45.57266]]}, "properties": {"nom": "Lac Chambon", "region": "Auvergne", "longueur_m": 1119, "aire_ha": 49.9, "seuil_max_m": 1000, "largeur_libre_m": 60, "plan_eau": 288, "rang": 1, "nb_courses": 1}}, {"type": "Feature", "geometry": {"type": "LineString", "coordinates": [[3.08682, 44.91598], [3.10899, 44.93013]]}, "properties": {"nom": "Lac du Barrage de Grandval", "region": "Auvergne", "longueur_m": 2351, "aire_ha": 753.7, "seuil_max_m": 2000, "largeur_libre_m": 60, "plan_eau": 291, "rang": 1, "nb_courses": 2}}, {"type": "Feature", "geometry": {"type": "LineString", "coordinates": [[3.1371, 44.96595], [3.15027, 44.97133]]}, "properties": {"nom": "Lac du Barrage de Grandval", "region": "Auvergne", "longueur_m": 1198, "aire_ha": 753.7, "seuil_max_m": 1000, "largeur_libre_m": 60, "plan_eau": 291, "rang": 2, "nb_courses": 2}}, {"type": "Feature", "geometry": {"type": "LineString", "coordinates": [[3.64898, 46.59249], [3.65682, 46.59679]]}, "properties": {"nom": "Étang de Mont", "region": "Auvergne", "longueur_m": 767, "aire_ha": 17.3, "seuil_max_m": 700, "largeur_libre_m": 60, "plan_eau": 300, "rang": 1, "nb_courses": 1}}, {"type": "Feature", "geometry": {"type": "LineString", "coordinates": [[2.95626, 46.78152], [2.96274, 46.78647]]}, "properties": {"nom": "Étang de Bord", "region": "Auvergne", "longueur_m": 740, "aire_ha": 27.4, "seuil_max_m": 700, "largeur_libre_m": 60, "plan_eau": 333, "rang": 1, "nb_courses": 1}}, {"type": "Feature", "geometry": {"type": "LineString", "coordinates": [[2.67481, 45.40577], [2.67892, 45.41342]]}, "properties": {"nom": "Lac de la Crégut", "region": "Auvergne", "longueur_m": 908, "aire_ha": 32.9, "seuil_max_m": 700, "largeur_libre_m": 60, "plan_eau": 350, "rang": 1, "nb_courses": 1}}, {"type": "Feature", "geometry": {"type": "LineString", "coordinates": [[3.78612, 44.90726], [3.79424, 44.91092]]}, "properties": {"nom": "Lac du Bouchet", "region": "Auvergne", "longueur_m": 759, "aire_ha": 43.2, "seuil_max_m": 700, "largeur_libre_m": 60, "plan_eau": 355, "rang": 1, "nb_courses": 1}}, {"type": "Feature", "geometry": {"type": "LineString", "coordinates": [[3.08185, 46.72199], [3.09244, 46.72275]]}, "properties": {"nom": "Étang des Joncs", "region": "Auvergne", "longueur_m": 813, "aire_ha": 16.2, "seuil_max_m": 700, "largeur_libre_m": 60, "plan_eau": 356, "rang": 1, "nb_courses": 1}}, {"type": "Feature", "geometry": {"type": "LineString", "coordinates": [[2.65111, 45.39868], [2.66792, 45.39873]]}, "properties": {"nom": "Lac de Lastioulles", "region": "Auvergne", "longueur_m": 1316, "aire_ha": 100.3, "seuil_max_m": 1000, "largeur_libre_m": 60, "plan_eau": 364, "rang": 1, "nb_courses": 1}}, {"type": "Feature", "geometry": {"type": "LineString", "coordinates": [[2.79496, 46.66878], [2.79052, 46.68298]]}, "properties": {"nom": "Étang de Pirot", "region": "Auvergne", "longueur_m": 1613, "aire_ha": 56.9, "seuil_max_m": 1500, "largeur_libre_m": 60, "plan_eau": 367, "rang": 1, "nb_courses": 1}}, {"type": "Feature", "geometry": {"type": "LineString", "coordinates": [[2.82462, 45.61243], [2.81868, 45.61755]]}, "properties": {"nom": "Lac de Guéry", "region": "Auvergne", "longueur_m": 734, "aire_ha": 26.2, "seuil_max_m": 700, "largeur_libre_m": 60, "plan_eau": 370, "rang": 1, "nb_courses": 1}}]}