{"type": "FeatureCollection", "metadata": {"region": "Lorraine", "source": "OpenStreetMap via Geofabrik", "methode": "recollage des polygones contigus, erosion de W/2, toutes les cordes inscrites dont les milieux sont ecartes d'au moins ECART_MIN_M", "largeur_libre_m": 60, "ecart_min_m": 5000, "plusieurs_courses": "Un plan d'eau peut porter plusieurs courses : plan_eau les relie, rang 1 est la plus longue. aire_ha vaut pour l'etendue entiere et se repete sur chaque course ; pour totaliser une surface, ne sommer que les rang 1.", "avertissement": "profondeur, obstacles et degagement d'approche NON pris en compte : borne haute de candidats"}, "features": [{"type": "Feature", "geometry": {"type": "LineString", "coordinates": [[6.24134, 49.41744], [6.22716, 49.42648]]}, "properties": {"nom": "Lac du Mirgenbach", "region": "Lorraine", "longueur_m": 1439, "aire_ha": 93.7, "seuil_max_m": 1340, "largeur_libre_m": 60, "plan_eau": 1, "rang": 1, "nb_courses": 1}}, {"type": "Feature", "geometry": {"type": "LineString", "coordinates": [[5.98311, 48.73266], [6.01306, 48.74918]]}, "properties": {"nom": "La Moselle", "region": "Lorraine", "longueur_m": 2868, "aire_ha": 2995.0, "seuil_max_m": 2000, "largeur_libre_m": 60, "plan_eau": 6, "rang": 1, "nb_courses": 18}}, {"type": "Feature", "geometry": {"type": "LineString", "coordinates": [[6.06058, 48.90172], [6.04353, 48.91675]]}, "properties": {"nom": "La Moselle", "region": "Lorraine", "longueur_m": 2087, "aire_ha": 2995.0, "seuil_max_m": 2000, "largeur_libre_m": 60, "plan_eau": 6, "rang": 2, "nb_courses": 18}}, {"type": "Feature", "geometry": {"type": "LineString", "coordinates": [[6.16638, 49.32459], [6.16747, 49.34239]]}, "properties": {"nom": "La Moselle", "region": "Lorraine", "longueur_m": 1981, "aire_ha": 2995.0, "seuil_max_m": 1500, "largeur_libre_m": 60, "plan_eau": 6, "rang": 3, "nb_courses": 18}}, {"type": "Feature", "geometry": {"type": "LineString", "coordinates": [[6.20453, 49.16259], [6.20559, 49.17977]]}, "properties": {"nom": "La Moselle", "region": "Lorraine", "longueur_m": 1912, "aire_ha": 2995.0, "seuil_max_m": 1500, "largeur_libre_m": 60, "plan_eau": 6, "rang": 4, "nb_courses": 18}}, {"type": "Feature", "geometry": {"type": "LineString", "coordinates": [[6.22716, 49.38672], [6.24626, 49.39411]]}, "properties": {"nom": "La Moselle", "region": "Lorraine", "longueur_m": 1612, "aire_ha": 2995.0, "seuil_max_m": 1500, "largeur_libre_m": 60, "plan_eau": 6, "rang": 5, "nb_courses": 18}}, {"type": "Feature", "geometry": {"type": "LineString", "coordinates": [[6.07874, 48.84935], [6.07742, 48.86267]]}, "properties": {"nom": "La Moselle", "region": "Lorraine", "longueur_m": 1484, "aire_ha": 2995.0, "seuil_max_m": 1340, "largeur_libre_m": 60, "plan_eau": 6, "rang": 6, "nb_courses": 18}}, {"type": "Feature", "geometry": {"type": "LineString", "coordinates": [[6.03592, 48.65331], [6.02289, 48.65874]]}, "properties": {"nom": "La Moselle", "region": "Lorraine", "longueur_m": 1134, "aire_ha": 2995.0, "seuil_max_m": 1000, "largeur_libre_m": 60, "plan_eau": 6, "rang": 7, "nb_courses": 18}}, {"type": "Feature", "geometry": {"type": "LineString", "coordinates": [[6.18476, 49.2843], [6.17977, 49.29395]]}, "properties": {"nom": "La Moselle", "region": "Lorraine", "longueur_m": 1132, "aire_ha": 2995.0, "seuil_max_m": 1000, "largeur_libre_m": 60, "plan_eau": 6, "rang": 8, "nb_courses": 18}}, {"type": "Feature", "geometry": {"type": "LineString", "coordinates": [[6.31991, 49.43857], [6.32744, 49.44728]]}, "properties": {"nom": "La Moselle", "region": "Lorraine", "longueur_m": 1112, "aire_ha": 2995.0, "seuil_max_m": 1000, "largeur_libre_m": 60, "plan_eau": 6, "rang": 9, "nb_courses": 18}}, {"type": "Feature", "geometry": {"type": "LineString", "coordinates": [[5.89603, 48.65734], [5.89078, 48.666]]}, "properties": {"nom": "La Moselle", "region": "Lorraine", "longueur_m": 1037, "aire_ha": 2995.0, "seuil_max_m": 1000, "largeur_libre_m": 60, "plan_eau": 6, "rang": 10, "nb_courses": 18}}, {"type": "Feature", "geometry": {"type": "LineString", "coordinates": [[6.12197, 48.76285], [6.13374, 48.76748]]}, "properties": {"nom": "La Moselle", "region": "Lorraine", "longueur_m": 1007, "aire_ha": 2995.0, "seuil_max_m": 1000, "largeur_libre_m": 60, "plan_eau": 6, "rang": 11, "nb_courses": 18}}, {"type": "Feature", "geometry": {"type": "LineString", "coordinates": [[6.20943, 48.67805], [6.20665, 48.68624]]}, "properties": {"nom": "La Moselle", "region": "Lorraine", "longueur_m": 934, "aire_ha": 2995.0, "seuil_max_m": 700, "largeur_libre_m": 60, "plan_eau": 6, "rang": 12, "nb_courses": 18}}, {"type": "Feature", "geometry": {"type": "LineString", "coordinates": [[6.03409, 48.99132], [6.04185, 48.99657]]}, "properties": {"nom": "La Moselle", "region": "Lorraine", "longueur_m": 814, "aire_ha": 2995.0, "seuil_max_m": 700, "largeur_libre_m": 60, "plan_eau": 6, "rang": 13, "nb_courses": 18}}, {"type": "Feature", "geometry": {"type": "LineString", "coordinates": [[6.1429, 49.10682], [6.14219, 49.11404]]}, "properties": {"nom": "La Moselle", "region": "Lorraine", "longueur_m": 805, "aire_ha": 2995.0, "seuil_max_m": 700, "largeur_libre_m": 60, "plan_eau": 6, "rang": 14, "nb_courses": 18}}, {"type": "Feature", "geometry": {"type": "LineString", "coordinates": [[6.0565, 49.03687], [6.05863, 49.04394]]}, "properties": {"nom": "La Moselle", "region": "Lorraine", "longueur_m": 802, "aire_ha": 2995.0, "seuil_max_m": 700, "largeur_libre_m": 60, "plan_eau": 6, "rang": 15, "nb_courses": 18}}, {"type": "Feature", "geometry": {"type": "LineString", "coordinates": [[6.09014, 49.07738], [6.08886, 49.08447]]}, "properties": {"nom": "La Moselle", "region": "Lorraine", "longueur_m": 794, "aire_ha": 2995.0, "seuil_max_m": 700, "largeur_libre_m": 60, "plan_eau": 6, "rang": 16, "nb_courses": 18}}, {"type": "Feature", "geometry": {"type": "LineString", "coordinates": [[6.20102, 49.21709], [6.19814, 49.2238]]}, "properties": {"nom": "La Moselle", "region": "Lorraine", "longueur_m": 775, "aire_ha": 2995.0, "seuil_max_m": 700, "largeur_libre_m": 60, "plan_eau": 6, "rang": 17, "nb_courses": 18}}, {"type": "Feature", "geometry": {"type": "LineString", "coordinates": [[5.95633, 48.64426], [5.96534, 48.64665]]}, "properties": {"nom": "La Moselle", "region": "Lorraine", "longueur_m": 715, "aire_ha": 2995.0, "seuil_max_m": 700, "largeur_libre_m": 60, "plan_eau": 6, "rang": 18, "nb_courses": 18}}, {"type": "Feature", "geometry": {"type": "LineString", "coordinates": [[6.05027, 48.92836], [6.04536, 48.9338]]}, "properties": {"nom": null, "region": "Lorraine", "longueur_m": 704, "aire_ha": 14.5, "seuil_max_m": 700, "largeur_libre_m": 60, "plan_eau": 13, "rang": 1, "nb_courses": 1}}, {"type": "Feature", "geometry": {"type": "LineString", "coordinates": [[6.06158, 48.9449], [6.05016, 48.94723]]}, "properties": {"nom": null, "region": "Lorraine", "longueur_m": 876, "aire_ha": 42.4, "seuil_max_m": 700, "largeur_libre_m": 60, "plan_eau": 15, "rang": 1, "nb_courses": 1}}, {"type": "Feature", "geometry": {"type": "LineString", "coordinates": [[5.80594, 49.01714], [5.81691, 49.0341]]}, "properties": {"nom": "Étang de Lachaussée", "region": "Lorraine", "longueur_m": 2050, "aire_ha": 152.5, "seuil_max_m": 2000, "largeur_libre_m": 60, "plan_eau": 37, "rang": 1, "nb_courses": 1}}, {"type": "Feature", "geometry": {"type": "LineString", "coordinates": [[6.5198, 48.98515], [6.52265, 48.99433]]}, "properties": {"nom": "Étang de Bouligny", "region": "Lorraine", "longueur_m": 1042, "aire_ha": 27.1, "seuil_max_m": 1000, "largeur_libre_m": 60, "plan_eau": 38, "rang": 1, "nb_courses": 1}}, {"type": "Feature", "geometry": {"type": "LineString", "coordinates": [[6.51542, 48.97875], [6.50714, 48.98412]]}, "properties": {"nom": "Étang de Holacourt", "region": "Lorraine", "longueur_m": 850, "aire_ha": 18.5, "seuil_max_m": 700, "largeur_libre_m": 60, "plan_eau": 40, "rang": 1, "nb_courses": 1}}, {"type": "Feature", "geometry": {"type": "LineString", "coordinates": [[6.58118, 48.68013], [6.58814, 48.6924]]}, "properties": {"nom": "Étang de Parroy", "region": "Lorraine", "longueur_m": 1457, "aire_ha": 55.8, "seuil_max_m": 1340, "largeur_libre_m": 60, "plan_eau": 41, "rang": 1, "nb_courses": 1}}, {"type": "Feature", "geometry": {"type": "LineString", "coordinates": [[6.79859, 48.78774], [6.7515, 48.7977]]}, "properties": {"nom": "Étang de Lindre", "region": "Lorraine", "longueur_m": 3632, "aire_ha": 505.2, "seuil_max_m": 3000, "largeur_libre_m": 60, "plan_eau": 43, "rang": 1, "nb_courses": 1}}, {"type": "Feature", "geometry": {"type": "LineString", "coordinates": [[6.80372, 48.82161], [6.82086, 48.82671]]}, "properties": {"nom": "Étang de Zommange", "region": "Lorraine", "longueur_m": 1380, "aire_ha": 55.3, "seuil_max_m": 1340, "largeur_libre_m": 60, "plan_eau": 46, "rang": 1, "nb_courses": 1}}, {"type": "Feature", "geometry": {"type": "LineString", "coordinates": [[6.82899, 48.82276], [6.83255, 48.83009]]}, "properties": {"nom": "Étang de Lansquenet", "region": "Lorraine", "longueur_m": 856, "aire_ha": 34.5, "seuil_max_m": 700, "largeur_libre_m": 60, "plan_eau": 47, "rang": 1, "nb_courses": 1}}, {"type": "Feature", "geometry": {"type": "LineString", "coordinates": [[6.93283, 48.44282], [6.93893, 48.45083]]}, "properties": {"nom": "Lac de la Plaine", "region": "Lorraine", "longueur_m": 999, "aire_ha": 33.7, "seuil_max_m": 700, "largeur_libre_m": 60, "plan_eau": 48, "rang": 1, "nb_courses": 1}}, {"type": "Feature", "geometry": {"type": "LineString", "coordinates": [[7.50307, 49.08038], [7.49051, 49.0852]]}, "properties": {"nom": "Étang d'Haspelschiedt", "region": "Lorraine", "longueur_m": 1062, "aire_ha": 23.2, "seuil_max_m": 1000, "largeur_libre_m": 60, "plan_eau": 50, "rang": 1, "nb_courses": 1}}, {"type": "Feature", "geometry": {"type": "LineString", "coordinates": [[6.36863, 48.57484], [6.35882, 48.57546]]}, "properties": {"nom": null, "region": "Lorraine", "longueur_m": 727, "aire_ha": 24.7, "seuil_max_m": 700, "largeur_libre_m": 60, "plan_eau": 71, "rang": 1, "nb_courses": 1}}, {"type": "Feature", "geometry": {"type": "LineString", "coordinates": [[6.35347, 48.57546], [6.3594, 48.58165]]}, "properties": {"nom": null, "region": "Lorraine", "longueur_m": 815, "aire_ha": 34.9, "seuil_max_m": 700, "largeur_libre_m": 60, "plan_eau": 74, "rang": 1, "nb_courses": 1}}, {"type": "Feature", "geometry": {"type": "LineString", "coordinates": [[5.70259, 48.85338], [5.69299, 48.85496]]}, "properties": {"nom": "Étang de Wargevaux", "region": "Lorraine", "longueur_m": 726, "aire_ha": 36.3, "seuil_max_m": 700, "largeur_libre_m": 60, "plan_eau": 83, "rang": 1, "nb_courses": 1}}, {"type": "Feature", "geometry": {"type": "LineString", "coordinates": [[5.79327, 48.82671], [5.8056, 48.83]]}, "properties": {"nom": "Grand Étang", "region": "Lorraine", "longueur_m": 976, "aire_ha": 22.9, "seuil_max_m": 700, "largeur_libre_m": 60, "plan_eau": 86, "rang": 1, "nb_courses": 1}}, {"type": "Feature", "geometry": {"type": "LineString", "coordinates": [[6.86303, 49.06661], [6.87625, 49.06755]]}, "properties": {"nom": "Étang de Hoste Haut", "region": "Lorraine", "longueur_m": 972, "aire_ha": 20.8, "seuil_max_m": 700, "largeur_libre_m": 60, "plan_eau": 97, "rang": 1, "nb_courses": 1}}, {"type": "Feature", "geometry": {"type": "LineString", "coordinates": [[6.88166, 49.06516], [6.89086, 49.06826]]}, "properties": {"nom": "Étang de Hoste Bas", "region": "Lorraine", "longueur_m": 756, "aire_ha": 12.8, "seuil_max_m": 700, "largeur_libre_m": 60, "plan_eau": 98, "rang": 1, "nb_courses": 1}}, {"type": "Feature", "geometry": {"type": "LineString", "coordinates": [[6.9238, 49.02855], [6.9079, 49.03132]]}, "properties": {"nom": "Étang des Marais", "region": "Lorraine", "longueur_m": 1202, "aire_ha": 39.5, "seuil_max_m": 1000, "largeur_libre_m": 60, "plan_eau": 100, "rang": 1, "nb_courses": 1}}, {"type": "Feature", "geometry": {"type": "LineString", "coordinates": [[6.93938, 49.01034], [6.95325, 49.01084]]}, "properties": {"nom": "Étang de Hirbach", "region": "Lorraine", "longueur_m": 1016, "aire_ha": 43.9, "seuil_max_m": 1000, "largeur_libre_m": 60, "plan_eau": 101, "rang": 1, "nb_courses": 1}}, {"type": "Feature", "geometry": {"type": "LineString", "coordinates": [[6.16407, 49.1709], [6.17441, 49.17543]]}, "properties": {"nom": "Étang de Saint-Rémy", "region": "Lorraine", "longueur_m": 907, "aire_ha": 26.4, "seuil_max_m": 700, "largeur_libre_m": 60, "plan_eau": 121, "rang": 1, "nb_courses": 1}}, {"type": "Feature", "geometry": {"type": "LineString", "coordinates": [[5.61221, 49.26889], [5.62809, 49.26854]]}, "properties": {"nom": "Étang d'Amel", "region": "Lorraine", "longueur_m": 1157, "aire_ha": 55.1, "seuil_max_m": 1000, "largeur_libre_m": 60, "plan_eau": 122, "rang": 1, "nb_courses": 1}}, {"type": "Feature", "geometry": {"type": "LineString", "coordinates": [[5.47066, 49.46197], [5.46018, 49.46364]]}, "properties": {"nom": "Plan d'eau de l'Othain", "region": "Lorraine", "longueur_m": 782, "aire_ha": 29.3, "seuil_max_m": 700, "largeur_libre_m": 60, "plan_eau": 128, "rang": 1, "nb_courses": 1}}, {"type": "Feature", "geometry": {"type": "LineString", "coordinates": [[5.58588, 49.19666], [5.57676, 49.19996]]}, "properties": {"nom": "Étang de Perroi", "region": "Lorraine", "longueur_m": 759, "aire_ha": 26.0, "seuil_max_m": 700, "largeur_libre_m": 60, "plan_eau": 129, "rang": 1, "nb_courses": 1}}, {"type": "Feature", "geometry": {"type": "LineString", "coordinates": [[4.9527, 49.03516], [4.96212, 49.03666]]}, "properties": {"nom": "Étang de la Grande Rouillie", "region": "Lorraine", "longueur_m": 709, "aire_ha": 15.4, "seuil_max_m": 700, "largeur_libre_m": 60, "plan_eau": 130, "rang": 1, "nb_courses": 1}}, {"type": "Feature", "geometry": {"type": "LineString", "coordinates": [[5.708, 48.80345], [5.71731, 48.8076]]}, "properties": {"nom": "Étang de Blonnaux", "region": "Lorraine", "longueur_m": 825, "aire_ha": 20.7, "seuil_max_m": 700, "largeur_libre_m": 60, "plan_eau": 131, "rang": 1, "nb_courses": 1}}, {"type": "Feature", "geometry": {"type": "LineString", "coordinates": [[6.34943, 48.66255], [6.34491, 48.66828]]}, "properties": {"nom": null, "region": "Lorraine", "longueur_m": 719, "aire_ha": 29.2, "seuil_max_m": 700, "largeur_libre_m": 60, "plan_eau": 133, "rang": 1, "nb_courses": 1}}, {"type": "Feature", "geometry": {"type": "LineString", "coordinates": [[6.87392, 48.93033], [6.87168, 48.93717]]}, "properties": {"nom": null, "region": "Lorraine", "longueur_m": 778, "aire_ha": 13.5, "seuil_max_m": 700, "largeur_libre_m": 60, "plan_eau": 136, "rang": 1, "nb_courses": 1}}, {"type": "Feature", "geometry": {"type": "LineString", "coordinates": [[6.643, 48.94788], [6.63975, 48.95764]]}, "properties": {"nom": "Étang de la Mutche", "region": "Lorraine", "longueur_m": 1112, "aire_ha": 55.8, "seuil_max_m": 1000, "largeur_libre_m": 60, "plan_eau": 137, "rang": 1, "nb_courses": 1}}, {"type": "Feature", "geometry": {"type": "LineString", "coordinates": [[6.69469, 48.94562], [6.70725, 48.9461]]}, "properties": {"nom": "Étang de Vallerange", "region": "Lorraine", "longueur_m": 921, "aire_ha": 42.0, "seuil_max_m": 700, "largeur_libre_m": 60, "plan_eau": 139, "rang": 1, "nb_courses": 1}}, {"type": "Feature", "geometry": {"type": "LineString", "coordinates": [[6.74748, 48.91417], [6.76013, 48.91847]]}, "properties": {"nom": "Étang de Derrière", "region": "Lorraine", "longueur_m": 1043, "aire_ha": 23.0, "seuil_max_m": 1000, "largeur_libre_m": 60, "plan_eau": 143, "rang": 1, "nb_courses": 1}}, {"type": "Feature", "geometry": {"type": "LineString", "coordinates": [[6.90817, 48.89572], [6.91914, 48.90693]]}, "properties": {"nom": "Roter Weiher", "region": "Lorraine", "longueur_m": 1483, "aire_ha": 66.8, "seuil_max_m": 1340, "largeur_libre_m": 60, "plan_eau": 145, "rang": 1, "nb_courses": 1}}, {"type": "Feature", "geometry": {"type": "LineString", "coordinates": [[6.65419, 48.90659], [6.66553, 48.91272]]}, "properties": {"nom": "Étang du Moulin", "region": "Lorraine", "longueur_m": 1074, "aire_ha": 31.0, "seuil_max_m": 1000, "largeur_libre_m": 60, "plan_eau": 146, "rang": 1, "nb_courses": 1}}, {"type": "Feature", "geometry": {"type": "LineString", "coordinates": [[7.00939, 48.86776], [7.02245, 48.87108]]}, "properties": {"nom": "Langweiher", "region": "Lorraine", "longueur_m": 1027, "aire_ha": 37.9, "seuil_max_m": 1000, "largeur_libre_m": 60, "plan_eau": 147, "rang": 1, "nb_courses": 1}}, {"type": "Feature", "geometry": {"type": "LineString", "coordinates": [[6.76133, 48.7495], [6.75622, 48.75606]]}, "properties": {"nom": "Étang de Videlange", "region": "Lorraine", "longueur_m": 820, "aire_ha": 29.2, "seuil_max_m": 700, "largeur_libre_m": 60, "plan_eau": 149, "rang": 1, "nb_courses": 1}}, {"type": "Feature", "geometry": {"type": "LineString", "coordinates": [[6.70975, 48.74576], [6.70111, 48.74943]]}, "properties": {"nom": "Étang de Brû", "region": "Lorraine", "longueur_m": 755, "aire_ha": 31.1, "seuil_max_m": 700, "largeur_libre_m": 60, "plan_eau": 150, "rang": 1, "nb_courses": 1}}, {"type": "Feature", "geometry": {"type": "LineString", "coordinates": [[6.7049, 48.71893], [6.71444, 48.72178]]}, "properties": {"nom": "Étang d'Ommeray", "region": "Lorraine", "longueur_m": 770, "aire_ha": 38.2, "seuil_max_m": 700, "largeur_libre_m": 60, "plan_eau": 151, "rang": 1, "nb_courses": 1}}, {"type": "Feature", "geometry": {"type": "LineString", "coordinates": [[6.91334, 48.6659], [6.90353, 48.66762]]}, "properties": {"nom": "La Grande Frade", "region": "Lorraine", "longueur_m": 748, "aire_ha": 29.2, "seuil_max_m": 700, "largeur_libre_m": 60, "plan_eau": 152, "rang": 1, "nb_courses": 1}}, {"type": "Feature", "geometry": {"type": "LineString", "coordinates": [[6.93673, 48.66139], [6.9287, 48.66482]]}, "properties": {"nom": "Le Neuf Étang", "region": "Lorraine", "longueur_m": 704, "aire_ha": 13.4, "seuil_max_m": 700, "largeur_libre_m": 60, "plan_eau": 153, "rang": 1, "nb_courses": 1}}, {"type": "Feature", "geometry": {"type": "LineString", "coordinates": [[6.79977, 48.69066], [6.80775, 48.69658]]}, "properties": {"nom": "Étang de la Laixière", "region": "Lorraine", "longueur_m": 882, "aire_ha": 24.5, "seuil_max_m": 700, "largeur_libre_m": 60, "plan_eau": 156, "rang": 1, "nb_courses": 1}}, {"type": "Feature", "geometry": {"type": "LineString", "coordinates": [[6.95559, 48.06358], [6.94825, 48.07861]]}, "properties": {"nom": "Lac de Longemer", "region": "Lorraine", "longueur_m": 1757, "aire_ha": 74.8, "seuil_max_m": 1500, "largeur_libre_m": 60, "plan_eau": 157, "rang": 1, "nb_courses": 1}}, {"type": "Feature", "geometry": {"type": "LineString", "coordinates": [[6.83999, 48.07068], [6.86628, 48.07075]]}, "properties": {"nom": "Lac de Gérardmer", "region": "Lorraine", "longueur_m": 1958, "aire_ha": 115.0, "seuil_max_m": 1500, "largeur_libre_m": 60, "plan_eau": 158, "rang": 1, "nb_courses": 1}}, {"type": "Feature", "geometry": {"type": "LineString", "coordinates": [[4.92771, 48.59152], [4.9403, 48.59175]]}, "properties": {"nom": "Le Grand Étang", "region": "Lorraine", "longueur_m": 929, "aire_ha": 30.1, "seuil_max_m": 700, "largeur_libre_m": 60, "plan_eau": 175, "rang": 1, "nb_courses": 1}}, {"type": "Feature", "geometry": {"type": "LineString", "coordinates": [[6.68104, 49.1937], [6.69252, 49.19864]]}, "properties": {"nom": null, "region": "Lorraine", "longueur_m": 1001, "aire_ha": 13.7, "seuil_max_m": 1000, "largeur_libre_m": 60, "plan_eau": 176, "rang": 1, "nb_courses": 1}}, {"type": "Feature", "geometry": {"type": "LineString", "coordinates": [[5.79269, 48.7865], [5.81144, 48.7915]]}, "properties": {"nom": "Étang Romé", "region": "Lorraine", "longueur_m": 1485, "aire_ha": 76.9, "seuil_max_m": 1340, "largeur_libre_m": 60, "plan_eau": 190, "rang": 1, "nb_courses": 1}}, {"type": "Feature", "geometry": {"type": "LineString", "coordinates": [[5.03759, 48.87154], [5.02044, 48.87425]]}, "properties": {"nom": "Étang du Grand Morinval", "region": "Lorraine", "longueur_m": 1294, "aire_ha": 55.4, "seuil_max_m": 1000, "largeur_libre_m": 60, "plan_eau": 192, "rang": 1, "nb_courses": 1}}, {"type": "Feature", "geometry": {"type": "LineString", "coordinates": [[6.36167, 48.15283], [6.35813, 48.16687]]}, "properties": {"nom": "Réservoir de Bouzey", "region": "Lorraine", "longueur_m": 1582, "aire_ha": 95.8, "seuil_max_m": 1500, "largeur_libre_m": 60, "plan_eau": 193, "rang": 1, "nb_courses": 1}}, {"type": "Feature", "geometry": {"type": "LineString", "coordinates": [[6.82686, 48.68217], [6.8386, 48.68851]]}, "properties": {"nom": "Étang de Réchicourt", "region": "Lorraine", "longueur_m": 1115, "aire_ha": 21.6, "seuil_max_m": 1000, "largeur_libre_m": 60, "plan_eau": 195, "rang": 1, "nb_courses": 1}}, {"type": "Feature", "geometry": {"type": "LineString", "coordinates": [[6.82514, 48.68283], [6.82349, 48.68952]]}, "properties": {"nom": "Étang de Réchicourt", "region": "Lorraine", "longueur_m": 753, "aire_ha": 23.0, "seuil_max_m": 700, "largeur_libre_m": 60, "plan_eau": 197, "rang": 1, "nb_courses": 1}}, {"type": "Feature", "geometry": {"type": "LineString", "coordinates": [[6.9265, 48.68844], [6.91081, 48.69992]]}, "properties": {"nom": "Le Petit Étang", "region": "Lorraine", "longueur_m": 1721, "aire_ha": 62.7, "seuil_max_m": 1500, "largeur_libre_m": 60, "plan_eau": 198, "rang": 1, "nb_courses": 1}}, {"type": "Feature", "geometry": {"type": "LineString", "coordinates": [[6.8924, 48.69191], [6.88896, 48.706]]}, "properties": {"nom": "Cornée de Réchicourt", "region": "Lorraine", "longueur_m": 1587, "aire_ha": 124.1, "seuil_max_m": 1500, "largeur_libre_m": 60, "plan_eau": 200, "rang": 1, "nb_courses": 1}}, {"type": "Feature", "geometry": {"type": "LineString", "coordinates": [[6.91693, 48.83312], [6.92817, 48.83644]]}, "properties": {"nom": "Cornée de Lorraine", "region": "Lorraine", "longueur_m": 905, "aire_ha": 15.6, "seuil_max_m": 700, "largeur_libre_m": 60, "plan_eau": 201, "rang": 1, "nb_courses": 1}}, {"type": "Feature", "geometry": {"type": "LineString", "coordinates": [[6.83738, 48.89169], [6.83893, 48.89831]]}, "properties": {"nom": null, "region": "Lorraine", "longueur_m": 745, "aire_ha": 19.5, "seuil_max_m": 700, "largeur_libre_m": 60, "plan_eau": 227, "rang": 1, "nb_courses": 1}}, {"type": "Feature", "geometry": {"type": "LineString", "coordinates": [[6.7439, 48.74764], [6.7519, 48.75111]]}, "properties": {"nom": "Ètang des Moins", "region": "Lorraine", "longueur_m": 704, "aire_ha": 17.5, "seuil_max_m": 700, "largeur_libre_m": 60, "plan_eau": 247, "rang": 1, "nb_courses": 1}}, {"type": "Feature", "geometry": {"type": "LineString", "coordinates": [[5.50951, 49.30761], [5.52553, 49.31555]]}, "properties": {"nom": "Étang du Haut Fourneau", "region": "Lorraine", "longueur_m": 1462, "aire_ha": 55.0, "seuil_max_m": 1340, "largeur_libre_m": 60, "plan_eau": 314, "rang": 1, "nb_courses": 1}}, {"type": "Feature", "geometry": {"type": "LineString", "coordinates": [[6.00112, 48.65329], [6.00598, 48.65905]]}, "properties": {"nom": null, "region": "Lorraine", "longueur_m": 733, "aire_ha": 23.3, "seuil_max_m": 700, "largeur_libre_m": 60, "plan_eau": 323, "rang": 1, "nb_courses": 1}}, {"type": "Feature", "geometry": {"type": "LineString", "coordinates": [[6.28052, 48.64126], [6.29014, 48.64304]]}, "properties": {"nom": null, "region": "Lorraine", "longueur_m": 736, "aire_ha": 28.5, "seuil_max_m": 700, "largeur_libre_m": 60, "plan_eau": 327, "rang": 1, "nb_courses": 1}}, {"type": "Feature", "geometry": {"type": "LineString", "coordinates": [[6.15808, 48.59044], [6.15647, 48.5967]]}, "properties": {"nom": null, "region": "Lorraine", "longueur_m": 706, "aire_ha": 19.5, "seuil_max_m": 700, "largeur_libre_m": 60, "plan_eau": 330, "rang": 1, "nb_courses": 1}}, {"type": "Feature", "geometry": {"type": "LineString", "coordinates": [[6.17458, 48.58026], [6.1661, 48.58342]]}, "properties": {"nom": null, "region": "Lorraine", "longueur_m": 717, "aire_ha": 19.2, "seuil_max_m": 700, "largeur_libre_m": 60, "plan_eau": 331, "rang": 1, "nb_courses": 1}}, {"type": "Feature", "geometry": {"type": "LineString", "coordinates": [[6.1659, 48.58417], [6.15865, 48.58995]]}, "properties": {"nom": null, "region": "Lorraine", "longueur_m": 836, "aire_ha": 33.5, "seuil_max_m": 700, "largeur_libre_m": 60, "plan_eau": 332, "rang": 1, "nb_courses": 1}}, {"type": "Feature", "geometry": {"type": "LineString", "coordinates": [[6.68575, 48.9915], [6.70529, 49.00756]]}, "properties": {"nom": "Étang de Bischwald", "region": "Lorraine", "longueur_m": 2288, "aire_ha": 103.3, "seuil_max_m": 2000, "largeur_libre_m": 60, "plan_eau": 342, "rang": 1, "nb_courses": 1}}, {"type": "Feature", "geometry": {"type": "LineString", "coordinates": [[6.26985, 47.96312], [6.26155, 47.96626]]}, "properties": {"nom": "Étang des Trémeures", "region": "Lorraine", "longueur_m": 711, "aire_ha": 15.2, "seuil_max_m": 700, "largeur_libre_m": 60, "plan_eau": 397, "rang": 1, "nb_courses": 1}}, {"type": "Feature", "geometry": {"type": "LineString", "coordinates": [[5.75454, 48.78458], [5.76352, 48.79141]]}, "properties": {"nom": "Étang de la Mosée", "region": "Lorraine", "longueur_m": 1006, "aire_ha": 32.5, "seuil_max_m": 1000, "largeur_libre_m": 60, "plan_eau": 407, "rang": 1, "nb_courses": 1}}, {"type": "Feature", "geometry": {"type": "LineString", "coordinates": [[5.77393, 48.80742], [5.76518, 48.813]]}, "properties": {"nom": "Neuf-Étang des Mandres", "region": "Lorraine", "longueur_m": 894, "aire_ha": 41.2, "seuil_max_m": 700, "largeur_libre_m": 60, "plan_eau": 408, "rang": 1, "nb_courses": 1}}, {"type": "Feature", "geometry": {"type": "LineString", "coordinates": [[6.02197, 49.01355], [6.01187, 49.01682]]}, "properties": {"nom": null, "region": "Lorraine", "longueur_m": 824, "aire_ha": 27.8, "seuil_max_m": 700, "largeur_libre_m": 60, "plan_eau": 462, "rang": 1, "nb_courses": 1}}, {"type": "Feature", "geometry": {"type": "LineString", "coordinates": [[6.93729, 48.82875], [6.92848, 48.84649]]}, "properties": {"nom": "Grand Étang de Mittersheim", "region": "Lorraine", "longueur_m": 2076, "aire_ha": 173.9, "seuil_max_m": 2000, "largeur_libre_m": 60, "plan_eau": 530, "rang": 1, "nb_courses": 1}}, {"type": "Feature", "geometry": {"type": "LineString", "coordinates": [[6.86751, 48.70538], [6.9196, 48.71282]]}, "properties": {"nom": "Étang de Gondrexange", "region": "Lorraine", "longueur_m": 3921, "aire_ha": 342.2, "seuil_max_m": 3000, "largeur_libre_m": 60, "plan_eau": 539, "rang": 1, "nb_courses": 1}}, {"type": "Feature", "geometry": {"type": "LineString", "coordinates": [[5.71172, 48.90176], [5.75748, 48.9245]]}, "properties": {"nom": "Lac de Madine", "region": "Lorraine", "longueur_m": 4201, "aire_ha": 945.0, "seuil_max_m": 3000, "largeur_libre_m": 60, "plan_eau": 554, "rang": 1, "nb_courses": 1}}, {"type": "Feature", "geometry": {"type": "LineString", "coordinates": [[7.03023, 48.7253], [7.03956, 48.72731]]}, "properties": {"nom": "Étang Levêque", "region": "Lorraine", "longueur_m": 722, "aire_ha": 14.8, "seuil_max_m": 700, "largeur_libre_m": 60, "plan_eau": 557, "rang": 1, "nb_courses": 1}}, {"type": "Feature", "geometry": {"type": "LineString", "coordinates": [[6.89271, 49.0447], [6.87236, 49.04606]]}, "properties": {"nom": "Étang de Diefenbach", "region": "Lorraine", "longueur_m": 1496, "aire_ha": 58.8, "seuil_max_m": 1340, "largeur_libre_m": 60, "plan_eau": 561, "rang": 1, "nb_courses": 1}}, {"type": "Feature", "geometry": {"type": "LineString", "coordinates": [[6.77328, 48.96133], [6.7672, 48.96622]]}, "properties": {"nom": "Étang de la Tensch", "region": "Lorraine", "longueur_m": 702, "aire_ha": 17.5, "seuil_max_m": 700, "largeur_libre_m": 60, "plan_eau": 590, "rang": 1, "nb_courses": 1}}, {"type": "Feature", "geometry": {"type": "LineString", "coordinates": [[6.91121, 48.88098], [6.90414, 48.88613]]}, "properties": {"nom": "Muehlweiher", "region": "Lorraine", "longueur_m": 773, "aire_ha": 22.7, "seuil_max_m": 700, "largeur_libre_m": 60, "plan_eau": 597, "rang": 1, "nb_courses": 1}}, {"type": "Feature", "geometry": {"type": "LineString", "coordinates": [[6.95441, 49.04919], [6.94361, 49.05233]]}, "properties": {"nom": "Étang du Welschhof", "region": "Lorraine", "longueur_m": 863, "aire_ha": 32.7, "seuil_max_m": 700, "largeur_libre_m": 60, "plan_eau": 598, "rang": 1, "nb_courses": 1}}, {"type": "Feature", "geometry": {"type": "LineString", "coordinates": [[5.75777, 48.98105], [5.77095, 48.9812]]}, "properties": {"nom": "Étang de Vigneulles", "region": "Lorraine", "longueur_m": 965, "aire_ha": 31.5, "seuil_max_m": 700, "largeur_libre_m": 60, "plan_eau": 601, "rang": 1, "nb_courses": 1}}, {"type": "Feature", "geometry": {"type": "LineString", "coordinates": [[5.52368, 49.31622], [5.51255, 49.31722]]}, "properties": {"nom": null, "region": "Lorraine", "longueur_m": 817, "aire_ha": 20.2, "seuil_max_m": 700, "largeur_libre_m": 60, "plan_eau": 604, "rang": 1, "nb_courses": 1}}, {"type": "Feature", "geometry": {"type": "LineString", "coordinates": [[6.41832, 48.26941], [6.41006, 48.27292]]}, "properties": {"nom": null, "region": "Lorraine", "longueur_m": 726, "aire_ha": 16.0, "seuil_max_m": 700, "largeur_libre_m": 60, "plan_eau": 627, "rang": 1, "nb_courses": 1}}, {"type": "Feature", "geometry": {"type": "LineString", "coordinates": [[6.92269, 48.45597], [6.9155, 48.47817]]}, "properties": {"nom": "Lac de Pierre-Percée", "region": "Lorraine", "longueur_m": 2524, "aire_ha": 301.3, "seuil_max_m": 2000, "largeur_libre_m": 60, "plan_eau": 659, "rang": 1, "nb_courses": 1}}, {"type": "Feature", "geometry": {"type": "LineString", "coordinates": [[6.0542, 48.92018], [6.04385, 48.93312]]}, "properties": {"nom": null, "region": "Lorraine", "longueur_m": 1626, "aire_ha": 37.3, "seuil_max_m": 1500, "largeur_libre_m": 60, "plan_eau": 678, "rang": 1, "nb_courses": 1}}, {"type": "Feature", "geometry": {"type": "LineString", "coordinates": [[6.95307, 48.75043], [6.94351, 48.76455]]}, "properties": {"nom": "Étang du Stock", "region": "Lorraine", "longueur_m": 1720, "aire_ha": 103.2, "seuil_max_m": 1500, "largeur_libre_m": 60, "plan_eau": 696, "rang": 1, "nb_courses": 1}}, {"type": "Feature", "geometry": {"type": "LineString", "coordinates": [[6.93799, 48.74055], [6.92732, 48.77335]]}, "properties": {"nom": "Étang du Stock", "region": "Lorraine", "longueur_m": 3730, "aire_ha": 503.7, "seuil_max_m": 3000, "largeur_libre_m": 60, "plan_eau": 697, "rang": 1, "nb_courses": 1}}]}