{"type": "FeatureCollection", "metadata": {"region": "Haute-Normandie", "source": "OpenStreetMap via Geofabrik", "methode": "recollage des polygones contigus, erosion de W/2, toutes les cordes inscrites dont les milieux sont ecartes d'au moins ECART_MIN_M", "largeur_libre_m": 60, "ecart_min_m": 5000, "plusieurs_courses": "Un plan d'eau peut porter plusieurs courses : plan_eau les relie, rang 1 est la plus longue. aire_ha vaut pour l'etendue entiere et se repete sur chaque course ; pour totaliser une surface, ne sommer que les rang 1.", "avertissement": "profondeur, obstacles et degagement d'approche NON pris en compte : borne haute de candidats"}, "features": [{"type": "Feature", "geometry": {"type": "LineString", "coordinates": [[0.30127, 49.43054], [0.43625, 49.4573]]}, "properties": {"nom": "Grand lac de Bouafles", "region": "Haute-Normandie", "longueur_m": 10235, "aire_ha": 7449.6, "seuil_max_m": 3000, "largeur_libre_m": 60, "plan_eau": 0, "rang": 1, "nb_courses": 24}}, {"type": "Feature", "geometry": {"type": "LineString", "coordinates": [[0.58394, 49.43094], [0.51026, 49.48662]]}, "properties": {"nom": "Grand lac de Bouafles", "region": "Haute-Normandie", "longueur_m": 8182, "aire_ha": 7449.6, "seuil_max_m": 3000, "largeur_libre_m": 60, "plan_eau": 0, "rang": 2, "nb_courses": 24}}, {"type": "Feature", "geometry": {"type": "LineString", "coordinates": [[0.42631, 49.45365], [0.50107, 49.48756]]}, "properties": {"nom": "Grand lac de Bouafles", "region": "Haute-Normandie", "longueur_m": 6604, "aire_ha": 7449.6, "seuil_max_m": 3000, "largeur_libre_m": 60, "plan_eau": 0, "rang": 3, "nb_courses": 24}}, {"type": "Feature", "geometry": {"type": "LineString", "coordinates": [[0.93895, 49.42665], [0.93398, 49.46785]]}, "properties": {"nom": "Grand lac de Bouafles", "region": "Haute-Normandie", "longueur_m": 4598, "aire_ha": 7449.6, "seuil_max_m": 3000, "largeur_libre_m": 60, "plan_eau": 0, "rang": 4, "nb_courses": 24}}, {"type": "Feature", "geometry": {"type": "LineString", "coordinates": [[0.28464, 49.42948], [0.22771, 49.43208]]}, "properties": {"nom": "Grand lac de Bouafles", "region": "Haute-Normandie", "longueur_m": 4141, "aire_ha": 7449.6, "seuil_max_m": 3000, "largeur_libre_m": 60, "plan_eau": 0, "rang": 5, "nb_courses": 24}}, {"type": "Feature", "geometry": {"type": "LineString", "coordinates": [[0.66479, 49.45709], [0.66597, 49.49088]]}, "properties": {"nom": "Grand lac de Bouafles", "region": "Haute-Normandie", "longueur_m": 3761, "aire_ha": 7449.6, "seuil_max_m": 3000, "largeur_libre_m": 60, "plan_eau": 0, "rang": 6, "nb_courses": 24}}, {"type": "Feature", "geometry": {"type": "LineString", "coordinates": [[0.94044, 49.35037], [0.98375, 49.35408]]}, "properties": {"nom": "Grand lac de Bouafles", "region": "Haute-Normandie", "longueur_m": 3175, "aire_ha": 7449.6, "seuil_max_m": 3000, "largeur_libre_m": 60, "plan_eau": 0, "rang": 7, "nb_courses": 24}}, {"type": "Feature", "geometry": {"type": "LineString", "coordinates": [[0.81141, 49.47238], [0.77558, 49.482]]}, "properties": {"nom": "Grand lac de Bouafles", "region": "Haute-Normandie", "longueur_m": 2810, "aire_ha": 7449.6, "seuil_max_m": 2000, "largeur_libre_m": 60, "plan_eau": 0, "rang": 8, "nb_courses": 24}}, {"type": "Feature", "geometry": {"type": "LineString", "coordinates": [[0.76711, 49.51336], [0.73315, 49.52384]]}, "properties": {"nom": "Grand lac de Bouafles", "region": "Haute-Normandie", "longueur_m": 2722, "aire_ha": 7449.6, "seuil_max_m": 2000, "largeur_libre_m": 60, "plan_eau": 0, "rang": 9, "nb_courses": 24}}, {"type": "Feature", "geometry": {"type": "LineString", "coordinates": [[0.59868, 49.4276], [0.62929, 49.43476]]}, "properties": {"nom": "Grand lac de Bouafles", "region": "Haute-Normandie", "longueur_m": 2360, "aire_ha": 7449.6, "seuil_max_m": 2000, "largeur_libre_m": 60, "plan_eau": 0, "rang": 10, "nb_courses": 24}}, {"type": "Feature", "geometry": {"type": "LineString", "coordinates": [[1.09433, 49.43624], [1.06525, 49.44414]]}, "properties": {"nom": "Grand lac de Bouafles", "region": "Haute-Normandie", "longueur_m": 2286, "aire_ha": 7449.6, "seuil_max_m": 2000, "largeur_libre_m": 60, "plan_eau": 0, "rang": 11, "nb_courses": 24}}, {"type": "Feature", "geometry": {"type": "LineString", "coordinates": [[0.80717, 49.40881], [0.80151, 49.42856]]}, "properties": {"nom": "Grand lac de Bouafles", "region": "Haute-Normandie", "longueur_m": 2235, "aire_ha": 7449.6, "seuil_max_m": 2000, "largeur_libre_m": 60, "plan_eau": 0, "rang": 12, "nb_courses": 24}}, {"type": "Feature", "geometry": {"type": "LineString", "coordinates": [[1.28074, 49.20438], [1.30127, 49.21843]]}, "properties": {"nom": "Grand lac de Bouafles", "region": "Haute-Normandie", "longueur_m": 2164, "aire_ha": 7449.6, "seuil_max_m": 2000, "largeur_libre_m": 60, "plan_eau": 0, "rang": 13, "nb_courses": 24}}, {"type": "Feature", "geometry": {"type": "LineString", "coordinates": [[1.24988, 49.27263], [1.23539, 49.28824]]}, "properties": {"nom": "Grand lac de Bouafles", "region": "Haute-Normandie", "longueur_m": 2031, "aire_ha": 7449.6, "seuil_max_m": 2000, "largeur_libre_m": 60, "plan_eau": 0, "rang": 14, "nb_courses": 24}}, {"type": "Feature", "geometry": {"type": "LineString", "coordinates": [[1.47223, 49.10802], [1.45203, 49.1195]]}, "properties": {"nom": "Grand lac de Bouafles", "region": "Haute-Normandie", "longueur_m": 1951, "aire_ha": 7449.6, "seuil_max_m": 1500, "largeur_libre_m": 60, "plan_eau": 0, "rang": 15, "nb_courses": 24}}, {"type": "Feature", "geometry": {"type": "LineString", "coordinates": [[1.35051, 49.24969], [1.37305, 49.25234]]}, "properties": {"nom": "Grand lac de Bouafles", "region": "Haute-Normandie", "longueur_m": 1667, "aire_ha": 7449.6, "seuil_max_m": 1500, "largeur_libre_m": 60, "plan_eau": 0, "rang": 16, "nb_courses": 24}}, {"type": "Feature", "geometry": {"type": "LineString", "coordinates": [[0.85834, 49.46469], [0.86834, 49.47672]]}, "properties": {"nom": "Grand lac de Bouafles", "region": "Haute-Normandie", "longueur_m": 1522, "aire_ha": 7449.6, "seuil_max_m": 1500, "largeur_libre_m": 60, "plan_eau": 0, "rang": 17, "nb_courses": 24}}, {"type": "Feature", "geometry": {"type": "LineString", "coordinates": [[1.35149, 49.19498], [1.3642, 49.20572]]}, "properties": {"nom": "Grand lac de Bouafles", "region": "Haute-Normandie", "longueur_m": 1511, "aire_ha": 7449.6, "seuil_max_m": 1500, "largeur_libre_m": 60, "plan_eau": 0, "rang": 18, "nb_courses": 24}}, {"type": "Feature", "geometry": {"type": "LineString", "coordinates": [[0.91945, 49.39494], [0.92527, 49.40777]]}, "properties": {"nom": "Grand lac de Bouafles", "region": "Haute-Normandie", "longueur_m": 1489, "aire_ha": 7449.6, "seuil_max_m": 1340, "largeur_libre_m": 60, "plan_eau": 0, "rang": 19, "nb_courses": 24}}, {"type": "Feature", "geometry": {"type": "LineString", "coordinates": [[1.027, 49.32279], [1.04641, 49.32444]]}, "properties": {"nom": "Grand lac de Bouafles", "region": "Haute-Normandie", "longueur_m": 1423, "aire_ha": 7449.6, "seuil_max_m": 1340, "largeur_libre_m": 60, "plan_eau": 0, "rang": 20, "nb_courses": 24}}, {"type": "Feature", "geometry": {"type": "LineString", "coordinates": [[1.11798, 49.38101], [1.12246, 49.39307]]}, "properties": {"nom": "Grand lac de Bouafles", "region": "Haute-Normandie", "longueur_m": 1381, "aire_ha": 7449.6, "seuil_max_m": 1340, "largeur_libre_m": 60, "plan_eau": 0, "rang": 21, "nb_courses": 24}}, {"type": "Feature", "geometry": {"type": "LineString", "coordinates": [[1.10276, 49.33832], [1.11823, 49.34378]]}, "properties": {"nom": "Grand lac de Bouafles", "region": "Haute-Normandie", "longueur_m": 1278, "aire_ha": 7449.6, "seuil_max_m": 1000, "largeur_libre_m": 60, "plan_eau": 0, "rang": 22, "nb_courses": 24}}, {"type": "Feature", "geometry": {"type": "LineString", "coordinates": [[1.0123, 49.39619], [1.01193, 49.40592]]}, "properties": {"nom": "Grand lac de Bouafles", "region": "Haute-Normandie", "longueur_m": 1083, "aire_ha": 7449.6, "seuil_max_m": 1000, "largeur_libre_m": 60, "plan_eau": 0, "rang": 23, "nb_courses": 24}}, {"type": "Feature", "geometry": {"type": "LineString", "coordinates": [[1.41078, 49.15543], [1.40243, 49.16266]]}, "properties": {"nom": "Grand lac de Bouafles", "region": "Haute-Normandie", "longueur_m": 1009, "aire_ha": 7449.6, "seuil_max_m": 1000, "largeur_libre_m": 60, "plan_eau": 0, "rang": 24, "nb_courses": 24}}, {"type": "Feature", "geometry": {"type": "LineString", "coordinates": [[1.01665, 49.31495], [1.02736, 49.31923]]}, "properties": {"nom": "lac Patin", "region": "Haute-Normandie", "longueur_m": 913, "aire_ha": 22.1, "seuil_max_m": 700, "largeur_libre_m": 60, "plan_eau": 1, "rang": 1, "nb_courses": 1}}, {"type": "Feature", "geometry": {"type": "LineString", "coordinates": [[1.1447, 49.31129], [1.13508, 49.31282]]}, "properties": {"nom": "Plan d'eau d'Igoville", "region": "Haute-Normandie", "longueur_m": 720, "aire_ha": 26.7, "seuil_max_m": 700, "largeur_libre_m": 60, "plan_eau": 6, "rang": 1, "nb_courses": 1}}, {"type": "Feature", "geometry": {"type": "LineString", "coordinates": [[0.31869, 49.46046], [0.17558, 49.47691]]}, "properties": {"nom": "Grand Canal du Havre", "region": "Haute-Normandie", "longueur_m": 10537, "aire_ha": 1322.7, "seuil_max_m": 3000, "largeur_libre_m": 60, "plan_eau": 8, "rang": 1, "nb_courses": 5}}, {"type": "Feature", "geometry": {"type": "LineString", "coordinates": [[0.14238, 49.46814], [0.09037, 49.48388]]}, "properties": {"nom": "Grand Canal du Havre", "region": "Haute-Normandie", "longueur_m": 4158, "aire_ha": 1322.7, "seuil_max_m": 3000, "largeur_libre_m": 60, "plan_eau": 8, "rang": 2, "nb_courses": 5}}, {"type": "Feature", "geometry": {"type": "LineString", "coordinates": [[0.37402, 49.47708], [0.34576, 49.47839]]}, "properties": {"nom": "Grand Canal du Havre", "region": "Haute-Normandie", "longueur_m": 2054, "aire_ha": 1322.7, "seuil_max_m": 2000, "largeur_libre_m": 60, "plan_eau": 8, "rang": 3, "nb_courses": 5}}, {"type": "Feature", "geometry": {"type": "LineString", "coordinates": [[0.44529, 49.47491], [0.42511, 49.47586]]}, "properties": {"nom": "Grand Canal du Havre", "region": "Haute-Normandie", "longueur_m": 1466, "aire_ha": 1322.7, "seuil_max_m": 1340, "largeur_libre_m": 60, "plan_eau": 8, "rang": 4, "nb_courses": 5}}, {"type": "Feature", "geometry": {"type": "LineString", "coordinates": [[0.18096, 49.49311], [0.19558, 49.49658]]}, "properties": {"nom": "Grand Canal du Havre", "region": "Haute-Normandie", "longueur_m": 1128, "aire_ha": 1322.7, "seuil_max_m": 1000, "largeur_libre_m": 60, "plan_eau": 8, "rang": 5, "nb_courses": 5}}, {"type": "Feature", "geometry": {"type": "LineString", "coordinates": [[0.79274, 49.44599], [0.80055, 49.45138]]}, "properties": {"nom": "Tourbière de la Harelle", "region": "Haute-Normandie", "longueur_m": 825, "aire_ha": 45.3, "seuil_max_m": 700, "largeur_libre_m": 60, "plan_eau": 13, "rang": 1, "nb_courses": 1}}, {"type": "Feature", "geometry": {"type": "LineString", "coordinates": [[0.52568, 49.4212], [0.53267, 49.42873]]}, "properties": {"nom": "La Grand-Mare", "region": "Haute-Normandie", "longueur_m": 979, "aire_ha": 63.7, "seuil_max_m": 700, "largeur_libre_m": 60, "plan_eau": 14, "rang": 1, "nb_courses": 1}}, {"type": "Feature", "geometry": {"type": "LineString", "coordinates": [[0.17775, 49.45471], [0.10616, 49.46542]]}, "properties": {"nom": "Bassin Hubert Raoul-Duval", "region": "Haute-Normandie", "longueur_m": 5327, "aire_ha": 355.0, "seuil_max_m": 3000, "largeur_libre_m": 60, "plan_eau": 27, "rang": 1, "nb_courses": 1}}, {"type": "Feature", "geometry": {"type": "LineString", "coordinates": [[1.70622, 49.25869], [1.70396, 49.26714]]}, "properties": {"nom": null, "region": "Haute-Normandie", "longueur_m": 954, "aire_ha": 35.3, "seuil_max_m": 700, "largeur_libre_m": 60, "plan_eau": 33, "rang": 1, "nb_courses": 1}}, {"type": "Feature", "geometry": {"type": "LineString", "coordinates": [[1.24346, 49.29676], [1.21062, 49.29853]]}, "properties": {"nom": "Lac des Deux Amants", "region": "Haute-Normandie", "longueur_m": 2398, "aire_ha": 360.4, "seuil_max_m": 2000, "largeur_libre_m": 60, "plan_eau": 64, "rang": 1, "nb_courses": 1}}, {"type": "Feature", "geometry": {"type": "LineString", "coordinates": [[0.87687, 49.46647], [0.88396, 49.4732]]}, "properties": {"nom": null, "region": "Haute-Normandie", "longueur_m": 908, "aire_ha": 47.2, "seuil_max_m": 700, "largeur_libre_m": 60, "plan_eau": 65, "rang": 1, "nb_courses": 1}}, {"type": "Feature", "geometry": {"type": "LineString", "coordinates": [[1.24367, 49.26015], [1.257, 49.26427]]}, "properties": {"nom": null, "region": "Haute-Normandie", "longueur_m": 1073, "aire_ha": 58.1, "seuil_max_m": 1000, "largeur_libre_m": 60, "plan_eau": 67, "rang": 1, "nb_courses": 1}}, {"type": "Feature", "geometry": {"type": "LineString", "coordinates": [[0.6333, 49.30771], [0.62418, 49.31225]]}, "properties": {"nom": null, "region": "Haute-Normandie", "longueur_m": 834, "aire_ha": 24.9, "seuil_max_m": 700, "largeur_libre_m": 60, "plan_eau": 95, "rang": 1, "nb_courses": 1}}, {"type": "Feature", "geometry": {"type": "LineString", "coordinates": [[1.51426, 50.00525], [1.5059, 50.01321]]}, "properties": {"nom": "Étang d'Incheville", "region": "Haute-Normandie", "longueur_m": 1070, "aire_ha": 26.5, "seuil_max_m": 1000, "largeur_libre_m": 60, "plan_eau": 122, "rang": 1, "nb_courses": 1}}, {"type": "Feature", "geometry": {"type": "LineString", "coordinates": [[1.53857, 49.99446], [1.52633, 49.99882]]}, "properties": {"nom": null, "region": "Haute-Normandie", "longueur_m": 1003, "aire_ha": 43.6, "seuil_max_m": 1000, "largeur_libre_m": 60, "plan_eau": 172, "rang": 1, "nb_courses": 1}}, {"type": "Feature", "geometry": {"type": "LineString", "coordinates": [[0.47881, 49.36149], [0.48886, 49.36556]]}, "properties": {"nom": "Les Étangs de Pont-Audemer", "region": "Haute-Normandie", "longueur_m": 859, "aire_ha": 47.4, "seuil_max_m": 700, "largeur_libre_m": 60, "plan_eau": 174, "rang": 1, "nb_courses": 1}}, {"type": "Feature", "geometry": {"type": "LineString", "coordinates": [[1.08888, 49.32544], [1.07157, 49.32635]]}, "properties": {"nom": "Base de Loisirs de Bédanne", "region": "Haute-Normandie", "longueur_m": 1262, "aire_ha": 54.9, "seuil_max_m": 1000, "largeur_libre_m": 60, "plan_eau": 179, "rang": 1, "nb_courses": 1}}, {"type": "Feature", "geometry": {"type": "LineString", "coordinates": [[0.87556, 49.42945], [0.87308, 49.43618]]}, "properties": {"nom": null, "region": "Haute-Normandie", "longueur_m": 770, "aire_ha": 18.7, "seuil_max_m": 700, "largeur_libre_m": 60, "plan_eau": 182, "rang": 1, "nb_courses": 1}}, {"type": "Feature", "geometry": {"type": "LineString", "coordinates": [[0.87913, 49.42532], [0.89176, 49.43237]]}, "properties": {"nom": null, "region": "Haute-Normandie", "longueur_m": 1206, "aire_ha": 71.7, "seuil_max_m": 1000, "largeur_libre_m": 60, "plan_eau": 183, "rang": 1, "nb_courses": 1}}, {"type": "Feature", "geometry": {"type": "LineString", "coordinates": [[0.88902, 49.43409], [0.87672, 49.43646]]}, "properties": {"nom": null, "region": "Haute-Normandie", "longueur_m": 931, "aire_ha": 37.1, "seuil_max_m": 700, "largeur_libre_m": 60, "plan_eau": 184, "rang": 1, "nb_courses": 1}}, {"type": "Feature", "geometry": {"type": "LineString", "coordinates": [[0.87639, 49.43842], [0.86959, 49.44769]]}, "properties": {"nom": null, "region": "Haute-Normandie", "longueur_m": 1144, "aire_ha": 91.0, "seuil_max_m": 1000, "largeur_libre_m": 60, "plan_eau": 186, "rang": 1, "nb_courses": 1}}, {"type": "Feature", "geometry": {"type": "LineString", "coordinates": [[1.15519, 49.86978], [1.14593, 49.87228]]}, "properties": {"nom": null, "region": "Haute-Normandie", "longueur_m": 722, "aire_ha": 21.5, "seuil_max_m": 700, "largeur_libre_m": 60, "plan_eau": 192, "rang": 1, "nb_courses": 1}}, {"type": "Feature", "geometry": {"type": "LineString", "coordinates": [[0.84818, 49.40429], [0.83898, 49.4106]]}, "properties": {"nom": null, "region": "Haute-Normandie", "longueur_m": 970, "aire_ha": 41.7, "seuil_max_m": 700, "largeur_libre_m": 60, "plan_eau": 198, "rang": 1, "nb_courses": 1}}, {"type": "Feature", "geometry": {"type": "LineString", "coordinates": [[0.83528, 49.40406], [0.82085, 49.41772]]}, "properties": {"nom": null, "region": "Haute-Normandie", "longueur_m": 1846, "aire_ha": 101.1, "seuil_max_m": 1500, "largeur_libre_m": 60, "plan_eau": 199, "rang": 1, "nb_courses": 1}}, {"type": "Feature", "geometry": {"type": "LineString", "coordinates": [[1.24217, 49.26], [1.24102, 49.27006]]}, "properties": {"nom": null, "region": "Haute-Normandie", "longueur_m": 1122, "aire_ha": 51.1, "seuil_max_m": 1000, "largeur_libre_m": 60, "plan_eau": 204, "rang": 1, "nb_courses": 1}}]}