{"type": "FeatureCollection", "metadata": {"region": "Picardie", "source": "OpenStreetMap via Geofabrik", "methode": "recollage des polygones contigus, erosion de W/2, toutes les cordes inscrites dont les milieux sont ecartes d'au moins ECART_MIN_M", "largeur_libre_m": 60, "ecart_min_m": 5000, "plusieurs_courses": "Un plan d'eau peut porter plusieurs courses : plan_eau les relie, rang 1 est la plus longue. aire_ha vaut pour l'etendue entiere et se repete sur chaque course ; pour totaliser une surface, ne sommer que les rang 1.", "avertissement": "profondeur, obstacles et degagement d'approche NON pris en compte : borne haute de candidats"}, "features": [{"type": "Feature", "geometry": {"type": "LineString", "coordinates": [[2.36347, 49.15518], [2.36506, 49.16597]]}, "properties": {"nom": "L’Oise", "region": "Picardie", "longueur_m": 1206, "aire_ha": 1161.9, "seuil_max_m": 1000, "largeur_libre_m": 60, "plan_eau": 0, "rang": 1, "nb_courses": 3}}, {"type": "Feature", "geometry": {"type": "LineString", "coordinates": [[2.24685, 49.13109], [2.25919, 49.13202]]}, "properties": {"nom": "L’Oise", "region": "Picardie", "longueur_m": 907, "aire_ha": 1161.9, "seuil_max_m": 700, "largeur_libre_m": 60, "plan_eau": 0, "rang": 2, "nb_courses": 3}}, {"type": "Feature", "geometry": {"type": "LineString", "coordinates": [[2.73699, 49.33232], [2.74104, 49.33928]]}, "properties": {"nom": "L’Oise", "region": "Picardie", "longueur_m": 828, "aire_ha": 1161.9, "seuil_max_m": 700, "largeur_libre_m": 60, "plan_eau": 0, "rang": 3, "nb_courses": 3}}, {"type": "Feature", "geometry": {"type": "LineString", "coordinates": [[3.11923, 49.86006], [3.10945, 49.86212]]}, "properties": {"nom": null, "region": "Picardie", "longueur_m": 740, "aire_ha": 17.0, "seuil_max_m": 700, "largeur_libre_m": 60, "plan_eau": 12, "rang": 1, "nb_courses": 1}}, {"type": "Feature", "geometry": {"type": "LineString", "coordinates": [[3.57164, 49.46442], [3.55291, 49.46921]]}, "properties": {"nom": "Bassin de Monampteuil", "region": "Picardie", "longueur_m": 1458, "aire_ha": 31.6, "seuil_max_m": 1340, "largeur_libre_m": 60, "plan_eau": 19, "rang": 1, "nb_courses": 1}}, {"type": "Feature", "geometry": {"type": "LineString", "coordinates": [[1.47909, 50.1539], [1.48645, 50.15881]]}, "properties": {"nom": null, "region": "Picardie", "longueur_m": 760, "aire_ha": 29.4, "seuil_max_m": 700, "largeur_libre_m": 60, "plan_eau": 35, "rang": 1, "nb_courses": 1}}, {"type": "Feature", "geometry": {"type": "LineString", "coordinates": [[2.87004, 49.94714], [2.84943, 49.95068]]}, "properties": {"nom": null, "region": "Picardie", "longueur_m": 1532, "aire_ha": 763.5, "seuil_max_m": 1500, "largeur_libre_m": 60, "plan_eau": 39, "rang": 1, "nb_courses": 2}}, {"type": "Feature", "geometry": {"type": "LineString", "coordinates": [[2.73331, 49.9247], [2.74817, 49.92524]]}, "properties": {"nom": null, "region": "Picardie", "longueur_m": 1069, "aire_ha": 763.5, "seuil_max_m": 1000, "largeur_libre_m": 60, "plan_eau": 39, "rang": 2, "nb_courses": 2}}, {"type": "Feature", "geometry": {"type": "LineString", "coordinates": [[2.98278, 49.40686], [2.97205, 49.40759]]}, "properties": {"nom": null, "region": "Picardie", "longueur_m": 783, "aire_ha": 18.0, "seuil_max_m": 700, "largeur_libre_m": 60, "plan_eau": 47, "rang": 1, "nb_courses": 1}}, {"type": "Feature", "geometry": {"type": "LineString", "coordinates": [[1.70622, 49.25869], [1.70396, 49.26714]]}, "properties": {"nom": null, "region": "Picardie", "longueur_m": 954, "aire_ha": 35.3, "seuil_max_m": 700, "largeur_libre_m": 60, "plan_eau": 67, "rang": 1, "nb_courses": 1}}, {"type": "Feature", "geometry": {"type": "LineString", "coordinates": [[1.46567, 50.12742], [1.47234, 50.13293]]}, "properties": {"nom": null, "region": "Picardie", "longueur_m": 777, "aire_ha": 14.6, "seuil_max_m": 700, "largeur_libre_m": 60, "plan_eau": 71, "rang": 1, "nb_courses": 1}}, {"type": "Feature", "geometry": {"type": "LineString", "coordinates": [[1.54079, 50.21081], [1.55282, 50.2126]]}, "properties": {"nom": null, "region": "Picardie", "longueur_m": 883, "aire_ha": 47.0, "seuil_max_m": 700, "largeur_libre_m": 60, "plan_eau": 73, "rang": 1, "nb_courses": 1}}, {"type": "Feature", "geometry": {"type": "LineString", "coordinates": [[3.38422, 49.67956], [3.37414, 49.68063]]}, "properties": {"nom": null, "region": "Picardie", "longueur_m": 737, "aire_ha": 62.7, "seuil_max_m": 700, "largeur_libre_m": 60, "plan_eau": 97, "rang": 1, "nb_courses": 1}}, {"type": "Feature", "geometry": {"type": "LineString", "coordinates": [[1.94521, 50.02945], [1.95488, 50.03316]]}, "properties": {"nom": "Bel Étang", "region": "Picardie", "longueur_m": 808, "aire_ha": 27.2, "seuil_max_m": 700, "largeur_libre_m": 60, "plan_eau": 118, "rang": 1, "nb_courses": 1}}, {"type": "Feature", "geometry": {"type": "LineString", "coordinates": [[1.97257, 50.02513], [1.96291, 50.02636]]}, "properties": {"nom": null, "region": "Picardie", "longueur_m": 706, "aire_ha": 24.6, "seuil_max_m": 700, "largeur_libre_m": 60, "plan_eau": 120, "rang": 1, "nb_courses": 1}}, {"type": "Feature", "geometry": {"type": "LineString", "coordinates": [[1.98553, 50.02585], [1.99575, 50.02976]]}, "properties": {"nom": "Le grand marais", "region": "Picardie", "longueur_m": 852, "aire_ha": 23.0, "seuil_max_m": 700, "largeur_libre_m": 60, "plan_eau": 123, "rang": 1, "nb_courses": 1}}, {"type": "Feature", "geometry": {"type": "LineString", "coordinates": [[1.98508, 50.02679], [1.99309, 50.03108]]}, "properties": {"nom": "Étang des provisions", "region": "Picardie", "longueur_m": 747, "aire_ha": 47.1, "seuil_max_m": 700, "largeur_libre_m": 60, "plan_eau": 129, "rang": 1, "nb_courses": 1}}, {"type": "Feature", "geometry": {"type": "LineString", "coordinates": [[2.00799, 50.01686], [2.0155, 50.02182]]}, "properties": {"nom": null, "region": "Picardie", "longueur_m": 771, "aire_ha": 24.0, "seuil_max_m": 700, "largeur_libre_m": 60, "plan_eau": 136, "rang": 1, "nb_courses": 1}}, {"type": "Feature", "geometry": {"type": "LineString", "coordinates": [[2.03967, 50.01011], [2.02941, 50.01382]]}, "properties": {"nom": null, "region": "Picardie", "longueur_m": 844, "aire_ha": 28.7, "seuil_max_m": 700, "largeur_libre_m": 60, "plan_eau": 139, "rang": 1, "nb_courses": 1}}, {"type": "Feature", "geometry": {"type": "LineString", "coordinates": [[2.12994, 49.95721], [2.12243, 49.96147]]}, "properties": {"nom": null, "region": "Picardie", "longueur_m": 718, "aire_ha": 23.7, "seuil_max_m": 700, "largeur_libre_m": 60, "plan_eau": 166, "rang": 1, "nb_courses": 1}}, {"type": "Feature", "geometry": {"type": "LineString", "coordinates": [[1.61938, 50.2328], [1.63098, 50.26261]]}, "properties": {"nom": null, "region": "Picardie", "longueur_m": 3422, "aire_ha": 217.6, "seuil_max_m": 3000, "largeur_libre_m": 60, "plan_eau": 203, "rang": 1, "nb_courses": 1}}, {"type": "Feature", "geometry": {"type": "LineString", "coordinates": [[3.30199, 49.63341], [3.30976, 49.6396]]}, "properties": {"nom": null, "region": "Picardie", "longueur_m": 889, "aire_ha": 31.0, "seuil_max_m": 700, "largeur_libre_m": 60, "plan_eau": 215, "rang": 1, "nb_courses": 1}}, {"type": "Feature", "geometry": {"type": "LineString", "coordinates": [[3.29895, 49.8421], [3.3112, 49.84663]]}, "properties": {"nom": "Étang d'Isle", "region": "Picardie", "longueur_m": 1016, "aire_ha": 22.1, "seuil_max_m": 1000, "largeur_libre_m": 60, "plan_eau": 223, "rang": 1, "nb_courses": 1}}, {"type": "Feature", "geometry": {"type": "LineString", "coordinates": [[2.72688, 49.31971], [2.72859, 49.32693]]}, "properties": {"nom": null, "region": "Picardie", "longueur_m": 814, "aire_ha": 14.3, "seuil_max_m": 700, "largeur_libre_m": 60, "plan_eau": 236, "rang": 1, "nb_courses": 1}}, {"type": "Feature", "geometry": {"type": "LineString", "coordinates": [[2.74703, 49.32506], [2.74853, 49.33465]]}, "properties": {"nom": null, "region": "Picardie", "longueur_m": 1073, "aire_ha": 34.5, "seuil_max_m": 1000, "largeur_libre_m": 60, "plan_eau": 267, "rang": 1, "nb_courses": 1}}, {"type": "Feature", "geometry": {"type": "LineString", "coordinates": [[2.64764, 49.3125], [2.65309, 49.31872]]}, "properties": {"nom": null, "region": "Picardie", "longueur_m": 798, "aire_ha": 40.6, "seuil_max_m": 700, "largeur_libre_m": 60, "plan_eau": 276, "rang": 1, "nb_courses": 1}}, {"type": "Feature", "geometry": {"type": "LineString", "coordinates": [[2.52744, 49.29418], [2.53866, 49.29901]]}, "properties": {"nom": null, "region": "Picardie", "longueur_m": 978, "aire_ha": 47.3, "seuil_max_m": 700, "largeur_libre_m": 60, "plan_eau": 288, "rang": 1, "nb_courses": 1}}, {"type": "Feature", "geometry": {"type": "LineString", "coordinates": [[2.63963, 49.32053], [2.64724, 49.3246]]}, "properties": {"nom": null, "region": "Picardie", "longueur_m": 715, "aire_ha": 27.3, "seuil_max_m": 700, "largeur_libre_m": 60, "plan_eau": 318, "rang": 1, "nb_courses": 1}}, {"type": "Feature", "geometry": {"type": "LineString", "coordinates": [[2.62932, 49.32279], [2.64067, 49.32567]]}, "properties": {"nom": null, "region": "Picardie", "longueur_m": 886, "aire_ha": 20.2, "seuil_max_m": 700, "largeur_libre_m": 60, "plan_eau": 323, "rang": 1, "nb_courses": 1}}, {"type": "Feature", "geometry": {"type": "LineString", "coordinates": [[2.63354, 49.31263], [2.64093, 49.31935]]}, "properties": {"nom": null, "region": "Picardie", "longueur_m": 921, "aire_ha": 19.9, "seuil_max_m": 700, "largeur_libre_m": 60, "plan_eau": 329, "rang": 1, "nb_courses": 1}}, {"type": "Feature", "geometry": {"type": "LineString", "coordinates": [[1.51426, 50.00525], [1.5059, 50.01321]]}, "properties": {"nom": "Étang d'Incheville", "region": "Picardie", "longueur_m": 1070, "aire_ha": 26.5, "seuil_max_m": 1000, "largeur_libre_m": 60, "plan_eau": 344, "rang": 1, "nb_courses": 1}}, {"type": "Feature", "geometry": {"type": "LineString", "coordinates": [[3.30607, 49.64138], [3.31132, 49.64723]]}, "properties": {"nom": "Plan d'eau de la Frette", "region": "Picardie", "longueur_m": 753, "aire_ha": 34.6, "seuil_max_m": 700, "largeur_libre_m": 60, "plan_eau": 356, "rang": 1, "nb_courses": 1}}, {"type": "Feature", "geometry": {"type": "LineString", "coordinates": [[2.6096, 49.12577], [2.61988, 49.12724]]}, "properties": {"nom": "Étang de l'Épine", "region": "Picardie", "longueur_m": 768, "aire_ha": 36.1, "seuil_max_m": 700, "largeur_libre_m": 60, "plan_eau": 365, "rang": 1, "nb_courses": 1}}, {"type": "Feature", "geometry": {"type": "LineString", "coordinates": [[2.932, 49.90006], [2.94429, 49.9123]]}, "properties": {"nom": "La Somme", "region": "Picardie", "longueur_m": 1624, "aire_ha": 406.5, "seuil_max_m": 1500, "largeur_libre_m": 60, "plan_eau": 376, "rang": 1, "nb_courses": 2}}, {"type": "Feature", "geometry": {"type": "LineString", "coordinates": [[2.92972, 49.84564], [2.92752, 49.85229]]}, "properties": {"nom": "La Somme", "region": "Picardie", "longueur_m": 757, "aire_ha": 406.5, "seuil_max_m": 700, "largeur_libre_m": 60, "plan_eau": 376, "rang": 2, "nb_courses": 2}}, {"type": "Feature", "geometry": {"type": "LineString", "coordinates": [[3.2937, 49.38511], [3.30405, 49.38616]]}, "properties": {"nom": null, "region": "Picardie", "longueur_m": 761, "aire_ha": 27.1, "seuil_max_m": 700, "largeur_libre_m": 60, "plan_eau": 419, "rang": 1, "nb_courses": 1}}, {"type": "Feature", "geometry": {"type": "LineString", "coordinates": [[3.25073, 49.38976], [3.26054, 49.39007]]}, "properties": {"nom": null, "region": "Picardie", "longueur_m": 714, "aire_ha": 13.3, "seuil_max_m": 700, "largeur_libre_m": 60, "plan_eau": 420, "rang": 1, "nb_courses": 1}}, {"type": "Feature", "geometry": {"type": "LineString", "coordinates": [[3.28481, 49.38224], [3.27776, 49.38687]]}, "properties": {"nom": null, "region": "Picardie", "longueur_m": 726, "aire_ha": 28.1, "seuil_max_m": 700, "largeur_libre_m": 60, "plan_eau": 421, "rang": 1, "nb_courses": 1}}, {"type": "Feature", "geometry": {"type": "LineString", "coordinates": [[3.37242, 49.66839], [3.37656, 49.6753]]}, "properties": {"nom": null, "region": "Picardie", "longueur_m": 825, "aire_ha": 22.3, "seuil_max_m": 700, "largeur_libre_m": 60, "plan_eau": 453, "rang": 1, "nb_courses": 1}}, {"type": "Feature", "geometry": {"type": "LineString", "coordinates": [[3.02918, 49.40203], [3.01697, 49.4033]]}, "properties": {"nom": null, "region": "Picardie", "longueur_m": 898, "aire_ha": 10.5, "seuil_max_m": 700, "largeur_libre_m": 60, "plan_eau": 466, "rang": 1, "nb_courses": 1}}, {"type": "Feature", "geometry": {"type": "LineString", "coordinates": [[2.23569, 49.36958], [2.22697, 49.37241]]}, "properties": {"nom": null, "region": "Picardie", "longueur_m": 707, "aire_ha": 17.7, "seuil_max_m": 700, "largeur_libre_m": 60, "plan_eau": 532, "rang": 1, "nb_courses": 1}}, {"type": "Feature", "geometry": {"type": "LineString", "coordinates": [[3.71018, 49.46002], [3.69721, 49.4619]]}, "properties": {"nom": null, "region": "Picardie", "longueur_m": 964, "aire_ha": 24.5, "seuil_max_m": 700, "largeur_libre_m": 60, "plan_eau": 536, "rang": 1, "nb_courses": 1}}, {"type": "Feature", "geometry": {"type": "LineString", "coordinates": [[3.69425, 49.45916], [3.66652, 49.46628]]}, "properties": {"nom": "Lac de l'Ailette", "region": "Picardie", "longueur_m": 2162, "aire_ha": 125.3, "seuil_max_m": 2000, "largeur_libre_m": 60, "plan_eau": 537, "rang": 1, "nb_courses": 1}}, {"type": "Feature", "geometry": {"type": "LineString", "coordinates": [[2.15828, 49.40683], [2.14994, 49.41162]]}, "properties": {"nom": null, "region": "Picardie", "longueur_m": 806, "aire_ha": 12.0, "seuil_max_m": 700, "largeur_libre_m": 60, "plan_eau": 540, "rang": 1, "nb_courses": 1}}, {"type": "Feature", "geometry": {"type": "LineString", "coordinates": [[2.05572, 49.44738], [2.05861, 49.4568]]}, "properties": {"nom": "Plan d'eau du Canada", "region": "Picardie", "longueur_m": 1069, "aire_ha": 36.7, "seuil_max_m": 1000, "largeur_libre_m": 60, "plan_eau": 570, "rang": 1, "nb_courses": 1}}, {"type": "Feature", "geometry": {"type": "LineString", "coordinates": [[1.53857, 49.99446], [1.52633, 49.99882]]}, "properties": {"nom": null, "region": "Picardie", "longueur_m": 1003, "aire_ha": 43.6, "seuil_max_m": 1000, "largeur_libre_m": 60, "plan_eau": 610, "rang": 1, "nb_courses": 1}}, {"type": "Feature", "geometry": {"type": "LineString", "coordinates": [[3.37428, 49.71752], [3.36761, 49.72353]]}, "properties": {"nom": null, "region": "Picardie", "longueur_m": 823, "aire_ha": 31.7, "seuil_max_m": 700, "largeur_libre_m": 60, "plan_eau": 615, "rang": 1, "nb_courses": 1}}, {"type": "Feature", "geometry": {"type": "LineString", "coordinates": [[1.63446, 50.21612], [1.64962, 50.21629]]}, "properties": {"nom": "Bassin de chasse du Crotoy", "region": "Picardie", "longueur_m": 1083, "aire_ha": 44.1, "seuil_max_m": 1000, "largeur_libre_m": 60, "plan_eau": 622, "rang": 1, "nb_courses": 1}}, {"type": "Feature", "geometry": {"type": "LineString", "coordinates": [[2.39465, 49.26171], [2.38286, 49.26329]]}, "properties": {"nom": "Le Marais Chantraine", "region": "Picardie", "longueur_m": 877, "aire_ha": 16.4, "seuil_max_m": 700, "largeur_libre_m": 60, "plan_eau": 637, "rang": 1, "nb_courses": 1}}]}