{"type": "FeatureCollection", "metadata": {"region": "Languedoc-Roussillon", "source": "OpenStreetMap via Geofabrik", "methode": "recollage des polygones contigus, erosion de W/2, toutes les cordes inscrites dont les milieux sont ecartes d'au moins ECART_MIN_M", "largeur_libre_m": 60, "ecart_min_m": 5000, "plusieurs_courses": "Un plan d'eau peut porter plusieurs courses : plan_eau les relie, rang 1 est la plus longue. aire_ha vaut pour l'etendue entiere et se repete sur chaque course ; pour totaliser une surface, ne sommer que les rang 1.", "avertissement": "profondeur, obstacles et degagement d'approche NON pris en compte : borne haute de candidats"}, "features": [{"type": "Feature", "geometry": {"type": "LineString", "coordinates": [[3.06985, 43.11239], [3.09089, 43.11399]]}, "properties": {"nom": "Étang de Gruissan", "region": "Languedoc-Roussillon", "longueur_m": 1723, "aire_ha": 277.3, "seuil_max_m": 1500, "largeur_libre_m": 60, "plan_eau": 0, "rang": 1, "nb_courses": 1}}, {"type": "Feature", "geometry": {"type": "LineString", "coordinates": [[3.53412, 43.32579], [3.67969, 43.45484]]}, "properties": {"nom": "Étang de Thau", "region": "Languedoc-Roussillon", "longueur_m": 18575, "aire_ha": 20968.0, "seuil_max_m": 3000, "largeur_libre_m": 60, "plan_eau": 1, "rang": 1, "nb_courses": 33}}, {"type": "Feature", "geometry": {"type": "LineString", "coordinates": [[3.96738, 43.55658], [4.09277, 43.60764]]}, "properties": {"nom": "Étang de Thau", "region": "Languedoc-Roussillon", "longueur_m": 11612, "aire_ha": 20968.0, "seuil_max_m": 3000, "largeur_libre_m": 60, "plan_eau": 1, "rang": 2, "nb_courses": 33}}, {"type": "Feature", "geometry": {"type": "LineString", "coordinates": [[3.62121, 43.38266], [3.67842, 43.46286]]}, "properties": {"nom": "Étang de Thau", "region": "Languedoc-Roussillon", "longueur_m": 10047, "aire_ha": 20968.0, "seuil_max_m": 3000, "largeur_libre_m": 60, "plan_eau": 1, "rang": 3, "nb_courses": 33}}, {"type": "Feature", "geometry": {"type": "LineString", "coordinates": [[3.81605, 43.46658], [3.87665, 43.51988]]}, "properties": {"nom": "Étang de Thau", "region": "Languedoc-Roussillon", "longueur_m": 7690, "aire_ha": 20968.0, "seuil_max_m": 3000, "largeur_libre_m": 60, "plan_eau": 1, "rang": 4, "nb_courses": 33}}, {"type": "Feature", "geometry": {"type": "LineString", "coordinates": [[3.54212, 43.33153], [3.56667, 43.39656]]}, "properties": {"nom": "Étang de Thau", "region": "Languedoc-Roussillon", "longueur_m": 7497, "aire_ha": 20968.0, "seuil_max_m": 3000, "largeur_libre_m": 60, "plan_eau": 1, "rang": 5, "nb_courses": 33}}, {"type": "Feature", "geometry": {"type": "LineString", "coordinates": [[4.73884, 43.51488], [4.70686, 43.55729]]}, "properties": {"nom": "Étang de Thau", "region": "Languedoc-Roussillon", "longueur_m": 5377, "aire_ha": 20968.0, "seuil_max_m": 3000, "largeur_libre_m": 60, "plan_eau": 1, "rang": 6, "nb_courses": 33}}, {"type": "Feature", "geometry": {"type": "LineString", "coordinates": [[4.80176, 43.38605], [4.74713, 43.41321]]}, "properties": {"nom": "Étang de Thau", "region": "Languedoc-Roussillon", "longueur_m": 5359, "aire_ha": 20968.0, "seuil_max_m": 3000, "largeur_libre_m": 60, "plan_eau": 1, "rang": 7, "nb_courses": 33}}, {"type": "Feature", "geometry": {"type": "LineString", "coordinates": [[3.90447, 43.53859], [3.96886, 43.54796]]}, "properties": {"nom": "Étang de Thau", "region": "Languedoc-Roussillon", "longueur_m": 5309, "aire_ha": 20968.0, "seuil_max_m": 3000, "largeur_libre_m": 60, "plan_eau": 1, "rang": 8, "nb_courses": 33}}, {"type": "Feature", "geometry": {"type": "LineString", "coordinates": [[4.71387, 43.90035], [4.75615, 43.93645]]}, "properties": {"nom": "Étang de Thau", "region": "Languedoc-Roussillon", "longueur_m": 5256, "aire_ha": 20968.0, "seuil_max_m": 3000, "largeur_libre_m": 60, "plan_eau": 1, "rang": 9, "nb_courses": 33}}, {"type": "Feature", "geometry": {"type": "LineString", "coordinates": [[4.75255, 43.46442], [4.7348, 43.50741]]}, "properties": {"nom": "Étang de Thau", "region": "Languedoc-Roussillon", "longueur_m": 4990, "aire_ha": 20968.0, "seuil_max_m": 3000, "largeur_libre_m": 60, "plan_eau": 1, "rang": 10, "nb_courses": 33}}, {"type": "Feature", "geometry": {"type": "LineString", "coordinates": [[3.7655, 43.43611], [3.81568, 43.45934]]}, "properties": {"nom": "Étang de Thau", "region": "Languedoc-Roussillon", "longueur_m": 4815, "aire_ha": 20968.0, "seuil_max_m": 3000, "largeur_libre_m": 60, "plan_eau": 1, "rang": 11, "nb_courses": 33}}, {"type": "Feature", "geometry": {"type": "LineString", "coordinates": [[4.64922, 43.87323], [4.69273, 43.88645]]}, "properties": {"nom": "Étang de Thau", "region": "Languedoc-Roussillon", "longueur_m": 3793, "aire_ha": 20968.0, "seuil_max_m": 3000, "largeur_libre_m": 60, "plan_eau": 1, "rang": 12, "nb_courses": 33}}, {"type": "Feature", "geometry": {"type": "LineString", "coordinates": [[4.6876, 43.56748], [4.65791, 43.5925]]}, "properties": {"nom": "Étang de Thau", "region": "Languedoc-Roussillon", "longueur_m": 3672, "aire_ha": 20968.0, "seuil_max_m": 3000, "largeur_libre_m": 60, "plan_eau": 1, "rang": 13, "nb_courses": 33}}, {"type": "Feature", "geometry": {"type": "LineString", "coordinates": [[4.83831, 43.35675], [4.80947, 43.38123]]}, "properties": {"nom": "Étang de Thau", "region": "Languedoc-Roussillon", "longueur_m": 3588, "aire_ha": 20968.0, "seuil_max_m": 3000, "largeur_libre_m": 60, "plan_eau": 1, "rang": 14, "nb_courses": 33}}, {"type": "Feature", "geometry": {"type": "LineString", "coordinates": [[4.62565, 43.76028], [4.65139, 43.78486]]}, "properties": {"nom": "Étang de Thau", "region": "Languedoc-Roussillon", "longueur_m": 3429, "aire_ha": 20968.0, "seuil_max_m": 3000, "largeur_libre_m": 60, "plan_eau": 1, "rang": 15, "nb_courses": 33}}, {"type": "Feature", "geometry": {"type": "LineString", "coordinates": [[4.13464, 43.55907], [4.10097, 43.56741]]}, "properties": {"nom": "Étang de Thau", "region": "Languedoc-Roussillon", "longueur_m": 2875, "aire_ha": 20968.0, "seuil_max_m": 2000, "largeur_libre_m": 60, "plan_eau": 1, "rang": 16, "nb_courses": 33}}, {"type": "Feature", "geometry": {"type": "LineString", "coordinates": [[4.61191, 43.63242], [4.59661, 43.65536]]}, "properties": {"nom": "Étang de Thau", "region": "Languedoc-Roussillon", "longueur_m": 2833, "aire_ha": 20968.0, "seuil_max_m": 2000, "largeur_libre_m": 60, "plan_eau": 1, "rang": 17, "nb_courses": 33}}, {"type": "Feature", "geometry": {"type": "LineString", "coordinates": [[4.62972, 43.68875], [4.61307, 43.7107]]}, "properties": {"nom": "Étang de Thau", "region": "Languedoc-Roussillon", "longueur_m": 2784, "aire_ha": 20968.0, "seuil_max_m": 2000, "largeur_libre_m": 60, "plan_eau": 1, "rang": 18, "nb_courses": 33}}, {"type": "Feature", "geometry": {"type": "LineString", "coordinates": [[5.02505, 43.83182], [4.99517, 43.84354]]}, "properties": {"nom": "Étang de Thau", "region": "Languedoc-Roussillon", "longueur_m": 2734, "aire_ha": 20968.0, "seuil_max_m": 2000, "largeur_libre_m": 60, "plan_eau": 1, "rang": 19, "nb_courses": 33}}, {"type": "Feature", "geometry": {"type": "LineString", "coordinates": [[4.77956, 43.93747], [4.79452, 43.95525]]}, "properties": {"nom": "Étang de Thau", "region": "Languedoc-Roussillon", "longueur_m": 2312, "aire_ha": 20968.0, "seuil_max_m": 2000, "largeur_libre_m": 60, "plan_eau": 1, "rang": 20, "nb_courses": 33}}, {"type": "Feature", "geometry": {"type": "LineString", "coordinates": [[5.09851, 43.76647], [5.07682, 43.77728]]}, "properties": {"nom": "Étang de Thau", "region": "Languedoc-Roussillon", "longueur_m": 2120, "aire_ha": 20968.0, "seuil_max_m": 2000, "largeur_libre_m": 60, "plan_eau": 1, "rang": 21, "nb_courses": 33}}, {"type": "Feature", "geometry": {"type": "LineString", "coordinates": [[4.62275, 43.8431], [4.61926, 43.8615]]}, "properties": {"nom": "Étang de Thau", "region": "Languedoc-Roussillon", "longueur_m": 2064, "aire_ha": 20968.0, "seuil_max_m": 2000, "largeur_libre_m": 60, "plan_eau": 1, "rang": 22, "nb_courses": 33}}, {"type": "Feature", "geometry": {"type": "LineString", "coordinates": [[5.17563, 43.73667], [5.16221, 43.74695]]}, "properties": {"nom": "Étang de Thau", "region": "Languedoc-Roussillon", "longueur_m": 1574, "aire_ha": 20968.0, "seuil_max_m": 1500, "largeur_libre_m": 60, "plan_eau": 1, "rang": 23, "nb_courses": 33}}, {"type": "Feature", "geometry": {"type": "LineString", "coordinates": [[4.07429, 43.60368], [4.09316, 43.60715]]}, "properties": {"nom": "Étang de Thau", "region": "Languedoc-Roussillon", "longueur_m": 1572, "aire_ha": 20968.0, "seuil_max_m": 1500, "largeur_libre_m": 60, "plan_eau": 1, "rang": 24, "nb_courses": 33}}, {"type": "Feature", "geometry": {"type": "LineString", "coordinates": [[4.22596, 43.97778], [4.20973, 43.98565]]}, "properties": {"nom": "Étang de Thau", "region": "Languedoc-Roussillon", "longueur_m": 1569, "aire_ha": 20968.0, "seuil_max_m": 1500, "largeur_libre_m": 60, "plan_eau": 1, "rang": 25, "nb_courses": 33}}, {"type": "Feature", "geometry": {"type": "LineString", "coordinates": [[4.87179, 43.90661], [4.85591, 43.9087]]}, "properties": {"nom": "Étang de Thau", "region": "Languedoc-Roussillon", "longueur_m": 1297, "aire_ha": 20968.0, "seuil_max_m": 1000, "largeur_libre_m": 60, "plan_eau": 1, "rang": 26, "nb_courses": 33}}, {"type": "Feature", "geometry": {"type": "LineString", "coordinates": [[4.73214, 43.43202], [4.74041, 43.44086]]}, "properties": {"nom": "Étang de Thau", "region": "Languedoc-Roussillon", "longueur_m": 1189, "aire_ha": 20968.0, "seuil_max_m": 1000, "largeur_libre_m": 60, "plan_eau": 1, "rang": 27, "nb_courses": 33}}, {"type": "Feature", "geometry": {"type": "LineString", "coordinates": [[4.84363, 43.99965], [4.84397, 44.01035]]}, "properties": {"nom": "Étang de Thau", "region": "Languedoc-Roussillon", "longueur_m": 1189, "aire_ha": 20968.0, "seuil_max_m": 1000, "largeur_libre_m": 60, "plan_eau": 1, "rang": 28, "nb_courses": 33}}, {"type": "Feature", "geometry": {"type": "LineString", "coordinates": [[4.13666, 44.01731], [4.14447, 44.02572]]}, "properties": {"nom": "Étang de Thau", "region": "Languedoc-Roussillon", "longueur_m": 1125, "aire_ha": 20968.0, "seuil_max_m": 1000, "largeur_libre_m": 60, "plan_eau": 1, "rang": 29, "nb_courses": 33}}, {"type": "Feature", "geometry": {"type": "LineString", "coordinates": [[4.40385, 43.57438], [4.41546, 43.57965]]}, "properties": {"nom": "Étang de Thau", "region": "Languedoc-Roussillon", "longueur_m": 1106, "aire_ha": 20968.0, "seuil_max_m": 1000, "largeur_libre_m": 60, "plan_eau": 1, "rang": 30, "nb_courses": 33}}, {"type": "Feature", "geometry": {"type": "LineString", "coordinates": [[4.06635, 44.02632], [4.07749, 44.03138]]}, "properties": {"nom": "Étang de Thau", "region": "Languedoc-Roussillon", "longueur_m": 1056, "aire_ha": 20968.0, "seuil_max_m": 1000, "largeur_libre_m": 60, "plan_eau": 1, "rang": 31, "nb_courses": 33}}, {"type": "Feature", "geometry": {"type": "LineString", "coordinates": [[4.47539, 43.68495], [4.48019, 43.69354]]}, "properties": {"nom": "Étang de Thau", "region": "Languedoc-Roussillon", "longueur_m": 1030, "aire_ha": 20968.0, "seuil_max_m": 1000, "largeur_libre_m": 60, "plan_eau": 1, "rang": 32, "nb_courses": 33}}, {"type": "Feature", "geometry": {"type": "LineString", "coordinates": [[4.43117, 43.62915], [4.43624, 43.63703]]}, "properties": {"nom": "Étang de Thau", "region": "Languedoc-Roussillon", "longueur_m": 967, "aire_ha": 20968.0, "seuil_max_m": 700, "largeur_libre_m": 60, "plan_eau": 1, "rang": 33, "nb_courses": 33}}, {"type": "Feature", "geometry": {"type": "LineString", "coordinates": [[4.22528, 43.49329], [4.2041, 43.49682]]}, "properties": {"nom": null, "region": "Languedoc-Roussillon", "longueur_m": 1758, "aire_ha": 87.1, "seuil_max_m": 1500, "largeur_libre_m": 60, "plan_eau": 6, "rang": 1, "nb_courses": 1}}, {"type": "Feature", "geometry": {"type": "LineString", "coordinates": [[4.29934, 43.52401], [4.30602, 43.53317]]}, "properties": {"nom": "Clos de Calacade", "region": "Languedoc-Roussillon", "longueur_m": 1153, "aire_ha": 104.9, "seuil_max_m": 1000, "largeur_libre_m": 60, "plan_eau": 7, "rang": 1, "nb_courses": 1}}, {"type": "Feature", "geometry": {"type": "LineString", "coordinates": [[4.21974, 43.49684], [4.21205, 43.50262]]}, "properties": {"nom": null, "region": "Languedoc-Roussillon", "longueur_m": 894, "aire_ha": 53.0, "seuil_max_m": 700, "largeur_libre_m": 60, "plan_eau": 10, "rang": 1, "nb_courses": 1}}, {"type": "Feature", "geometry": {"type": "LineString", "coordinates": [[4.20658, 43.50461], [4.19693, 43.5066]]}, "properties": {"nom": null, "region": "Languedoc-Roussillon", "longueur_m": 812, "aire_ha": 22.7, "seuil_max_m": 700, "largeur_libre_m": 60, "plan_eau": 13, "rang": 1, "nb_courses": 1}}, {"type": "Feature", "geometry": {"type": "LineString", "coordinates": [[4.19842, 43.50729], [4.19744, 43.51523]]}, "properties": {"nom": null, "region": "Languedoc-Roussillon", "longueur_m": 887, "aire_ha": 21.3, "seuil_max_m": 700, "largeur_libre_m": 60, "plan_eau": 20, "rang": 1, "nb_courses": 1}}, {"type": "Feature", "geometry": {"type": "LineString", "coordinates": [[4.1718, 43.51065], [4.17434, 43.51716]]}, "properties": {"nom": null, "region": "Languedoc-Roussillon", "longueur_m": 752, "aire_ha": 29.9, "seuil_max_m": 700, "largeur_libre_m": 60, "plan_eau": 29, "rang": 1, "nb_courses": 1}}, {"type": "Feature", "geometry": {"type": "LineString", "coordinates": [[4.09744, 43.58265], [4.0894, 43.58933]]}, "properties": {"nom": null, "region": "Languedoc-Roussillon", "longueur_m": 987, "aire_ha": 30.4, "seuil_max_m": 700, "largeur_libre_m": 60, "plan_eau": 30, "rang": 1, "nb_courses": 1}}, {"type": "Feature", "geometry": {"type": "LineString", "coordinates": [[4.21948, 43.51868], [4.22459, 43.52421]]}, "properties": {"nom": null, "region": "Languedoc-Roussillon", "longueur_m": 741, "aire_ha": 21.9, "seuil_max_m": 700, "largeur_libre_m": 60, "plan_eau": 45, "rang": 1, "nb_courses": 1}}, {"type": "Feature", "geometry": {"type": "LineString", "coordinates": [[4.27083, 43.51602], [4.28435, 43.52293]]}, "properties": {"nom": "Le Fenassier", "region": "Languedoc-Roussillon", "longueur_m": 1336, "aire_ha": 111.3, "seuil_max_m": 1000, "largeur_libre_m": 60, "plan_eau": 48, "rang": 1, "nb_courses": 1}}, {"type": "Feature", "geometry": {"type": "LineString", "coordinates": [[4.26471, 43.5194], [4.27464, 43.52122]]}, "properties": {"nom": null, "region": "Languedoc-Roussillon", "longueur_m": 829, "aire_ha": 35.4, "seuil_max_m": 700, "largeur_libre_m": 60, "plan_eau": 49, "rang": 1, "nb_courses": 1}}, {"type": "Feature", "geometry": {"type": "LineString", "coordinates": [[4.29411, 43.51676], [4.28465, 43.52467]]}, "properties": {"nom": "Clos de Talar", "region": "Languedoc-Roussillon", "longueur_m": 1166, "aire_ha": 54.0, "seuil_max_m": 1000, "largeur_libre_m": 60, "plan_eau": 50, "rang": 1, "nb_courses": 1}}, {"type": "Feature", "geometry": {"type": "LineString", "coordinates": [[4.27446, 43.52209], [4.25885, 43.52533]]}, "properties": {"nom": "Clos du Pigeonnier", "region": "Languedoc-Roussillon", "longueur_m": 1313, "aire_ha": 71.6, "seuil_max_m": 1000, "largeur_libre_m": 60, "plan_eau": 52, "rang": 1, "nb_courses": 1}}, {"type": "Feature", "geometry": {"type": "LineString", "coordinates": [[4.25788, 43.5259], [4.25142, 43.5355]]}, "properties": {"nom": "Clos de Valagus", "region": "Languedoc-Roussillon", "longueur_m": 1188, "aire_ha": 68.3, "seuil_max_m": 1000, "largeur_libre_m": 60, "plan_eau": 53, "rang": 1, "nb_courses": 1}}, {"type": "Feature", "geometry": {"type": "LineString", "coordinates": [[4.27642, 43.52304], [4.27111, 43.52854]]}, "properties": {"nom": null, "region": "Languedoc-Roussillon", "longueur_m": 747, "aire_ha": 26.4, "seuil_max_m": 700, "largeur_libre_m": 60, "plan_eau": 55, "rang": 1, "nb_courses": 1}}, {"type": "Feature", "geometry": {"type": "LineString", "coordinates": [[4.29878, 43.52068], [4.28176, 43.52902]]}, "properties": {"nom": "Clos du Pont aux Ânes", "region": "Languedoc-Roussillon", "longueur_m": 1659, "aire_ha": 68.2, "seuil_max_m": 1500, "largeur_libre_m": 60, "plan_eau": 56, "rang": 1, "nb_courses": 1}}, {"type": "Feature", "geometry": {"type": "LineString", "coordinates": [[2.81823, 42.77954], [2.82657, 42.78192]]}, "properties": {"nom": null, "region": "Languedoc-Roussillon", "longueur_m": 732, "aire_ha": 246.3, "seuil_max_m": 700, "largeur_libre_m": 60, "plan_eau": 63, "rang": 1, "nb_courses": 1}}, {"type": "Feature", "geometry": {"type": "LineString", "coordinates": [[3.00235, 42.58302], [3.01339, 42.58345]]}, "properties": {"nom": "Le Tech", "region": "Languedoc-Roussillon", "longueur_m": 909, "aire_ha": 253.5, "seuil_max_m": 700, "largeur_libre_m": 60, "plan_eau": 65, "rang": 1, "nb_courses": 2}}, {"type": "Feature", "geometry": {"type": "LineString", "coordinates": [[2.86245, 42.54058], [2.8712, 42.54529]]}, "properties": {"nom": "Le Tech", "region": "Languedoc-Roussillon", "longueur_m": 890, "aire_ha": 253.5, "seuil_max_m": 700, "largeur_libre_m": 60, "plan_eau": 65, "rang": 2, "nb_courses": 2}}, {"type": "Feature", "geometry": {"type": "LineString", "coordinates": [[3.73307, 43.42181], [3.74359, 43.4279]]}, "properties": {"nom": null, "region": "Languedoc-Roussillon", "longueur_m": 1088, "aire_ha": 30.6, "seuil_max_m": 1000, "largeur_libre_m": 60, "plan_eau": 67, "rang": 1, "nb_courses": 1}}, {"type": "Feature", "geometry": {"type": "LineString", "coordinates": [[4.14323, 43.54122], [4.15283, 43.55444]]}, "properties": {"nom": "Étang du Médard", "region": "Languedoc-Roussillon", "longueur_m": 1661, "aire_ha": 136.3, "seuil_max_m": 1500, "largeur_libre_m": 60, "plan_eau": 69, "rang": 1, "nb_courses": 1}}, {"type": "Feature", "geometry": {"type": "LineString", "coordinates": [[3.76062, 43.43093], [3.77036, 43.43493]]}, "properties": {"nom": "Étang des Mouettes", "region": "Languedoc-Roussillon", "longueur_m": 906, "aire_ha": 39.4, "seuil_max_m": 700, "largeur_libre_m": 60, "plan_eau": 70, "rang": 1, "nb_courses": 1}}, {"type": "Feature", "geometry": {"type": "LineString", "coordinates": [[4.34235, 43.61389], [4.36474, 43.63548]]}, "properties": {"nom": "Étang de Scamandre", "region": "Languedoc-Roussillon", "longueur_m": 3004, "aire_ha": 602.2, "seuil_max_m": 3000, "largeur_libre_m": 60, "plan_eau": 72, "rang": 1, "nb_courses": 1}}, {"type": "Feature", "geometry": {"type": "LineString", "coordinates": [[4.27846, 43.61627], [4.31909, 43.61733]]}, "properties": {"nom": "Étang du Charnier", "region": "Languedoc-Roussillon", "longueur_m": 3283, "aire_ha": 502.2, "seuil_max_m": 3000, "largeur_libre_m": 60, "plan_eau": 73, "rang": 1, "nb_courses": 1}}, {"type": "Feature", "geometry": {"type": "LineString", "coordinates": [[3.97509, 43.57305], [3.96568, 43.5735]]}, "properties": {"nom": "Étang du Maire", "region": "Languedoc-Roussillon", "longueur_m": 762, "aire_ha": 35.0, "seuil_max_m": 700, "largeur_libre_m": 60, "plan_eau": 74, "rang": 1, "nb_courses": 1}}, {"type": "Feature", "geometry": {"type": "LineString", "coordinates": [[4.23991, 43.51237], [4.23718, 43.52248]]}, "properties": {"nom": null, "region": "Languedoc-Roussillon", "longueur_m": 1146, "aire_ha": 47.1, "seuil_max_m": 1000, "largeur_libre_m": 60, "plan_eau": 79, "rang": 1, "nb_courses": 1}}, {"type": "Feature", "geometry": {"type": "LineString", "coordinates": [[4.23647, 43.50181], [4.23168, 43.51315]]}, "properties": {"nom": null, "region": "Languedoc-Roussillon", "longueur_m": 1318, "aire_ha": 50.5, "seuil_max_m": 1000, "largeur_libre_m": 60, "plan_eau": 80, "rang": 1, "nb_courses": 1}}, {"type": "Feature", "geometry": {"type": "LineString", "coordinates": [[4.24338, 43.50603], [4.24969, 43.51152]]}, "properties": {"nom": null, "region": "Languedoc-Roussillon", "longueur_m": 796, "aire_ha": 81.6, "seuil_max_m": 700, "largeur_libre_m": 60, "plan_eau": 84, "rang": 1, "nb_courses": 1}}, {"type": "Feature", "geometry": {"type": "LineString", "coordinates": [[4.24038, 43.52023], [4.22884, 43.54754]]}, "properties": {"nom": "Étang de Caitives", "region": "Languedoc-Roussillon", "longueur_m": 3175, "aire_ha": 241.1, "seuil_max_m": 3000, "largeur_libre_m": 60, "plan_eau": 85, "rang": 1, "nb_courses": 1}}, {"type": "Feature", "geometry": {"type": "LineString", "coordinates": [[4.23295, 43.51385], [4.23208, 43.53114]]}, "properties": {"nom": null, "region": "Languedoc-Roussillon", "longueur_m": 1923, "aire_ha": 86.8, "seuil_max_m": 1500, "largeur_libre_m": 60, "plan_eau": 86, "rang": 1, "nb_courses": 1}}, {"type": "Feature", "geometry": {"type": "LineString", "coordinates": [[4.22672, 43.53178], [4.2168, 43.5372]]}, "properties": {"nom": null, "region": "Languedoc-Roussillon", "longueur_m": 1003, "aire_ha": 45.3, "seuil_max_m": 1000, "largeur_libre_m": 60, "plan_eau": 87, "rang": 1, "nb_courses": 1}}, {"type": "Feature", "geometry": {"type": "LineString", "coordinates": [[4.22018, 43.53951], [4.21905, 43.54871]]}, "properties": {"nom": "Clos des Quarante Sols", "region": "Languedoc-Roussillon", "longueur_m": 1027, "aire_ha": 42.1, "seuil_max_m": 1000, "largeur_libre_m": 60, "plan_eau": 88, "rang": 1, "nb_courses": 1}}, {"type": "Feature", "geometry": {"type": "LineString", "coordinates": [[4.23539, 43.48462], [4.23917, 43.49054]]}, "properties": {"nom": null, "region": "Languedoc-Roussillon", "longueur_m": 726, "aire_ha": 15.3, "seuil_max_m": 700, "largeur_libre_m": 60, "plan_eau": 89, "rang": 1, "nb_courses": 1}}, {"type": "Feature", "geometry": {"type": "LineString", "coordinates": [[4.25341, 43.47713], [4.23472, 43.48025]]}, "properties": {"nom": "Clos de la Corée", "region": "Languedoc-Roussillon", "longueur_m": 1552, "aire_ha": 101.1, "seuil_max_m": 1500, "largeur_libre_m": 60, "plan_eau": 91, "rang": 1, "nb_courses": 1}}, {"type": "Feature", "geometry": {"type": "LineString", "coordinates": [[4.23299, 43.46905], [4.2531, 43.47114]]}, "properties": {"nom": "Clos du Jonc Marin", "region": "Languedoc-Roussillon", "longueur_m": 1645, "aire_ha": 128.8, "seuil_max_m": 1500, "largeur_libre_m": 60, "plan_eau": 92, "rang": 1, "nb_courses": 1}}, {"type": "Feature", "geometry": {"type": "LineString", "coordinates": [[4.23262, 43.4634], [4.25861, 43.46922]]}, "properties": {"nom": "Clos de la Comète", "region": "Languedoc-Roussillon", "longueur_m": 2201, "aire_ha": 169.5, "seuil_max_m": 2000, "largeur_libre_m": 60, "plan_eau": 93, "rang": 1, "nb_courses": 1}}, {"type": "Feature", "geometry": {"type": "LineString", "coordinates": [[4.31474, 43.49449], [4.30743, 43.51574]]}, "properties": {"nom": "Étang de Boniface", "region": "Languedoc-Roussillon", "longueur_m": 2434, "aire_ha": 163.5, "seuil_max_m": 2000, "largeur_libre_m": 60, "plan_eau": 94, "rang": 1, "nb_courses": 1}}, {"type": "Feature", "geometry": {"type": "LineString", "coordinates": [[4.28762, 43.48856], [4.29871, 43.51209]]}, "properties": {"nom": "Étang de Brasol", "region": "Languedoc-Roussillon", "longueur_m": 2764, "aire_ha": 380.2, "seuil_max_m": 2000, "largeur_libre_m": 60, "plan_eau": 95, "rang": 1, "nb_courses": 1}}, {"type": "Feature", "geometry": {"type": "LineString", "coordinates": [[4.23141, 43.49824], [4.21946, 43.50023]]}, "properties": {"nom": null, "region": "Languedoc-Roussillon", "longueur_m": 992, "aire_ha": 73.5, "seuil_max_m": 700, "largeur_libre_m": 60, "plan_eau": 97, "rang": 1, "nb_courses": 1}}, {"type": "Feature", "geometry": {"type": "LineString", "coordinates": [[4.21616, 43.50311], [4.21831, 43.50995]]}, "properties": {"nom": null, "region": "Languedoc-Roussillon", "longueur_m": 779, "aire_ha": 35.1, "seuil_max_m": 700, "largeur_libre_m": 60, "plan_eau": 98, "rang": 1, "nb_courses": 1}}, {"type": "Feature", "geometry": {"type": "LineString", "coordinates": [[4.22683, 43.50751], [4.22506, 43.51408]]}, "properties": {"nom": null, "region": "Languedoc-Roussillon", "longueur_m": 744, "aire_ha": 14.9, "seuil_max_m": 700, "largeur_libre_m": 60, "plan_eau": 99, "rang": 1, "nb_courses": 1}}, {"type": "Feature", "geometry": {"type": "LineString", "coordinates": [[4.23056, 43.48063], [4.21754, 43.49149]]}, "properties": {"nom": "Plaine de Saint-Jean", "region": "Languedoc-Roussillon", "longueur_m": 1603, "aire_ha": 193.1, "seuil_max_m": 1500, "largeur_libre_m": 60, "plan_eau": 106, "rang": 1, "nb_courses": 1}}, {"type": "Feature", "geometry": {"type": "LineString", "coordinates": [[4.16929, 43.55879], [4.17096, 43.56888]]}, "properties": {"nom": "Étang de la Marette", "region": "Languedoc-Roussillon", "longueur_m": 1130, "aire_ha": 104.2, "seuil_max_m": 1000, "largeur_libre_m": 60, "plan_eau": 108, "rang": 1, "nb_courses": 1}}, {"type": "Feature", "geometry": {"type": "LineString", "coordinates": [[4.21718, 43.53822], [4.18784, 43.56266]]}, "properties": {"nom": "Étang de la Ville", "region": "Languedoc-Roussillon", "longueur_m": 3606, "aire_ha": 266.2, "seuil_max_m": 3000, "largeur_libre_m": 60, "plan_eau": 109, "rang": 1, "nb_courses": 1}}, {"type": "Feature", "geometry": {"type": "LineString", "coordinates": [[4.26497, 43.51182], [4.2771, 43.51261]]}, "properties": {"nom": "Clos de la Panne", "region": "Languedoc-Roussillon", "longueur_m": 985, "aire_ha": 51.3, "seuil_max_m": 700, "largeur_libre_m": 60, "plan_eau": 110, "rang": 1, "nb_courses": 1}}, {"type": "Feature", "geometry": {"type": "LineString", "coordinates": [[4.26593, 43.54459], [4.25895, 43.55041]]}, "properties": {"nom": "Clos des Plantiers", "region": "Languedoc-Roussillon", "longueur_m": 858, "aire_ha": 28.1, "seuil_max_m": 700, "largeur_libre_m": 60, "plan_eau": 113, "rang": 1, "nb_courses": 1}}, {"type": "Feature", "geometry": {"type": "LineString", "coordinates": [[4.26909, 43.54509], [4.26222, 43.5553]]}, "properties": {"nom": "Clos de Tourade", "region": "Languedoc-Roussillon", "longueur_m": 1263, "aire_ha": 60.8, "seuil_max_m": 1000, "largeur_libre_m": 60, "plan_eau": 114, "rang": 1, "nb_courses": 1}}, {"type": "Feature", "geometry": {"type": "LineString", "coordinates": [[4.27311, 43.5373], [4.26537, 43.54201]]}, "properties": {"nom": "Clos de la Tour", "region": "Languedoc-Roussillon", "longueur_m": 816, "aire_ha": 40.5, "seuil_max_m": 700, "largeur_libre_m": 60, "plan_eau": 115, "rang": 1, "nb_courses": 1}}, {"type": "Feature", "geometry": {"type": "LineString", "coordinates": [[4.2987, 43.54456], [4.30372, 43.55732]]}, "properties": {"nom": null, "region": "Languedoc-Roussillon", "longueur_m": 1475, "aire_ha": 91.3, "seuil_max_m": 1340, "largeur_libre_m": 60, "plan_eau": 118, "rang": 1, "nb_courses": 1}}, {"type": "Feature", "geometry": {"type": "LineString", "coordinates": [[4.29516, 43.53325], [4.30394, 43.5439]]}, "properties": {"nom": "Clos de l'Entonnoir", "region": "Languedoc-Roussillon", "longueur_m": 1380, "aire_ha": 77.2, "seuil_max_m": 1340, "largeur_libre_m": 60, "plan_eau": 121, "rang": 1, "nb_courses": 1}}, {"type": "Feature", "geometry": {"type": "LineString", "coordinates": [[4.29596, 43.53686], [4.27163, 43.56511]]}, "properties": {"nom": "Cuvette du Lairan", "region": "Languedoc-Roussillon", "longueur_m": 3705, "aire_ha": 529.7, "seuil_max_m": 3000, "largeur_libre_m": 60, "plan_eau": 122, "rang": 1, "nb_courses": 1}}, {"type": "Feature", "geometry": {"type": "LineString", "coordinates": [[4.29774, 43.52497], [4.28637, 43.53553]]}, "properties": {"nom": "Clos de Saint-Laurent", "region": "Languedoc-Roussillon", "longueur_m": 1492, "aire_ha": 96.3, "seuil_max_m": 1340, "largeur_libre_m": 60, "plan_eau": 123, "rang": 1, "nb_courses": 1}}, {"type": "Feature", "geometry": {"type": "LineString", "coordinates": [[4.30135, 43.51964], [4.30726, 43.52681]]}, "properties": {"nom": "Clos des Agneaux", "region": "Languedoc-Roussillon", "longueur_m": 929, "aire_ha": 66.7, "seuil_max_m": 700, "largeur_libre_m": 60, "plan_eau": 124, "rang": 1, "nb_courses": 1}}, {"type": "Feature", "geometry": {"type": "LineString", "coordinates": [[2.03778, 43.43574], [2.01979, 43.43836]]}, "properties": {"nom": "Bassin de Saint-Ferréol", "region": "Languedoc-Roussillon", "longueur_m": 1486, "aire_ha": 65.2, "seuil_max_m": 1340, "largeur_libre_m": 60, "plan_eau": 131, "rang": 1, "nb_courses": 1}}, {"type": "Feature", "geometry": {"type": "LineString", "coordinates": [[3.09308, 43.76589], [3.0803, 43.77125]]}, "properties": {"nom": "Retenue d'Avène", "region": "Languedoc-Roussillon", "longueur_m": 1189, "aire_ha": 155.6, "seuil_max_m": 1000, "largeur_libre_m": 60, "plan_eau": 133, "rang": 1, "nb_courses": 1}}, {"type": "Feature", "geometry": {"type": "LineString", "coordinates": [[3.29967, 43.25501], [3.30875, 43.26094]]}, "properties": {"nom": "L'Orb", "region": "Languedoc-Roussillon", "longueur_m": 989, "aire_ha": 248.5, "seuil_max_m": 700, "largeur_libre_m": 60, "plan_eau": 140, "rang": 1, "nb_courses": 2}}, {"type": "Feature", "geometry": {"type": "LineString", "coordinates": [[3.21534, 43.33276], [3.20797, 43.33944]]}, "properties": {"nom": "L'Orb", "region": "Languedoc-Roussillon", "longueur_m": 953, "aire_ha": 248.5, "seuil_max_m": 700, "largeur_libre_m": 60, "plan_eau": 140, "rang": 2, "nb_courses": 2}}, {"type": "Feature", "geometry": {"type": "LineString", "coordinates": [[3.1323, 43.39553], [3.13184, 43.40217]]}, "properties": {"nom": null, "region": "Languedoc-Roussillon", "longueur_m": 739, "aire_ha": 31.7, "seuil_max_m": 700, "largeur_libre_m": 60, "plan_eau": 141, "rang": 1, "nb_courses": 1}}, {"type": "Feature", "geometry": {"type": "LineString", "coordinates": [[2.89221, 42.62995], [2.9136, 42.63332]]}, "properties": {"nom": "Retenue de Villeneuve-de-la-Raho", "region": "Languedoc-Roussillon", "longueur_m": 1796, "aire_ha": 192.9, "seuil_max_m": 1500, "largeur_libre_m": 60, "plan_eau": 158, "rang": 1, "nb_courses": 1}}, {"type": "Feature", "geometry": {"type": "LineString", "coordinates": [[2.79406, 43.55336], [2.79764, 43.56316]]}, "properties": {"nom": "Lac de Vésoles", "region": "Languedoc-Roussillon", "longueur_m": 1127, "aire_ha": 48.7, "seuil_max_m": 1000, "largeur_libre_m": 60, "plan_eau": 170, "rang": 1, "nb_courses": 1}}, {"type": "Feature", "geometry": {"type": "LineString", "coordinates": [[2.4965, 42.64645], [2.54186, 42.65564]]}, "properties": {"nom": "Lac de Vinça", "region": "Languedoc-Roussillon", "longueur_m": 3862, "aire_ha": 179.1, "seuil_max_m": 3000, "largeur_libre_m": 60, "plan_eau": 171, "rang": 1, "nb_courses": 1}}, {"type": "Feature", "geometry": {"type": "LineString", "coordinates": [[3.06208, 43.01547], [3.05629, 43.0202]]}, "properties": {"nom": null, "region": "Languedoc-Roussillon", "longueur_m": 706, "aire_ha": 35.6, "seuil_max_m": 700, "largeur_libre_m": 60, "plan_eau": 174, "rang": 1, "nb_courses": 1}}, {"type": "Feature", "geometry": {"type": "LineString", "coordinates": [[2.1125, 43.39625], [2.09534, 43.40166]]}, "properties": {"nom": "Lac des Cammazes", "region": "Languedoc-Roussillon", "longueur_m": 1515, "aire_ha": 77.9, "seuil_max_m": 1500, "largeur_libre_m": 60, "plan_eau": 177, "rang": 1, "nb_courses": 1}}, {"type": "Feature", "geometry": {"type": "LineString", "coordinates": [[2.17216, 43.3979], [2.17549, 43.40564]]}, "properties": {"nom": "Bassin du Lampy Neuf", "region": "Languedoc-Roussillon", "longueur_m": 902, "aire_ha": 21.5, "seuil_max_m": 700, "largeur_libre_m": 60, "plan_eau": 178, "rang": 1, "nb_courses": 1}}, {"type": "Feature", "geometry": {"type": "LineString", "coordinates": [[1.98498, 42.96607], [1.96418, 42.96829]]}, "properties": {"nom": "Lac de Montbel", "region": "Languedoc-Roussillon", "longueur_m": 1717, "aire_ha": 74.6, "seuil_max_m": 1500, "largeur_libre_m": 60, "plan_eau": 181, "rang": 1, "nb_courses": 1}}, {"type": "Feature", "geometry": {"type": "LineString", "coordinates": [[1.96972, 42.96993], [1.93186, 42.98187]]}, "properties": {"nom": "Lac de Montbel", "region": "Languedoc-Roussillon", "longueur_m": 3364, "aire_ha": 449.4, "seuil_max_m": 3000, "largeur_libre_m": 60, "plan_eau": 182, "rang": 1, "nb_courses": 1}}, {"type": "Feature", "geometry": {"type": "LineString", "coordinates": [[4.16436, 44.20241], [4.15948, 44.20955]]}, "properties": {"nom": "Les Boues Rouges", "region": "Languedoc-Roussillon", "longueur_m": 885, "aire_ha": 37.8, "seuil_max_m": 700, "largeur_libre_m": 60, "plan_eau": 185, "rang": 1, "nb_courses": 1}}, {"type": "Feature", "geometry": {"type": "LineString", "coordinates": [[4.37525, 43.56261], [4.35855, 43.56609]]}, "properties": {"nom": null, "region": "Languedoc-Roussillon", "longueur_m": 1404, "aire_ha": 68.3, "seuil_max_m": 1340, "largeur_libre_m": 60, "plan_eau": 186, "rang": 1, "nb_courses": 1}}, {"type": "Feature", "geometry": {"type": "LineString", "coordinates": [[3.44411, 43.2827], [3.44472, 43.29038]]}, "properties": {"nom": "Port d'Agde", "region": "Languedoc-Roussillon", "longueur_m": 856, "aire_ha": 160.1, "seuil_max_m": 700, "largeur_libre_m": 60, "plan_eau": 187, "rang": 1, "nb_courses": 1}}, {"type": "Feature", "geometry": {"type": "LineString", "coordinates": [[2.97836, 43.08838], [2.96912, 43.08982]]}, "properties": {"nom": "Étang du Doul", "region": "Languedoc-Roussillon", "longueur_m": 770, "aire_ha": 42.8, "seuil_max_m": 700, "largeur_libre_m": 60, "plan_eau": 189, "rang": 1, "nb_courses": 1}}, {"type": "Feature", "geometry": {"type": "LineString", "coordinates": [[3.10201, 43.10676], [3.12601, 43.11145]]}, "properties": {"nom": "Étang du Grazel", "region": "Languedoc-Roussillon", "longueur_m": 2023, "aire_ha": 191.4, "seuil_max_m": 2000, "largeur_libre_m": 60, "plan_eau": 190, "rang": 1, "nb_courses": 1}}, {"type": "Feature", "geometry": {"type": "LineString", "coordinates": [[3.93006, 44.44947], [3.92463, 44.46468]]}, "properties": {"nom": "Lac de Villefort", "region": "Languedoc-Roussillon", "longueur_m": 1744, "aire_ha": 127.8, "seuil_max_m": 1500, "largeur_libre_m": 60, "plan_eau": 191, "rang": 1, "nb_courses": 1}}, {"type": "Feature", "geometry": {"type": "LineString", "coordinates": [[3.87868, 44.52589], [3.88743, 44.52899]]}, "properties": {"nom": null, "region": "Languedoc-Roussillon", "longueur_m": 776, "aire_ha": 50.9, "seuil_max_m": 700, "largeur_libre_m": 60, "plan_eau": 193, "rang": 1, "nb_courses": 1}}, {"type": "Feature", "geometry": {"type": "LineString", "coordinates": [[3.97831, 44.24184], [3.976, 44.24837]]}, "properties": {"nom": null, "region": "Languedoc-Roussillon", "longueur_m": 748, "aire_ha": 24.8, "seuil_max_m": 700, "largeur_libre_m": 60, "plan_eau": 196, "rang": 1, "nb_courses": 1}}, {"type": "Feature", "geometry": {"type": "LineString", "coordinates": [[4.26369, 43.55891], [4.25948, 43.56887]]}, "properties": {"nom": "Étang du Canavérier", "region": "Languedoc-Roussillon", "longueur_m": 1158, "aire_ha": 79.0, "seuil_max_m": 1000, "largeur_libre_m": 60, "plan_eau": 198, "rang": 1, "nb_courses": 1}}, {"type": "Feature", "geometry": {"type": "LineString", "coordinates": [[3.29662, 43.56262], [3.29363, 43.5694]]}, "properties": {"nom": "Lac des Olivettes", "region": "Languedoc-Roussillon", "longueur_m": 791, "aire_ha": 38.5, "seuil_max_m": 700, "largeur_libre_m": 60, "plan_eau": 199, "rang": 1, "nb_courses": 1}}, {"type": "Feature", "geometry": {"type": "LineString", "coordinates": [[4.26184, 43.54262], [4.24911, 43.54753]]}, "properties": {"nom": null, "region": "Languedoc-Roussillon", "longueur_m": 1164, "aire_ha": 33.3, "seuil_max_m": 1000, "largeur_libre_m": 60, "plan_eau": 200, "rang": 1, "nb_courses": 1}}, {"type": "Feature", "geometry": {"type": "LineString", "coordinates": [[3.59286, 44.62307], [3.56144, 44.62441]]}, "properties": {"nom": "Lac de Charpal", "region": "Languedoc-Roussillon", "longueur_m": 2497, "aire_ha": 186.9, "seuil_max_m": 2000, "largeur_libre_m": 60, "plan_eau": 201, "rang": 1, "nb_courses": 1}}, {"type": "Feature", "geometry": {"type": "LineString", "coordinates": [[4.74755, 44.08764], [4.76113, 44.08845]]}, "properties": {"nom": null, "region": "Languedoc-Roussillon", "longueur_m": 1091, "aire_ha": 39.2, "seuil_max_m": 1000, "largeur_libre_m": 60, "plan_eau": 203, "rang": 1, "nb_courses": 1}}, {"type": "Feature", "geometry": {"type": "LineString", "coordinates": [[3.50722, 43.27342], [3.50862, 43.28258]]}, "properties": {"nom": "Port du Cap d'Agde", "region": "Languedoc-Roussillon", "longueur_m": 1025, "aire_ha": 65.8, "seuil_max_m": 1000, "largeur_libre_m": 60, "plan_eau": 205, "rang": 1, "nb_courses": 1}}, {"type": "Feature", "geometry": {"type": "LineString", "coordinates": [[4.84045, 43.98496], [4.82589, 43.98576]]}, "properties": {"nom": "Plan d'eau des Libertés", "region": "Languedoc-Roussillon", "longueur_m": 1171, "aire_ha": 30.9, "seuil_max_m": 1000, "largeur_libre_m": 60, "plan_eau": 212, "rang": 1, "nb_courses": 1}}, {"type": "Feature", "geometry": {"type": "LineString", "coordinates": [[4.72165, 44.14278], [4.7139, 44.18373]]}, "properties": {"nom": "La Cèze", "region": "Languedoc-Roussillon", "longueur_m": 4592, "aire_ha": 2256.9, "seuil_max_m": 3000, "largeur_libre_m": 60, "plan_eau": 218, "rang": 1, "nb_courses": 9}}, {"type": "Feature", "geometry": {"type": "LineString", "coordinates": [[4.82185, 44.00251], [4.81562, 44.03583]]}, "properties": {"nom": "La Cèze", "region": "Languedoc-Roussillon", "longueur_m": 3736, "aire_ha": 2256.9, "seuil_max_m": 3000, "largeur_libre_m": 60, "plan_eau": 218, "rang": 2, "nb_courses": 9}}, {"type": "Feature", "geometry": {"type": "LineString", "coordinates": [[4.71786, 44.10301], [4.71, 44.13284]]}, "properties": {"nom": "La Cèze", "region": "Languedoc-Roussillon", "longueur_m": 3373, "aire_ha": 2256.9, "seuil_max_m": 3000, "largeur_libre_m": 60, "plan_eau": 218, "rang": 3, "nb_courses": 9}}, {"type": "Feature", "geometry": {"type": "LineString", "coordinates": [[4.79114, 44.0484], [4.78576, 44.06894]]}, "properties": {"nom": "La Cèze", "region": "Languedoc-Roussillon", "longueur_m": 2322, "aire_ha": 2256.9, "seuil_max_m": 2000, "largeur_libre_m": 60, "plan_eau": 218, "rang": 4, "nb_courses": 9}}, {"type": "Feature", "geometry": {"type": "LineString", "coordinates": [[4.6515, 44.32032], [4.64962, 44.33643]]}, "properties": {"nom": "La Cèze", "region": "Languedoc-Roussillon", "longueur_m": 1796, "aire_ha": 2256.9, "seuil_max_m": 1500, "largeur_libre_m": 60, "plan_eau": 218, "rang": 5, "nb_courses": 9}}, {"type": "Feature", "geometry": {"type": "LineString", "coordinates": [[4.66413, 44.4108], [4.66457, 44.42577]]}, "properties": {"nom": "La Cèze", "region": "Languedoc-Roussillon", "longueur_m": 1664, "aire_ha": 2256.9, "seuil_max_m": 1500, "largeur_libre_m": 60, "plan_eau": 218, "rang": 6, "nb_courses": 9}}, {"type": "Feature", "geometry": {"type": "LineString", "coordinates": [[4.66907, 44.24191], [4.65617, 44.25158]]}, "properties": {"nom": "La Cèze", "region": "Languedoc-Roussillon", "longueur_m": 1488, "aire_ha": 2256.9, "seuil_max_m": 1340, "largeur_libre_m": 60, "plan_eau": 218, "rang": 7, "nb_courses": 9}}, {"type": "Feature", "geometry": {"type": "LineString", "coordinates": [[4.70751, 44.20268], [4.71098, 44.21328]]}, "properties": {"nom": "La Cèze", "region": "Languedoc-Roussillon", "longueur_m": 1210, "aire_ha": 2256.9, "seuil_max_m": 1000, "largeur_libre_m": 60, "plan_eau": 218, "rang": 8, "nb_courses": 9}}, {"type": "Feature", "geometry": {"type": "LineString", "coordinates": [[4.6482, 44.36948], [4.6507, 44.37947]]}, "properties": {"nom": "La Cèze", "region": "Languedoc-Roussillon", "longueur_m": 1128, "aire_ha": 2256.9, "seuil_max_m": 1000, "largeur_libre_m": 60, "plan_eau": 218, "rang": 9, "nb_courses": 9}}, {"type": "Feature", "geometry": {"type": "LineString", "coordinates": [[4.34194, 43.55004], [4.32897, 43.55443]]}, "properties": {"nom": null, "region": "Languedoc-Roussillon", "longueur_m": 1156, "aire_ha": 17.1, "seuil_max_m": 1000, "largeur_libre_m": 60, "plan_eau": 219, "rang": 1, "nb_courses": 1}}, {"type": "Feature", "geometry": {"type": "LineString", "coordinates": [[3.02273, 42.64541], [3.01991, 42.68544]]}, "properties": {"nom": "Étang de Canet-Saint-Nazaire", "region": "Languedoc-Roussillon", "longueur_m": 4458, "aire_ha": 741.8, "seuil_max_m": 3000, "largeur_libre_m": 60, "plan_eau": 228, "rang": 1, "nb_courses": 1}}, {"type": "Feature", "geometry": {"type": "LineString", "coordinates": [[3.02783, 43.06352], [3.02286, 43.07171]]}, "properties": {"nom": "Étang du Charlot", "region": "Languedoc-Roussillon", "longueur_m": 997, "aire_ha": 41.0, "seuil_max_m": 700, "largeur_libre_m": 60, "plan_eau": 243, "rang": 1, "nb_courses": 1}}, {"type": "Feature", "geometry": {"type": "LineString", "coordinates": [[2.99071, 43.05185], [2.99725, 43.14347]]}, "properties": {"nom": "Étang de Bages", "region": "Languedoc-Roussillon", "longueur_m": 10200, "aire_ha": 3764.9, "seuil_max_m": 3000, "largeur_libre_m": 60, "plan_eau": 249, "rang": 1, "nb_courses": 3}}, {"type": "Feature", "geometry": {"type": "LineString", "coordinates": [[3.04218, 43.03492], [2.98511, 43.07262]]}, "properties": {"nom": "Étang de Bages", "region": "Languedoc-Roussillon", "longueur_m": 6263, "aire_ha": 3764.9, "seuil_max_m": 3000, "largeur_libre_m": 60, "plan_eau": 249, "rang": 2, "nb_courses": 3}}, {"type": "Feature", "geometry": {"type": "LineString", "coordinates": [[2.98685, 43.13401], [2.99455, 43.15137]]}, "properties": {"nom": "Étang de Bages", "region": "Languedoc-Roussillon", "longueur_m": 2030, "aire_ha": 3764.9, "seuil_max_m": 2000, "largeur_libre_m": 60, "plan_eau": 249, "rang": 3, "nb_courses": 3}}, {"type": "Feature", "geometry": {"type": "LineString", "coordinates": [[2.96105, 43.10621], [2.97088, 43.10898]]}, "properties": {"nom": null, "region": "Languedoc-Roussillon", "longueur_m": 858, "aire_ha": 24.9, "seuil_max_m": 700, "largeur_libre_m": 60, "plan_eau": 264, "rang": 1, "nb_courses": 1}}, {"type": "Feature", "geometry": {"type": "LineString", "coordinates": [[2.13016, 42.63235], [2.12213, 42.64528]]}, "properties": {"nom": "Lac de Puyvalador", "region": "Languedoc-Roussillon", "longueur_m": 1582, "aire_ha": 79.2, "seuil_max_m": 1500, "largeur_libre_m": 60, "plan_eau": 269, "rang": 1, "nb_courses": 1}}, {"type": "Feature", "geometry": {"type": "LineString", "coordinates": [[3.53197, 43.32438], [3.53431, 43.33059]]}, "properties": {"nom": null, "region": "Languedoc-Roussillon", "longueur_m": 716, "aire_ha": 11.1, "seuil_max_m": 700, "largeur_libre_m": 60, "plan_eau": 272, "rang": 1, "nb_courses": 1}}, {"type": "Feature", "geometry": {"type": "LineString", "coordinates": [[1.8925, 42.57976], [1.91324, 42.59923]]}, "properties": {"nom": "Lac de Lanoux", "region": "Languedoc-Roussillon", "longueur_m": 2755, "aire_ha": 166.1, "seuil_max_m": 2000, "largeur_libre_m": 60, "plan_eau": 273, "rang": 1, "nb_courses": 1}}, {"type": "Feature", "geometry": {"type": "LineString", "coordinates": [[3.20665, 43.19206], [3.19872, 43.2073]]}, "properties": {"nom": "Étang de Pissevaches", "region": "Languedoc-Roussillon", "longueur_m": 1813, "aire_ha": 111.6, "seuil_max_m": 1500, "largeur_libre_m": 60, "plan_eau": 285, "rang": 1, "nb_courses": 1}}, {"type": "Feature", "geometry": {"type": "LineString", "coordinates": [[2.70224, 43.26732], [2.70292, 43.27749]]}, "properties": {"nom": "Étang de Jouarres", "region": "Languedoc-Roussillon", "longueur_m": 1132, "aire_ha": 94.1, "seuil_max_m": 1000, "largeur_libre_m": 60, "plan_eau": 289, "rang": 1, "nb_courses": 1}}, {"type": "Feature", "geometry": {"type": "LineString", "coordinates": [[3.55505, 43.33645], [3.56741, 43.34633]]}, "properties": {"nom": null, "region": "Languedoc-Roussillon", "longueur_m": 1487, "aire_ha": 55.1, "seuil_max_m": 1340, "largeur_libre_m": 60, "plan_eau": 301, "rang": 1, "nb_courses": 1}}, {"type": "Feature", "geometry": {"type": "LineString", "coordinates": [[4.09911, 43.58665], [4.09085, 43.59023]]}, "properties": {"nom": null, "region": "Languedoc-Roussillon", "longueur_m": 776, "aire_ha": 27.1, "seuil_max_m": 700, "largeur_libre_m": 60, "plan_eau": 305, "rang": 1, "nb_courses": 1}}, {"type": "Feature", "geometry": {"type": "LineString", "coordinates": [[4.09849, 43.59183], [4.10175, 43.59879]]}, "properties": {"nom": null, "region": "Languedoc-Roussillon", "longueur_m": 817, "aire_ha": 21.4, "seuil_max_m": 700, "largeur_libre_m": 60, "plan_eau": 306, "rang": 1, "nb_courses": 1}}, {"type": "Feature", "geometry": {"type": "LineString", "coordinates": [[4.32771, 43.55444], [4.3205, 43.55932]]}, "properties": {"nom": null, "region": "Languedoc-Roussillon", "longueur_m": 796, "aire_ha": 21.3, "seuil_max_m": 700, "largeur_libre_m": 60, "plan_eau": 307, "rang": 1, "nb_courses": 1}}, {"type": "Feature", "geometry": {"type": "LineString", "coordinates": [[4.34437, 43.5544], [4.3343, 43.5588]]}, "properties": {"nom": null, "region": "Languedoc-Roussillon", "longueur_m": 950, "aire_ha": 65.3, "seuil_max_m": 700, "largeur_libre_m": 60, "plan_eau": 308, "rang": 1, "nb_courses": 1}}, {"type": "Feature", "geometry": {"type": "LineString", "coordinates": [[4.31127, 43.62999], [4.33134, 43.63363]]}, "properties": {"nom": "Étang du Crey", "region": "Languedoc-Roussillon", "longueur_m": 1670, "aire_ha": 157.3, "seuil_max_m": 1500, "largeur_libre_m": 60, "plan_eau": 310, "rang": 1, "nb_courses": 1}}, {"type": "Feature", "geometry": {"type": "LineString", "coordinates": [[4.1562, 43.47881], [4.15772, 43.48521]]}, "properties": {"nom": "Étangs des Baronnets", "region": "Languedoc-Roussillon", "longueur_m": 722, "aire_ha": 29.6, "seuil_max_m": 700, "largeur_libre_m": 60, "plan_eau": 314, "rang": 1, "nb_courses": 1}}, {"type": "Feature", "geometry": {"type": "LineString", "coordinates": [[4.19991, 43.4795], [4.18703, 43.49025]]}, "properties": {"nom": "Bras mort de Saint-Roman", "region": "Languedoc-Roussillon", "longueur_m": 1585, "aire_ha": 213.6, "seuil_max_m": 1500, "largeur_libre_m": 60, "plan_eau": 317, "rang": 1, "nb_courses": 1}}, {"type": "Feature", "geometry": {"type": "LineString", "coordinates": [[4.18173, 43.50401], [4.17943, 43.51574]]}, "properties": {"nom": null, "region": "Languedoc-Roussillon", "longueur_m": 1317, "aire_ha": 32.8, "seuil_max_m": 1000, "largeur_libre_m": 60, "plan_eau": 319, "rang": 1, "nb_courses": 1}}, {"type": "Feature", "geometry": {"type": "LineString", "coordinates": [[4.18122, 43.49845], [4.17636, 43.51246]]}, "properties": {"nom": null, "region": "Languedoc-Roussillon", "longueur_m": 1606, "aire_ha": 64.6, "seuil_max_m": 1500, "largeur_libre_m": 60, "plan_eau": 321, "rang": 1, "nb_courses": 1}}, {"type": "Feature", "geometry": {"type": "LineString", "coordinates": [[4.2119, 43.49634], [4.1993, 43.50322]]}, "properties": {"nom": null, "region": "Languedoc-Roussillon", "longueur_m": 1274, "aire_ha": 39.9, "seuil_max_m": 1000, "largeur_libre_m": 60, "plan_eau": 323, "rang": 1, "nb_courses": 1}}, {"type": "Feature", "geometry": {"type": "LineString", "coordinates": [[4.27886, 43.52853], [4.27446, 43.53727]]}, "properties": {"nom": "Clos des Siffleurs", "region": "Languedoc-Roussillon", "longueur_m": 1034, "aire_ha": 75.4, "seuil_max_m": 1000, "largeur_libre_m": 60, "plan_eau": 324, "rang": 1, "nb_courses": 1}}, {"type": "Feature", "geometry": {"type": "LineString", "coordinates": [[3.96115, 43.56343], [3.964, 43.56954]]}, "properties": {"nom": "Étang des Salins", "region": "Languedoc-Roussillon", "longueur_m": 717, "aire_ha": 36.4, "seuil_max_m": 700, "largeur_libre_m": 60, "plan_eau": 332, "rang": 1, "nb_courses": 1}}, {"type": "Feature", "geometry": {"type": "LineString", "coordinates": [[2.61005, 43.58939], [2.65032, 43.60078]]}, "properties": {"nom": "Lac de la Raviège", "region": "Languedoc-Roussillon", "longueur_m": 3490, "aire_ha": 369.7, "seuil_max_m": 3000, "largeur_libre_m": 60, "plan_eau": 347, "rang": 1, "nb_courses": 1}}, {"type": "Feature", "geometry": {"type": "LineString", "coordinates": [[3.22572, 43.22654], [3.21742, 43.26558]]}, "properties": {"nom": "Étang de Vendres", "region": "Languedoc-Roussillon", "longueur_m": 4392, "aire_ha": 832.1, "seuil_max_m": 3000, "largeur_libre_m": 60, "plan_eau": 348, "rang": 1, "nb_courses": 1}}, {"type": "Feature", "geometry": {"type": "LineString", "coordinates": [[3.34552, 43.27116], [3.33617, 43.28178]]}, "properties": {"nom": "Étang de la Riviérette", "region": "Languedoc-Roussillon", "longueur_m": 1404, "aire_ha": 53.1, "seuil_max_m": 1340, "largeur_libre_m": 60, "plan_eau": 354, "rang": 1, "nb_courses": 1}}, {"type": "Feature", "geometry": {"type": "LineString", "coordinates": [[3.10245, 43.0963], [3.09387, 43.09873]]}, "properties": {"nom": "Étang du Grazel", "region": "Languedoc-Roussillon", "longueur_m": 749, "aire_ha": 32.5, "seuil_max_m": 700, "largeur_libre_m": 60, "plan_eau": 378, "rang": 1, "nb_courses": 1}}, {"type": "Feature", "geometry": {"type": "LineString", "coordinates": [[3.08337, 43.05884], [3.03159, 43.08647]]}, "properties": {"nom": "Étang de l'Ayrolle", "region": "Languedoc-Roussillon", "longueur_m": 5220, "aire_ha": 1352.9, "seuil_max_m": 3000, "largeur_libre_m": 60, "plan_eau": 382, "rang": 1, "nb_courses": 1}}, {"type": "Feature", "geometry": {"type": "LineString", "coordinates": [[3.08611, 43.07906], [3.09783, 43.08678]]}, "properties": {"nom": "Lac", "region": "Languedoc-Roussillon", "longueur_m": 1285, "aire_ha": 49.9, "seuil_max_m": 1000, "largeur_libre_m": 60, "plan_eau": 390, "rang": 1, "nb_courses": 1}}, {"type": "Feature", "geometry": {"type": "LineString", "coordinates": [[3.13796, 43.1334], [3.1462, 43.14009]]}, "properties": {"nom": "Étang des Ayguades", "region": "Languedoc-Roussillon", "longueur_m": 1002, "aire_ha": 24.9, "seuil_max_m": 1000, "largeur_libre_m": 60, "plan_eau": 410, "rang": 1, "nb_courses": 1}}, {"type": "Feature", "geometry": {"type": "LineString", "coordinates": [[3.00109, 42.80286], [3.00995, 42.92706]]}, "properties": {"nom": "Étang de Leucate", "region": "Languedoc-Roussillon", "longueur_m": 13830, "aire_ha": 5247.1, "seuil_max_m": 3000, "largeur_libre_m": 60, "plan_eau": 423, "rang": 1, "nb_courses": 3}}, {"type": "Feature", "geometry": {"type": "LineString", "coordinates": [[3.00842, 42.8037], [2.95466, 42.84325]]}, "properties": {"nom": "Étang de Leucate", "region": "Languedoc-Roussillon", "longueur_m": 6222, "aire_ha": 5247.1, "seuil_max_m": 3000, "largeur_libre_m": 60, "plan_eau": 423, "rang": 2, "nb_courses": 3}}, {"type": "Feature", "geometry": {"type": "LineString", "coordinates": [[3.01589, 42.89891], [3.01178, 42.92768]]}, "properties": {"nom": "Étang de Leucate", "region": "Languedoc-Roussillon", "longueur_m": 3217, "aire_ha": 5247.1, "seuil_max_m": 3000, "largeur_libre_m": 60, "plan_eau": 423, "rang": 3, "nb_courses": 3}}, {"type": "Feature", "geometry": {"type": "LineString", "coordinates": [[3.02118, 42.94692], [2.99785, 42.96595]]}, "properties": {"nom": "Étang de la Palme", "region": "Languedoc-Roussillon", "longueur_m": 2848, "aire_ha": 496.1, "seuil_max_m": 2000, "largeur_libre_m": 60, "plan_eau": 439, "rang": 1, "nb_courses": 1}}, {"type": "Feature", "geometry": {"type": "LineString", "coordinates": [[3.08682, 44.91598], [3.10899, 44.93013]]}, "properties": {"nom": "Lac du Barrage de Grandval", "region": "Languedoc-Roussillon", "longueur_m": 2351, "aire_ha": 753.7, "seuil_max_m": 2000, "largeur_libre_m": 60, "plan_eau": 441, "rang": 1, "nb_courses": 2}}, {"type": "Feature", "geometry": {"type": "LineString", "coordinates": [[3.1371, 44.96595], [3.15027, 44.97133]]}, "properties": {"nom": "Lac du Barrage de Grandval", "region": "Languedoc-Roussillon", "longueur_m": 1198, "aire_ha": 753.7, "seuil_max_m": 1000, "largeur_libre_m": 60, "plan_eau": 441, "rang": 2, "nb_courses": 2}}, {"type": "Feature", "geometry": {"type": "LineString", "coordinates": [[3.40219, 43.65478], [3.33747, 43.65994]]}, "properties": {"nom": "Lac du Salagou", "region": "Languedoc-Roussillon", "longueur_m": 5253, "aire_ha": 708.8, "seuil_max_m": 3000, "largeur_libre_m": 60, "plan_eau": 455, "rang": 1, "nb_courses": 1}}, {"type": "Feature", "geometry": {"type": "LineString", "coordinates": [[3.82065, 43.46528], [3.82578, 43.47091]]}, "properties": {"nom": null, "region": "Languedoc-Roussillon", "longueur_m": 751, "aire_ha": 20.4, "seuil_max_m": 700, "largeur_libre_m": 60, "plan_eau": 460, "rang": 1, "nb_courses": 1}}, {"type": "Feature", "geometry": {"type": "LineString", "coordinates": [[3.51339, 43.31616], [3.5212, 43.33072]]}, "properties": {"nom": "Étang du Bagnas", "region": "Languedoc-Roussillon", "longueur_m": 1738, "aire_ha": 155.9, "seuil_max_m": 1500, "largeur_libre_m": 60, "plan_eau": 466, "rang": 1, "nb_courses": 1}}, {"type": "Feature", "geometry": {"type": "LineString", "coordinates": [[2.09492, 42.56123], [2.10712, 42.57944]]}, "properties": {"nom": "Lac de Matemale", "region": "Languedoc-Roussillon", "longueur_m": 2261, "aire_ha": 204.2, "seuil_max_m": 2000, "largeur_libre_m": 60, "plan_eau": 476, "rang": 1, "nb_courses": 1}}, {"type": "Feature", "geometry": {"type": "LineString", "coordinates": [[3.34987, 43.28991], [3.34235, 43.29394]]}, "properties": {"nom": "l'Estagnol", "region": "Languedoc-Roussillon", "longueur_m": 757, "aire_ha": 22.4, "seuil_max_m": 700, "largeur_libre_m": 60, "plan_eau": 478, "rang": 1, "nb_courses": 1}}, {"type": "Feature", "geometry": {"type": "LineString", "coordinates": [[1.82801, 43.30526], [1.78941, 43.3274]]}, "properties": {"nom": "Lac de la Ganguise", "region": "Languedoc-Roussillon", "longueur_m": 3984, "aire_ha": 224.2, "seuil_max_m": 3000, "largeur_libre_m": 60, "plan_eau": 483, "rang": 1, "nb_courses": 1}}, {"type": "Feature", "geometry": {"type": "LineString", "coordinates": [[2.00039, 42.56027], [2.00006, 42.57982]]}, "properties": {"nom": "Lac des Bouillouses", "region": "Languedoc-Roussillon", "longueur_m": 2174, "aire_ha": 151.6, "seuil_max_m": 2000, "largeur_libre_m": 60, "plan_eau": 513, "rang": 1, "nb_courses": 1}}, {"type": "Feature", "geometry": {"type": "LineString", "coordinates": [[4.67987, 44.21483], [4.67951, 44.22303]]}, "properties": {"nom": "Lac Bleu", "region": "Languedoc-Roussillon", "longueur_m": 911, "aire_ha": 63.6, "seuil_max_m": 700, "largeur_libre_m": 60, "plan_eau": 514, "rang": 1, "nb_courses": 1}}, {"type": "Feature", "geometry": {"type": "LineString", "coordinates": [[4.25892, 43.49063], [4.24032, 43.49874]]}, "properties": {"nom": null, "region": "Languedoc-Roussillon", "longueur_m": 1754, "aire_ha": 179.1, "seuil_max_m": 1500, "largeur_libre_m": 60, "plan_eau": 527, "rang": 1, "nb_courses": 1}}, {"type": "Feature", "geometry": {"type": "LineString", "coordinates": [[2.58338, 42.73857], [2.55175, 42.7488]]}, "properties": {"nom": "Lac de Caramany", "region": "Languedoc-Roussillon", "longueur_m": 2832, "aire_ha": 172.3, "seuil_max_m": 2000, "largeur_libre_m": 60, "plan_eau": 531, "rang": 1, "nb_courses": 1}}, {"type": "Feature", "geometry": {"type": "LineString", "coordinates": [[2.27439, 43.41387], [2.28083, 43.42467]]}, "properties": {"nom": "Lac de Laprade", "region": "Languedoc-Roussillon", "longueur_m": 1309, "aire_ha": 91.3, "seuil_max_m": 1000, "largeur_libre_m": 60, "plan_eau": 533, "rang": 1, "nb_courses": 1}}, {"type": "Feature", "geometry": {"type": "LineString", "coordinates": [[2.22802, 43.40343], [2.23254, 43.41393]]}, "properties": {"nom": "Lac de la Galaube", "region": "Languedoc-Roussillon", "longueur_m": 1223, "aire_ha": 63.5, "seuil_max_m": 1000, "largeur_libre_m": 60, "plan_eau": 536, "rang": 1, "nb_courses": 1}}, {"type": "Feature", "geometry": {"type": "LineString", "coordinates": [[1.30066, 42.09765], [1.30584, 42.11794]]}, "properties": {"nom": null, "region": "Languedoc-Roussillon", "longueur_m": 2299, "aire_ha": 605.0, "seuil_max_m": 2000, "largeur_libre_m": 60, "plan_eau": 537, "rang": 1, "nb_courses": 2}}, {"type": "Feature", "geometry": {"type": "LineString", "coordinates": [[1.31688, 42.15973], [1.32833, 42.17072]]}, "properties": {"nom": null, "region": "Languedoc-Roussillon", "longueur_m": 1548, "aire_ha": 605.0, "seuil_max_m": 1500, "largeur_libre_m": 60, "plan_eau": 537, "rang": 2, "nb_courses": 2}}, {"type": "Feature", "geometry": {"type": "LineString", "coordinates": [[1.27394, 41.99438], [1.29499, 42.03808]]}, "properties": {"nom": null, "region": "Languedoc-Roussillon", "longueur_m": 5169, "aire_ha": 1522.1, "seuil_max_m": 3000, "largeur_libre_m": 60, "plan_eau": 538, "rang": 1, "nb_courses": 2}}, {"type": "Feature", "geometry": {"type": "LineString", "coordinates": [[1.22129, 41.9563], [1.2563, 41.98665]]}, "properties": {"nom": null, "region": "Languedoc-Roussillon", "longueur_m": 4457, "aire_ha": 1522.1, "seuil_max_m": 3000, "largeur_libre_m": 60, "plan_eau": 538, "rang": 2, "nb_courses": 2}}, {"type": "Feature", "geometry": {"type": "LineString", "coordinates": [[0.83696, 41.85299], [0.84478, 41.8728]]}, "properties": {"nom": null, "region": "Languedoc-Roussillon", "longueur_m": 2299, "aire_ha": 286.3, "seuil_max_m": 2000, "largeur_libre_m": 60, "plan_eau": 539, "rang": 1, "nb_courses": 1}}, {"type": "Feature", "geometry": {"type": "LineString", "coordinates": [[4.33661, 43.6103], [4.33308, 43.62057]]}, "properties": {"nom": null, "region": "Languedoc-Roussillon", "longueur_m": 1176, "aire_ha": 45.5, "seuil_max_m": 1000, "largeur_libre_m": 60, "plan_eau": 543, "rang": 1, "nb_courses": 1}}, {"type": "Feature", "geometry": {"type": "LineString", "coordinates": [[4.10411, 43.60704], [4.09199, 43.61003]]}, "properties": {"nom": null, "region": "Languedoc-Roussillon", "longueur_m": 1034, "aire_ha": 57.4, "seuil_max_m": 1000, "largeur_libre_m": 60, "plan_eau": 550, "rang": 1, "nb_courses": 1}}, {"type": "Feature", "geometry": {"type": "LineString", "coordinates": [[3.83486, 44.73065], [3.76223, 44.76905]]}, "properties": {"nom": "Lac de Naussac", "region": "Languedoc-Roussillon", "longueur_m": 7158, "aire_ha": 965.6, "seuil_max_m": 3000, "largeur_libre_m": 60, "plan_eau": 551, "rang": 1, "nb_courses": 1}}, {"type": "Feature", "geometry": {"type": "LineString", "coordinates": [[3.9828, 43.58098], [3.9742, 43.58309]]}, "properties": {"nom": null, "region": "Languedoc-Roussillon", "longueur_m": 733, "aire_ha": 18.2, "seuil_max_m": 700, "largeur_libre_m": 60, "plan_eau": 555, "rang": 1, "nb_courses": 1}}]}