{"type": "FeatureCollection", "metadata": {"region": "Corse", "source": "OpenStreetMap via Geofabrik", "methode": "recollage des polygones contigus, erosion de W/2, toutes les cordes inscrites dont les milieux sont ecartes d'au moins ECART_MIN_M", "largeur_libre_m": 60, "ecart_min_m": 5000, "plusieurs_courses": "Un plan d'eau peut porter plusieurs courses : plan_eau les relie, rang 1 est la plus longue. aire_ha vaut pour l'etendue entiere et se repete sur chaque course ; pour totaliser une surface, ne sommer que les rang 1.", "avertissement": "profondeur, obstacles et degagement d'approche NON pris en compte : borne haute de candidats"}, "features": [{"type": "Feature", "geometry": {"type": "LineString", "coordinates": [[9.2819, 42.09371], [9.27523, 42.09954]]}, "properties": {"nom": "Réservoir de Sampolo", "region": "Corse", "longueur_m": 853, "aire_ha": 23.6, "seuil_max_m": 700, "largeur_libre_m": 60, "plan_eau": 5, "rang": 1, "nb_courses": 1}}, {"type": "Feature", "geometry": {"type": "LineString", "coordinates": [[9.45064, 42.11407], [9.44226, 42.11594]]}, "properties": {"nom": "Réservoir de Bacciana", "region": "Corse", "longueur_m": 725, "aire_ha": 37.2, "seuil_max_m": 700, "largeur_libre_m": 60, "plan_eau": 7, "rang": 1, "nb_courses": 1}}, {"type": "Feature", "geometry": {"type": "LineString", "coordinates": [[9.44715, 42.10593], [9.46565, 42.1048]]}, "properties": {"nom": "Réservoir de Teppe Rosse", "region": "Corse", "longueur_m": 1538, "aire_ha": 68.1, "seuil_max_m": 1500, "largeur_libre_m": 60, "plan_eau": 8, "rang": 1, "nb_courses": 1}}, {"type": "Feature", "geometry": {"type": "LineString", "coordinates": [[8.947, 42.58313], [8.93957, 42.59202]]}, "properties": {"nom": "Lac de Codole", "region": "Corse", "longueur_m": 1162, "aire_ha": 77.7, "seuil_max_m": 1000, "largeur_libre_m": 60, "plan_eau": 13, "rang": 1, "nb_courses": 1}}, {"type": "Feature", "geometry": {"type": "LineString", "coordinates": [[8.99755, 42.32388], [9.02301, 42.32847]]}, "properties": {"nom": "Lac de Calacuccia", "region": "Corse", "longueur_m": 2164, "aire_ha": 125.1, "seuil_max_m": 2000, "largeur_libre_m": 60, "plan_eau": 14, "rang": 1, "nb_courses": 1}}, {"type": "Feature", "geometry": {"type": "LineString", "coordinates": [[9.4712, 42.29921], [9.48464, 42.29839]]}, "properties": {"nom": "Lac de l'Alesani", "region": "Corse", "longueur_m": 1114, "aire_ha": 38.4, "seuil_max_m": 1000, "largeur_libre_m": 60, "plan_eau": 16, "rang": 1, "nb_courses": 1}}, {"type": "Feature", "geometry": {"type": "LineString", "coordinates": [[9.51893, 42.26759], [9.50968, 42.26927]]}, "properties": {"nom": "Réservoir de Peri", "region": "Corse", "longueur_m": 787, "aire_ha": 19.2, "seuil_max_m": 700, "largeur_libre_m": 60, "plan_eau": 17, "rang": 1, "nb_courses": 1}}, {"type": "Feature", "geometry": {"type": "LineString", "coordinates": [[9.55195, 42.15448], [9.54549, 42.15959]]}, "properties": {"nom": "Étang de Terrenzana", "region": "Corse", "longueur_m": 782, "aire_ha": 35.9, "seuil_max_m": 700, "largeur_libre_m": 60, "plan_eau": 19, "rang": 1, "nb_courses": 1}}, {"type": "Feature", "geometry": {"type": "LineString", "coordinates": [[9.40933, 41.93813], [9.40767, 41.95446]]}, "properties": {"nom": "Étang de Palo", "region": "Corse", "longueur_m": 1823, "aire_ha": 121.6, "seuil_max_m": 1500, "largeur_libre_m": 60, "plan_eau": 20, "rang": 1, "nb_courses": 1}}, {"type": "Feature", "geometry": {"type": "LineString", "coordinates": [[9.14409, 41.4599], [9.15338, 41.47968]]}, "properties": {"nom": "Réservoir de Figari", "region": "Corse", "longueur_m": 2335, "aire_ha": 71.1, "seuil_max_m": 2000, "largeur_libre_m": 60, "plan_eau": 21, "rang": 1, "nb_courses": 1}}, {"type": "Feature", "geometry": {"type": "LineString", "coordinates": [[9.26954, 41.52305], [9.2718, 41.53215]]}, "properties": {"nom": "Étang de Santa Giulia", "region": "Corse", "longueur_m": 1031, "aire_ha": 26.7, "seuil_max_m": 1000, "largeur_libre_m": 60, "plan_eau": 23, "rang": 1, "nb_courses": 1}}, {"type": "Feature", "geometry": {"type": "LineString", "coordinates": [[9.19324, 41.66128], [9.20571, 41.66845]]}, "properties": {"nom": "Réservoir de l'Ospedale", "region": "Corse", "longueur_m": 1313, "aire_ha": 45.2, "seuil_max_m": 1000, "largeur_libre_m": 60, "plan_eau": 26, "rang": 1, "nb_courses": 1}}, {"type": "Feature", "geometry": {"type": "LineString", "coordinates": [[9.52098, 42.12023], [9.54863, 42.14991]]}, "properties": {"nom": "Étang de Diane", "region": "Corse", "longueur_m": 4019, "aire_ha": 559.8, "seuil_max_m": 3000, "largeur_libre_m": 60, "plan_eau": 35, "rang": 1, "nb_courses": 1}}, {"type": "Feature", "geometry": {"type": "LineString", "coordinates": [[8.96718, 41.96772], [8.9858, 41.97439]]}, "properties": {"nom": "Lac de Tolla", "region": "Corse", "longueur_m": 1717, "aire_ha": 111.0, "seuil_max_m": 1500, "largeur_libre_m": 60, "plan_eau": 37, "rang": 1, "nb_courses": 1}}, {"type": "Feature", "geometry": {"type": "LineString", "coordinates": [[9.42862, 42.07038], [9.41742, 42.07195]]}, "properties": {"nom": "Réservoir d'Alzitone", "region": "Corse", "longueur_m": 945, "aire_ha": 45.0, "seuil_max_m": 700, "largeur_libre_m": 60, "plan_eau": 42, "rang": 1, "nb_courses": 1}}, {"type": "Feature", "geometry": {"type": "LineString", "coordinates": [[9.48745, 42.57255], [9.4528, 42.64561]]}, "properties": {"nom": "Étang de Biguglia", "region": "Corse", "longueur_m": 8610, "aire_ha": 1461.5, "seuil_max_m": 3000, "largeur_libre_m": 60, "plan_eau": 44, "rang": 1, "nb_courses": 2}}, {"type": "Feature", "geometry": {"type": "LineString", "coordinates": [[9.51283, 42.56284], [9.5055, 42.5858]]}, "properties": {"nom": "Étang de Biguglia", "region": "Corse", "longueur_m": 2625, "aire_ha": 1461.5, "seuil_max_m": 2000, "largeur_libre_m": 60, "plan_eau": 44, "rang": 2, "nb_courses": 2}}, {"type": "Feature", "geometry": {"type": "LineString", "coordinates": [[9.49459, 42.04715], [9.45462, 42.05278]]}, "properties": {"nom": "Étang d'Urbino", "region": "Corse", "longueur_m": 3374, "aire_ha": 734.5, "seuil_max_m": 3000, "largeur_libre_m": 60, "plan_eau": 58, "rang": 1, "nb_courses": 1}}]}