{"type": "FeatureCollection", "metadata": {"region": "Midi-Pyrenees", "source": "OpenStreetMap via Geofabrik", "methode": "recollage des polygones contigus, erosion de W/2, toutes les cordes inscrites dont les milieux sont ecartes d'au moins ECART_MIN_M", "largeur_libre_m": 60, "ecart_min_m": 5000, "plusieurs_courses": "Un plan d'eau peut porter plusieurs courses : plan_eau les relie, rang 1 est la plus longue. aire_ha vaut pour l'etendue entiere et se repete sur chaque course ; pour totaliser une surface, ne sommer que les rang 1.", "avertissement": "profondeur, obstacles et degagement d'approche NON pris en compte : borne haute de candidats"}, "features": [{"type": "Feature", "geometry": {"type": "LineString", "coordinates": [[1.06106, 44.07459], [1.03357, 44.08283]]}, "properties": {"nom": "Lit du Salat", "region": "Midi-Pyrenees", "longueur_m": 2385, "aire_ha": 5842.9, "seuil_max_m": 2000, "largeur_libre_m": 60, "plan_eau": 3, "rang": 1, "nb_courses": 27}}, {"type": "Feature", "geometry": {"type": "LineString", "coordinates": [[0.70657, 44.1564], [0.67838, 44.16234]]}, "properties": {"nom": "Lit du Salat", "region": "Midi-Pyrenees", "longueur_m": 2350, "aire_ha": 5842.9, "seuil_max_m": 2000, "largeur_libre_m": 60, "plan_eau": 3, "rang": 2, "nb_courses": 27}}, {"type": "Feature", "geometry": {"type": "LineString", "coordinates": [[1.29126, 44.05206], [1.27798, 44.06988]]}, "properties": {"nom": "Lit du Salat", "region": "Midi-Pyrenees", "longueur_m": 2247, "aire_ha": 5842.9, "seuil_max_m": 2000, "largeur_libre_m": 60, "plan_eau": 3, "rang": 3, "nb_courses": 27}}, {"type": "Feature", "geometry": {"type": "LineString", "coordinates": [[0.90177, 44.07158], [0.88766, 44.08483]]}, "properties": {"nom": "Lit du Salat", "region": "Midi-Pyrenees", "longueur_m": 1857, "aire_ha": 5842.9, "seuil_max_m": 1500, "largeur_libre_m": 60, "plan_eau": 3, "rang": 4, "nb_courses": 27}}, {"type": "Feature", "geometry": {"type": "LineString", "coordinates": [[0.844, 44.09809], [0.8344, 44.11254]]}, "properties": {"nom": "Lit du Salat", "region": "Midi-Pyrenees", "longueur_m": 1781, "aire_ha": 5842.9, "seuil_max_m": 1500, "largeur_libre_m": 60, "plan_eau": 3, "rang": 5, "nb_courses": 27}}, {"type": "Feature", "geometry": {"type": "LineString", "coordinates": [[1.09903, 43.20343], [1.11789, 43.2091]]}, "properties": {"nom": "Lit du Salat", "region": "Midi-Pyrenees", "longueur_m": 1658, "aire_ha": 5842.9, "seuil_max_m": 1500, "largeur_libre_m": 60, "plan_eau": 3, "rang": 6, "nb_courses": 27}}, {"type": "Feature", "geometry": {"type": "LineString", "coordinates": [[0.63181, 44.15539], [0.61692, 44.16549]]}, "properties": {"nom": "Lit du Salat", "region": "Midi-Pyrenees", "longueur_m": 1636, "aire_ha": 5842.9, "seuil_max_m": 1500, "largeur_libre_m": 60, "plan_eau": 3, "rang": 7, "nb_courses": 27}}, {"type": "Feature", "geometry": {"type": "LineString", "coordinates": [[1.40431, 43.63481], [1.40104, 43.64804]]}, "properties": {"nom": "Lit du Salat", "region": "Midi-Pyrenees", "longueur_m": 1494, "aire_ha": 5842.9, "seuil_max_m": 1340, "largeur_libre_m": 60, "plan_eau": 3, "rang": 8, "nb_courses": 27}}, {"type": "Feature", "geometry": {"type": "LineString", "coordinates": [[1.43774, 43.54511], [1.4393, 43.55841]]}, "properties": {"nom": "Lit du Salat", "region": "Midi-Pyrenees", "longueur_m": 1484, "aire_ha": 5842.9, "seuil_max_m": 1340, "largeur_libre_m": 60, "plan_eau": 3, "rang": 9, "nb_courses": 27}}, {"type": "Feature", "geometry": {"type": "LineString", "coordinates": [[1.18387, 43.27942], [1.20147, 43.27972]]}, "properties": {"nom": "Lit du Salat", "region": "Midi-Pyrenees", "longueur_m": 1430, "aire_ha": 5842.9, "seuil_max_m": 1340, "largeur_libre_m": 60, "plan_eau": 3, "rang": 10, "nb_courses": 27}}, {"type": "Feature", "geometry": {"type": "LineString", "coordinates": [[0.95348, 44.07367], [0.96981, 44.07585]]}, "properties": {"nom": "Lit du Salat", "region": "Midi-Pyrenees", "longueur_m": 1330, "aire_ha": 5842.9, "seuil_max_m": 1000, "largeur_libre_m": 60, "plan_eau": 3, "rang": 11, "nb_courses": 27}}, {"type": "Feature", "geometry": {"type": "LineString", "coordinates": [[1.20451, 44.10766], [1.21642, 44.11574]]}, "properties": {"nom": "Lit du Salat", "region": "Midi-Pyrenees", "longueur_m": 1310, "aire_ha": 5842.9, "seuil_max_m": 1000, "largeur_libre_m": 60, "plan_eau": 3, "rang": 12, "nb_courses": 27}}, {"type": "Feature", "geometry": {"type": "LineString", "coordinates": [[1.10593, 44.0905], [1.12144, 44.09194]]}, "properties": {"nom": "Lit du Salat", "region": "Midi-Pyrenees", "longueur_m": 1253, "aire_ha": 5842.9, "seuil_max_m": 1000, "largeur_libre_m": 60, "plan_eau": 3, "rang": 13, "nb_courses": 27}}, {"type": "Feature", "geometry": {"type": "LineString", "coordinates": [[0.97704, 43.18058], [0.99229, 43.18146]]}, "properties": {"nom": "Lit du Salat", "region": "Midi-Pyrenees", "longueur_m": 1245, "aire_ha": 5842.9, "seuil_max_m": 1000, "largeur_libre_m": 60, "plan_eau": 3, "rang": 14, "nb_courses": 27}}, {"type": "Feature", "geometry": {"type": "LineString", "coordinates": [[1.31656, 43.75631], [1.32282, 43.7657]]}, "properties": {"nom": "Lit du Salat", "region": "Midi-Pyrenees", "longueur_m": 1159, "aire_ha": 5842.9, "seuil_max_m": 1000, "largeur_libre_m": 60, "plan_eau": 3, "rang": 15, "nb_courses": 27}}, {"type": "Feature", "geometry": {"type": "LineString", "coordinates": [[1.36775, 43.50419], [1.38037, 43.50851]]}, "properties": {"nom": "Lit du Salat", "region": "Midi-Pyrenees", "longueur_m": 1128, "aire_ha": 5842.9, "seuil_max_m": 1000, "largeur_libre_m": 60, "plan_eau": 3, "rang": 16, "nb_courses": 27}}, {"type": "Feature", "geometry": {"type": "LineString", "coordinates": [[0.7636, 44.13904], [0.75134, 44.14322]]}, "properties": {"nom": "Lit du Salat", "region": "Midi-Pyrenees", "longueur_m": 1085, "aire_ha": 5842.9, "seuil_max_m": 1000, "largeur_libre_m": 60, "plan_eau": 3, "rang": 17, "nb_courses": 27}}, {"type": "Feature", "geometry": {"type": "LineString", "coordinates": [[1.51433, 43.85326], [1.50728, 43.8608]]}, "properties": {"nom": "Lit du Salat", "region": "Midi-Pyrenees", "longueur_m": 1011, "aire_ha": 5842.9, "seuil_max_m": 1000, "largeur_libre_m": 60, "plan_eau": 3, "rang": 18, "nb_courses": 27}}, {"type": "Feature", "geometry": {"type": "LineString", "coordinates": [[1.36964, 43.69835], [1.36384, 43.70621]]}, "properties": {"nom": "Lit du Salat", "region": "Midi-Pyrenees", "longueur_m": 990, "aire_ha": 5842.9, "seuil_max_m": 700, "largeur_libre_m": 60, "plan_eau": 3, "rang": 19, "nb_courses": 27}}, {"type": "Feature", "geometry": {"type": "LineString", "coordinates": [[1.40777, 43.91174], [1.39645, 43.91519]]}, "properties": {"nom": "Lit du Salat", "region": "Midi-Pyrenees", "longueur_m": 987, "aire_ha": 5842.9, "seuil_max_m": 700, "largeur_libre_m": 60, "plan_eau": 3, "rang": 20, "nb_courses": 27}}, {"type": "Feature", "geometry": {"type": "LineString", "coordinates": [[1.20919, 43.90205], [1.20337, 43.90986]]}, "properties": {"nom": "Lit du Salat", "region": "Midi-Pyrenees", "longueur_m": 985, "aire_ha": 5842.9, "seuil_max_m": 700, "largeur_libre_m": 60, "plan_eau": 3, "rang": 21, "nb_courses": 27}}, {"type": "Feature", "geometry": {"type": "LineString", "coordinates": [[1.33041, 43.45983], [1.34096, 43.46396]]}, "properties": {"nom": "Lit du Salat", "region": "Midi-Pyrenees", "longueur_m": 970, "aire_ha": 5842.9, "seuil_max_m": 700, "largeur_libre_m": 60, "plan_eau": 3, "rang": 22, "nb_courses": 27}}, {"type": "Feature", "geometry": {"type": "LineString", "coordinates": [[1.34033, 43.99382], [1.34125, 44.00174]]}, "properties": {"nom": "Lit du Salat", "region": "Midi-Pyrenees", "longueur_m": 882, "aire_ha": 5842.9, "seuil_max_m": 700, "largeur_libre_m": 60, "plan_eau": 3, "rang": 23, "nb_courses": 27}}, {"type": "Feature", "geometry": {"type": "LineString", "coordinates": [[1.4402, 43.5938], [1.43775, 43.60143]]}, "properties": {"nom": "Lit du Salat", "region": "Midi-Pyrenees", "longueur_m": 871, "aire_ha": 5842.9, "seuil_max_m": 700, "largeur_libre_m": 60, "plan_eau": 3, "rang": 24, "nb_courses": 27}}, {"type": "Feature", "geometry": {"type": "LineString", "coordinates": [[1.5796, 43.80695], [1.57143, 43.81208]]}, "properties": {"nom": "Lit du Salat", "region": "Midi-Pyrenees", "longueur_m": 870, "aire_ha": 5842.9, "seuil_max_m": 700, "largeur_libre_m": 60, "plan_eau": 3, "rang": 25, "nb_courses": 27}}, {"type": "Feature", "geometry": {"type": "LineString", "coordinates": [[1.16487, 43.96391], [1.16124, 43.97029]]}, "properties": {"nom": "Lit du Salat", "region": "Midi-Pyrenees", "longueur_m": 767, "aire_ha": 5842.9, "seuil_max_m": 700, "largeur_libre_m": 60, "plan_eau": 3, "rang": 26, "nb_courses": 27}}, {"type": "Feature", "geometry": {"type": "LineString", "coordinates": [[1.81638, 43.85937], [1.82379, 43.86297]]}, "properties": {"nom": "Lit du Salat", "region": "Midi-Pyrenees", "longueur_m": 717, "aire_ha": 5842.9, "seuil_max_m": 700, "largeur_libre_m": 60, "plan_eau": 3, "rang": 27, "nb_courses": 27}}, {"type": "Feature", "geometry": {"type": "LineString", "coordinates": [[1.35028, 43.7591], [1.33765, 43.76885]]}, "properties": {"nom": null, "region": "Midi-Pyrenees", "longueur_m": 1487, "aire_ha": 26.5, "seuil_max_m": 1340, "largeur_libre_m": 60, "plan_eau": 4, "rang": 1, "nb_courses": 1}}, {"type": "Feature", "geometry": {"type": "LineString", "coordinates": [[1.17074, 43.47679], [1.18057, 43.48429]]}, "properties": {"nom": "Retenue de Cambernard", "region": "Midi-Pyrenees", "longueur_m": 1153, "aire_ha": 29.3, "seuil_max_m": 1000, "largeur_libre_m": 60, "plan_eau": 11, "rang": 1, "nb_courses": 1}}, {"type": "Feature", "geometry": {"type": "LineString", "coordinates": [[1.16048, 43.4142], [1.14034, 43.41697]]}, "properties": {"nom": "Lac de la Bure ou de Poucharramet", "region": "Midi-Pyrenees", "longueur_m": 1661, "aire_ha": 51.4, "seuil_max_m": 1500, "largeur_libre_m": 60, "plan_eau": 12, "rang": 1, "nb_courses": 1}}, {"type": "Feature", "geometry": {"type": "LineString", "coordinates": [[2.70119, 44.09161], [2.68807, 44.12032]]}, "properties": {"nom": "Lac de Villefranche-de-Panat", "region": "Midi-Pyrenees", "longueur_m": 3359, "aire_ha": 165.0, "seuil_max_m": 3000, "largeur_libre_m": 60, "plan_eau": 13, "rang": 1, "nb_courses": 1}}, {"type": "Feature", "geometry": {"type": "LineString", "coordinates": [[2.03778, 43.43574], [2.01979, 43.43836]]}, "properties": {"nom": "Bassin de Saint-Ferréol", "region": "Midi-Pyrenees", "longueur_m": 1486, "aire_ha": 65.2, "seuil_max_m": 1340, "largeur_libre_m": 60, "plan_eau": 17, "rang": 1, "nb_courses": 1}}, {"type": "Feature", "geometry": {"type": "LineString", "coordinates": [[1.91598, 42.64568], [1.91677, 42.66089]]}, "properties": {"nom": "Étang de Naguille", "region": "Midi-Pyrenees", "longueur_m": 1693, "aire_ha": 91.4, "seuil_max_m": 1500, "largeur_libre_m": 60, "plan_eau": 41, "rang": 1, "nb_courses": 1}}, {"type": "Feature", "geometry": {"type": "LineString", "coordinates": [[1.70844, 43.58044], [1.70153, 43.58992]]}, "properties": {"nom": null, "region": "Midi-Pyrenees", "longueur_m": 1192, "aire_ha": 25.3, "seuil_max_m": 1000, "largeur_libre_m": 60, "plan_eau": 46, "rang": 1, "nb_courses": 1}}, {"type": "Feature", "geometry": {"type": "LineString", "coordinates": [[1.44549, 42.6595], [1.44998, 42.67675]]}, "properties": {"nom": "Étang de Soulcem", "region": "Midi-Pyrenees", "longueur_m": 1954, "aire_ha": 80.8, "seuil_max_m": 1500, "largeur_libre_m": 60, "plan_eau": 47, "rang": 1, "nb_courses": 1}}, {"type": "Feature", "geometry": {"type": "LineString", "coordinates": [[1.49839, 42.68476], [1.49763, 42.69256]]}, "properties": {"nom": "Étang d'Izourt", "region": "Midi-Pyrenees", "longueur_m": 870, "aire_ha": 32.5, "seuil_max_m": 700, "largeur_libre_m": 60, "plan_eau": 48, "rang": 1, "nb_courses": 1}}, {"type": "Feature", "geometry": {"type": "LineString", "coordinates": [[1.64183, 43.34749], [1.64357, 43.35652]]}, "properties": {"nom": "Plan d'eau de la Thésauque", "region": "Midi-Pyrenees", "longueur_m": 1014, "aire_ha": 29.3, "seuil_max_m": 1000, "largeur_libre_m": 60, "plan_eau": 53, "rang": 1, "nb_courses": 1}}, {"type": "Feature", "geometry": {"type": "LineString", "coordinates": [[0.86978, 42.8288], [0.87822, 42.83308]]}, "properties": {"nom": "Étang d'Araing", "region": "Midi-Pyrenees", "longueur_m": 839, "aire_ha": 33.2, "seuil_max_m": 700, "largeur_libre_m": 60, "plan_eau": 59, "rang": 1, "nb_courses": 1}}, {"type": "Feature", "geometry": {"type": "LineString", "coordinates": [[2.1125, 43.39625], [2.09534, 43.40166]]}, "properties": {"nom": "Lac des Cammazes", "region": "Midi-Pyrenees", "longueur_m": 1515, "aire_ha": 77.9, "seuil_max_m": 1500, "largeur_libre_m": 60, "plan_eau": 61, "rang": 1, "nb_courses": 1}}, {"type": "Feature", "geometry": {"type": "LineString", "coordinates": [[1.13085, 43.49771], [1.11713, 43.49959]]}, "properties": {"nom": "Lac de Sainte-Foy de Peyrolieres", "region": "Midi-Pyrenees", "longueur_m": 1129, "aire_ha": 28.1, "seuil_max_m": 1000, "largeur_libre_m": 60, "plan_eau": 62, "rang": 1, "nb_courses": 1}}, {"type": "Feature", "geometry": {"type": "LineString", "coordinates": [[0.08363, 43.27871], [0.08108, 43.28614]]}, "properties": {"nom": null, "region": "Midi-Pyrenees", "longueur_m": 852, "aire_ha": 643.7, "seuil_max_m": 700, "largeur_libre_m": 60, "plan_eau": 64, "rang": 1, "nb_courses": 1}}, {"type": "Feature", "geometry": {"type": "LineString", "coordinates": [[-1.19582, 43.54968], [-1.21525, 43.55783]]}, "properties": {"nom": null, "region": "Midi-Pyrenees", "longueur_m": 1813, "aire_ha": 472.7, "seuil_max_m": 1500, "largeur_libre_m": 60, "plan_eau": 65, "rang": 1, "nb_courses": 2}}, {"type": "Feature", "geometry": {"type": "LineString", "coordinates": [[-1.23455, 43.6077], [-1.23298, 43.61871]]}, "properties": {"nom": null, "region": "Midi-Pyrenees", "longueur_m": 1230, "aire_ha": 472.7, "seuil_max_m": 1000, "largeur_libre_m": 60, "plan_eau": 65, "rang": 2, "nb_courses": 2}}, {"type": "Feature", "geometry": {"type": "LineString", "coordinates": [[-0.06574, 43.33197], [-0.06446, 43.34614]]}, "properties": {"nom": "Lac du Louet", "region": "Midi-Pyrenees", "longueur_m": 1578, "aire_ha": 39.4, "seuil_max_m": 1500, "largeur_libre_m": 60, "plan_eau": 67, "rang": 1, "nb_courses": 1}}, {"type": "Feature", "geometry": {"type": "LineString", "coordinates": [[1.143, 43.70053], [1.15653, 43.70179]]}, "properties": {"nom": "Lac de Thil-Bretx", "region": "Midi-Pyrenees", "longueur_m": 1100, "aire_ha": 23.2, "seuil_max_m": 1000, "largeur_libre_m": 60, "plan_eau": 71, "rang": 1, "nb_courses": 1}}, {"type": "Feature", "geometry": {"type": "LineString", "coordinates": [[1.69427, 43.64212], [1.70157, 43.65058]]}, "properties": {"nom": "Lac de la Balerme", "region": "Midi-Pyrenees", "longueur_m": 1110, "aire_ha": 33.3, "seuil_max_m": 1000, "largeur_libre_m": 60, "plan_eau": 73, "rang": 1, "nb_courses": 1}}, {"type": "Feature", "geometry": {"type": "LineString", "coordinates": [[1.98498, 42.96607], [1.96418, 42.96829]]}, "properties": {"nom": "Lac de Montbel", "region": "Midi-Pyrenees", "longueur_m": 1717, "aire_ha": 74.6, "seuil_max_m": 1500, "largeur_libre_m": 60, "plan_eau": 74, "rang": 1, "nb_courses": 1}}, {"type": "Feature", "geometry": {"type": "LineString", "coordinates": [[1.96972, 42.96993], [1.93186, 42.98187]]}, "properties": {"nom": "Lac de Montbel", "region": "Midi-Pyrenees", "longueur_m": 3364, "aire_ha": 449.4, "seuil_max_m": 3000, "largeur_libre_m": 60, "plan_eau": 75, "rang": 1, "nb_courses": 1}}, {"type": "Feature", "geometry": {"type": "LineString", "coordinates": [[0.42064, 43.27569], [0.42266, 43.2962]]}, "properties": {"nom": "Lac de Puydarrieux", "region": "Midi-Pyrenees", "longueur_m": 2286, "aire_ha": 170.7, "seuil_max_m": 2000, "largeur_libre_m": 60, "plan_eau": 77, "rang": 1, "nb_courses": 1}}, {"type": "Feature", "geometry": {"type": "LineString", "coordinates": [[2.7266, 44.25569], [2.72252, 44.26649]]}, "properties": {"nom": "Lac de Bages", "region": "Midi-Pyrenees", "longueur_m": 1243, "aire_ha": 44.8, "seuil_max_m": 1000, "largeur_libre_m": 60, "plan_eau": 78, "rang": 1, "nb_courses": 1}}, {"type": "Feature", "geometry": {"type": "LineString", "coordinates": [[1.46373, 44.00442], [1.45677, 44.02182]]}, "properties": {"nom": "Lac du Tordre", "region": "Midi-Pyrenees", "longueur_m": 2012, "aire_ha": 69.5, "seuil_max_m": 2000, "largeur_libre_m": 60, "plan_eau": 79, "rang": 1, "nb_courses": 1}}, {"type": "Feature", "geometry": {"type": "LineString", "coordinates": [[2.73076, 44.29487], [2.74006, 44.30653]]}, "properties": {"nom": "Lac de Pont-de-Salars", "region": "Midi-Pyrenees", "longueur_m": 1493, "aire_ha": 162.4, "seuil_max_m": 1340, "largeur_libre_m": 60, "plan_eau": 81, "rang": 1, "nb_courses": 1}}, {"type": "Feature", "geometry": {"type": "LineString", "coordinates": [[-0.12026, 43.27025], [-0.14187, 43.29026]]}, "properties": {"nom": "Réservoir du Gabas", "region": "Midi-Pyrenees", "longueur_m": 2834, "aire_ha": 173.6, "seuil_max_m": 2000, "largeur_libre_m": 60, "plan_eau": 82, "rang": 1, "nb_courses": 1}}, {"type": "Feature", "geometry": {"type": "LineString", "coordinates": [[1.60724, 44.04317], [1.60345, 44.055]]}, "properties": {"nom": "Lac du Gouyre", "region": "Midi-Pyrenees", "longueur_m": 1348, "aire_ha": 45.9, "seuil_max_m": 1340, "largeur_libre_m": 60, "plan_eau": 85, "rang": 1, "nb_courses": 1}}, {"type": "Feature", "geometry": {"type": "LineString", "coordinates": [[-0.06169, 43.45439], [-0.07035, 43.46332]]}, "properties": {"nom": "Lac de Bassillon-Vauzé", "region": "Midi-Pyrenees", "longueur_m": 1215, "aire_ha": 33.5, "seuil_max_m": 1000, "largeur_libre_m": 60, "plan_eau": 87, "rang": 1, "nb_courses": 1}}, {"type": "Feature", "geometry": {"type": "LineString", "coordinates": [[2.08424, 43.99739], [2.09766, 43.99904]]}, "properties": {"nom": "Réservoir de Fonrogue", "region": "Midi-Pyrenees", "longueur_m": 1092, "aire_ha": 28.6, "seuil_max_m": 1000, "largeur_libre_m": 60, "plan_eau": 98, "rang": 1, "nb_courses": 1}}, {"type": "Feature", "geometry": {"type": "LineString", "coordinates": [[-0.07298, 43.78636], [-0.07917, 43.79148]]}, "properties": {"nom": null, "region": "Midi-Pyrenees", "longueur_m": 756, "aire_ha": 19.8, "seuil_max_m": 700, "largeur_libre_m": 60, "plan_eau": 99, "rang": 1, "nb_courses": 1}}, {"type": "Feature", "geometry": {"type": "LineString", "coordinates": [[2.89137, 44.49422], [2.88462, 44.50502]]}, "properties": {"nom": null, "region": "Midi-Pyrenees", "longueur_m": 1313, "aire_ha": 245.3, "seuil_max_m": 1000, "largeur_libre_m": 60, "plan_eau": 100, "rang": 1, "nb_courses": 1}}, {"type": "Feature", "geometry": {"type": "LineString", "coordinates": [[0.32686, 43.43273], [0.31888, 43.44875]]}, "properties": {"nom": "Lac de Miélan", "region": "Midi-Pyrenees", "longueur_m": 1894, "aire_ha": 93.7, "seuil_max_m": 1500, "largeur_libre_m": 60, "plan_eau": 101, "rang": 1, "nb_courses": 1}}, {"type": "Feature", "geometry": {"type": "LineString", "coordinates": [[1.06311, 43.87426], [1.06997, 43.88071]]}, "properties": {"nom": "Lac de Vigueron", "region": "Midi-Pyrenees", "longueur_m": 904, "aire_ha": 19.2, "seuil_max_m": 700, "largeur_libre_m": 60, "plan_eau": 102, "rang": 1, "nb_courses": 1}}, {"type": "Feature", "geometry": {"type": "LineString", "coordinates": [[-0.14179, 43.93845], [-0.15528, 43.94065]]}, "properties": {"nom": "Lac de Tailluret", "region": "Midi-Pyrenees", "longueur_m": 1110, "aire_ha": 39.7, "seuil_max_m": 1000, "largeur_libre_m": 60, "plan_eau": 105, "rang": 1, "nb_courses": 1}}, {"type": "Feature", "geometry": {"type": "LineString", "coordinates": [[2.31675, 44.03398], [2.3265, 44.03515]]}, "properties": {"nom": "Lac de Saint-Géraud", "region": "Midi-Pyrenees", "longueur_m": 792, "aire_ha": 71.7, "seuil_max_m": 700, "largeur_libre_m": 60, "plan_eau": 106, "rang": 1, "nb_courses": 1}}, {"type": "Feature", "geometry": {"type": "LineString", "coordinates": [[2.53019, 43.98601], [2.54395, 43.98818]]}, "properties": {"nom": "Le Lac de la Croux", "region": "Midi-Pyrenees", "longueur_m": 1130, "aire_ha": 394.7, "seuil_max_m": 1000, "largeur_libre_m": 60, "plan_eau": 107, "rang": 1, "nb_courses": 2}}, {"type": "Feature", "geometry": {"type": "LineString", "coordinates": [[2.25232, 43.9323], [2.24516, 43.93793]]}, "properties": {"nom": "Le Lac de la Croux", "region": "Midi-Pyrenees", "longueur_m": 850, "aire_ha": 394.7, "seuil_max_m": 700, "largeur_libre_m": 60, "plan_eau": 107, "rang": 2, "nb_courses": 2}}, {"type": "Feature", "geometry": {"type": "LineString", "coordinates": [[1.00834, 43.88411], [0.99919, 43.88534]]}, "properties": {"nom": null, "region": "Midi-Pyrenees", "longueur_m": 748, "aire_ha": 25.6, "seuil_max_m": 700, "largeur_libre_m": 60, "plan_eau": 108, "rang": 1, "nb_courses": 1}}, {"type": "Feature", "geometry": {"type": "LineString", "coordinates": [[-0.19922, 43.84724], [-0.20296, 43.85786]]}, "properties": {"nom": "Réservoir de Charros", "region": "Midi-Pyrenees", "longueur_m": 1218, "aire_ha": 34.6, "seuil_max_m": 1000, "largeur_libre_m": 60, "plan_eau": 109, "rang": 1, "nb_courses": 1}}, {"type": "Feature", "geometry": {"type": "LineString", "coordinates": [[2.3404, 43.80631], [2.35023, 43.80637]]}, "properties": {"nom": "Retenue de Rasisse", "region": "Midi-Pyrenees", "longueur_m": 792, "aire_ha": 84.9, "seuil_max_m": 700, "largeur_libre_m": 60, "plan_eau": 111, "rang": 1, "nb_courses": 1}}, {"type": "Feature", "geometry": {"type": "LineString", "coordinates": [[-0.18594, 43.76761], [-0.19663, 43.76811]]}, "properties": {"nom": null, "region": "Midi-Pyrenees", "longueur_m": 862, "aire_ha": 15.3, "seuil_max_m": 700, "largeur_libre_m": 60, "plan_eau": 112, "rang": 1, "nb_courses": 1}}, {"type": "Feature", "geometry": {"type": "LineString", "coordinates": [[2.26074, 43.77863], [2.27346, 43.79156]]}, "properties": {"nom": "La Bancalié", "region": "Midi-Pyrenees", "longueur_m": 1764, "aire_ha": 84.1, "seuil_max_m": 1500, "largeur_libre_m": 60, "plan_eau": 113, "rang": 1, "nb_courses": 1}}, {"type": "Feature", "geometry": {"type": "LineString", "coordinates": [[0.17318, 43.71443], [0.17668, 43.72887]]}, "properties": {"nom": "Lac de Candau", "region": "Midi-Pyrenees", "longueur_m": 1629, "aire_ha": 55.7, "seuil_max_m": 1500, "largeur_libre_m": 60, "plan_eau": 114, "rang": 1, "nb_courses": 1}}, {"type": "Feature", "geometry": {"type": "LineString", "coordinates": [[0.18992, 43.65006], [0.17622, 43.65603]]}, "properties": {"nom": "Lac de Saint-Jean", "region": "Midi-Pyrenees", "longueur_m": 1289, "aire_ha": 45.3, "seuil_max_m": 1000, "largeur_libre_m": 60, "plan_eau": 115, "rang": 1, "nb_courses": 1}}, {"type": "Feature", "geometry": {"type": "LineString", "coordinates": [[1.76747, 43.64409], [1.77627, 43.64628]]}, "properties": {"nom": "Retenue de Briax", "region": "Midi-Pyrenees", "longueur_m": 751, "aire_ha": 27.6, "seuil_max_m": 700, "largeur_libre_m": 60, "plan_eau": 116, "rang": 1, "nb_courses": 1}}, {"type": "Feature", "geometry": {"type": "LineString", "coordinates": [[1.80459, 43.62537], [1.81307, 43.62784]]}, "properties": {"nom": "Lac du Messal", "region": "Midi-Pyrenees", "longueur_m": 737, "aire_ha": 21.2, "seuil_max_m": 700, "largeur_libre_m": 60, "plan_eau": 117, "rang": 1, "nb_courses": 1}}, {"type": "Feature", "geometry": {"type": "LineString", "coordinates": [[0.37299, 43.56221], [0.37143, 43.57543]]}, "properties": {"nom": "Lac du Lizet", "region": "Midi-Pyrenees", "longueur_m": 1474, "aire_ha": 58.2, "seuil_max_m": 1340, "largeur_libre_m": 60, "plan_eau": 118, "rang": 1, "nb_courses": 1}}, {"type": "Feature", "geometry": {"type": "LineString", "coordinates": [[0.1609, 43.53207], [0.15113, 43.53686]]}, "properties": {"nom": "Lac de Marciac", "region": "Midi-Pyrenees", "longueur_m": 953, "aire_ha": 23.1, "seuil_max_m": 700, "largeur_libre_m": 60, "plan_eau": 119, "rang": 1, "nb_courses": 1}}, {"type": "Feature", "geometry": {"type": "LineString", "coordinates": [[0.24856, 43.45588], [0.23714, 43.46031]]}, "properties": {"nom": null, "region": "Midi-Pyrenees", "longueur_m": 1047, "aire_ha": 27.8, "seuil_max_m": 1000, "largeur_libre_m": 60, "plan_eau": 120, "rang": 1, "nb_courses": 1}}, {"type": "Feature", "geometry": {"type": "LineString", "coordinates": [[2.06336, 43.4779], [2.0527, 43.47863]]}, "properties": {"nom": "Lac d'en Brunet", "region": "Midi-Pyrenees", "longueur_m": 866, "aire_ha": 18.2, "seuil_max_m": 700, "largeur_libre_m": 60, "plan_eau": 121, "rang": 1, "nb_courses": 1}}, {"type": "Feature", "geometry": {"type": "LineString", "coordinates": [[1.10577, 43.37472], [1.08961, 43.37824]]}, "properties": {"nom": null, "region": "Midi-Pyrenees", "longueur_m": 1367, "aire_ha": 35.4, "seuil_max_m": 1340, "largeur_libre_m": 60, "plan_eau": 122, "rang": 1, "nb_courses": 1}}, {"type": "Feature", "geometry": {"type": "LineString", "coordinates": [[1.2453, 43.32654], [1.24113, 43.33219]]}, "properties": {"nom": null, "region": "Midi-Pyrenees", "longueur_m": 714, "aire_ha": 39.0, "seuil_max_m": 700, "largeur_libre_m": 60, "plan_eau": 123, "rang": 1, "nb_courses": 1}}, {"type": "Feature", "geometry": {"type": "LineString", "coordinates": [[1.19836, 43.31307], [1.1967, 43.31972]]}, "properties": {"nom": null, "region": "Midi-Pyrenees", "longueur_m": 752, "aire_ha": 40.0, "seuil_max_m": 700, "largeur_libre_m": 60, "plan_eau": 124, "rang": 1, "nb_courses": 1}}, {"type": "Feature", "geometry": {"type": "LineString", "coordinates": [[0.85687, 43.29718], [0.86973, 43.30439]]}, "properties": {"nom": "Lac de Saint-André", "region": "Midi-Pyrenees", "longueur_m": 1316, "aire_ha": 38.6, "seuil_max_m": 1000, "largeur_libre_m": 60, "plan_eau": 125, "rang": 1, "nb_courses": 1}}, {"type": "Feature", "geometry": {"type": "LineString", "coordinates": [[1.40361, 43.06469], [1.38641, 43.06924]]}, "properties": {"nom": "Lac de Filleit", "region": "Midi-Pyrenees", "longueur_m": 1491, "aire_ha": 59.1, "seuil_max_m": 1340, "largeur_libre_m": 60, "plan_eau": 126, "rang": 1, "nb_courses": 1}}, {"type": "Feature", "geometry": {"type": "LineString", "coordinates": [[1.44744, 43.04753], [1.43372, 43.05378]]}, "properties": {"nom": "Lac de Mondely", "region": "Midi-Pyrenees", "longueur_m": 1318, "aire_ha": 47.0, "seuil_max_m": 1000, "largeur_libre_m": 60, "plan_eau": 127, "rang": 1, "nb_courses": 1}}, {"type": "Feature", "geometry": {"type": "LineString", "coordinates": [[1.62486, 42.88342], [1.63065, 42.88887]]}, "properties": {"nom": null, "region": "Midi-Pyrenees", "longueur_m": 769, "aire_ha": 103.5, "seuil_max_m": 700, "largeur_libre_m": 60, "plan_eau": 129, "rang": 1, "nb_courses": 1}}, {"type": "Feature", "geometry": {"type": "LineString", "coordinates": [[1.7081, 42.66751], [1.70386, 42.67664]]}, "properties": {"nom": "Étang de Laparan", "region": "Midi-Pyrenees", "longueur_m": 1073, "aire_ha": 36.6, "seuil_max_m": 1000, "largeur_libre_m": 60, "plan_eau": 133, "rang": 1, "nb_courses": 1}}, {"type": "Feature", "geometry": {"type": "LineString", "coordinates": [[2.05425, 44.82242], [2.04242, 44.82714]]}, "properties": {"nom": "Lac du Tolerme", "region": "Midi-Pyrenees", "longueur_m": 1072, "aire_ha": 33.1, "seuil_max_m": 1000, "largeur_libre_m": 60, "plan_eau": 136, "rang": 1, "nb_courses": 1}}, {"type": "Feature", "geometry": {"type": "LineString", "coordinates": [[2.76097, 44.65779], [2.76449, 44.6656]]}, "properties": {"nom": "Lac des Galens", "region": "Midi-Pyrenees", "longueur_m": 912, "aire_ha": 35.6, "seuil_max_m": 700, "largeur_libre_m": 60, "plan_eau": 137, "rang": 1, "nb_courses": 1}}, {"type": "Feature", "geometry": {"type": "LineString", "coordinates": [[2.7549, 43.63655], [2.76972, 43.65783]]}, "properties": {"nom": "Lac du Laouzas", "region": "Midi-Pyrenees", "longueur_m": 2650, "aire_ha": 258.8, "seuil_max_m": 2000, "largeur_libre_m": 60, "plan_eau": 139, "rang": 1, "nb_courses": 1}}, {"type": "Feature", "geometry": {"type": "LineString", "coordinates": [[0.11837, 42.82343], [0.14188, 42.82406]]}, "properties": {"nom": "Lac de Cap-de-Long", "region": "Midi-Pyrenees", "longueur_m": 1926, "aire_ha": 117.2, "seuil_max_m": 1500, "largeur_libre_m": 60, "plan_eau": 140, "rang": 1, "nb_courses": 1}}, {"type": "Feature", "geometry": {"type": "LineString", "coordinates": [[0.1558, 42.82211], [0.16851, 42.82867]]}, "properties": {"nom": "Lac d'Oredon", "region": "Midi-Pyrenees", "longueur_m": 1271, "aire_ha": 44.9, "seuil_max_m": 1000, "largeur_libre_m": 60, "plan_eau": 141, "rang": 1, "nb_courses": 1}}, {"type": "Feature", "geometry": {"type": "LineString", "coordinates": [[0.20579, 42.82543], [0.19712, 42.83849]]}, "properties": {"nom": "Lac de l'Oule", "region": "Midi-Pyrenees", "longueur_m": 1616, "aire_ha": 60.3, "seuil_max_m": 1500, "largeur_libre_m": 60, "plan_eau": 142, "rang": 1, "nb_courses": 1}}, {"type": "Feature", "geometry": {"type": "LineString", "coordinates": [[-0.28591, 42.81433], [-0.29707, 42.81529]]}, "properties": {"nom": "Embalse de Respomuso", "region": "Midi-Pyrenees", "longueur_m": 921, "aire_ha": 49.2, "seuil_max_m": 700, "largeur_libre_m": 60, "plan_eau": 143, "rang": 1, "nb_courses": 1}}, {"type": "Feature", "geometry": {"type": "LineString", "coordinates": [[-0.07826, 43.10673], [-0.09334, 43.10985]]}, "properties": {"nom": "Lac de Lourdes", "region": "Midi-Pyrenees", "longueur_m": 1277, "aire_ha": 46.9, "seuil_max_m": 1000, "largeur_libre_m": 60, "plan_eau": 144, "rang": 1, "nb_courses": 1}}, {"type": "Feature", "geometry": {"type": "LineString", "coordinates": [[0.49398, 42.73691], [0.48877, 42.74389]]}, "properties": {"nom": "Lac d'Oô", "region": "Midi-Pyrenees", "longueur_m": 885, "aire_ha": 42.7, "seuil_max_m": 700, "largeur_libre_m": 60, "plan_eau": 145, "rang": 1, "nb_courses": 1}}, {"type": "Feature", "geometry": {"type": "LineString", "coordinates": [[0.50427, 42.7001], [0.51325, 42.70101]]}, "properties": {"nom": "Lac du Portillon", "region": "Midi-Pyrenees", "longueur_m": 743, "aire_ha": 34.4, "seuil_max_m": 700, "largeur_libre_m": 60, "plan_eau": 146, "rang": 1, "nb_courses": 1}}, {"type": "Feature", "geometry": {"type": "LineString", "coordinates": [[0.04211, 42.67839], [0.03137, 42.6837]]}, "properties": {"nom": "Glaciar Monte Perdido", "region": "Midi-Pyrenees", "longueur_m": 1061, "aire_ha": 31.3, "seuil_max_m": 1000, "largeur_libre_m": 60, "plan_eau": 156, "rang": 1, "nb_courses": 1}}, {"type": "Feature", "geometry": {"type": "LineString", "coordinates": [[1.97826, 43.89909], [1.96242, 43.90551]]}, "properties": {"nom": null, "region": "Midi-Pyrenees", "longueur_m": 1458, "aire_ha": 378.9, "seuil_max_m": 1340, "largeur_libre_m": 60, "plan_eau": 158, "rang": 1, "nb_courses": 3}}, {"type": "Feature", "geometry": {"type": "LineString", "coordinates": [[2.17099, 43.9454], [2.16704, 43.95388]]}, "properties": {"nom": null, "region": "Midi-Pyrenees", "longueur_m": 994, "aire_ha": 378.9, "seuil_max_m": 700, "largeur_libre_m": 60, "plan_eau": 158, "rang": 2, "nb_courses": 3}}, {"type": "Feature", "geometry": {"type": "LineString", "coordinates": [[2.02892, 43.92048], [2.03928, 43.92057]]}, "properties": {"nom": null, "region": "Midi-Pyrenees", "longueur_m": 832, "aire_ha": 378.9, "seuil_max_m": 700, "largeur_libre_m": 60, "plan_eau": 158, "rang": 3, "nb_courses": 3}}, {"type": "Feature", "geometry": {"type": "LineString", "coordinates": [[1.01486, 43.68114], [0.99946, 43.69177]]}, "properties": {"nom": "Lac de Thoux Saint-Cricq", "region": "Midi-Pyrenees", "longueur_m": 1714, "aire_ha": 58.2, "seuil_max_m": 1500, "largeur_libre_m": 60, "plan_eau": 168, "rang": 1, "nb_courses": 1}}, {"type": "Feature", "geometry": {"type": "LineString", "coordinates": [[1.67109, 43.69374], [1.6511, 43.69425]]}, "properties": {"nom": "Lac du Laragou", "region": "Midi-Pyrenees", "longueur_m": 1613, "aire_ha": 40.8, "seuil_max_m": 1500, "largeur_libre_m": 60, "plan_eau": 172, "rang": 1, "nb_courses": 1}}, {"type": "Feature", "geometry": {"type": "LineString", "coordinates": [[-0.02975, 43.93214], [-0.05285, 43.93985]]}, "properties": {"nom": "Lac de l'Uby", "region": "Midi-Pyrenees", "longueur_m": 2043, "aire_ha": 71.7, "seuil_max_m": 2000, "largeur_libre_m": 60, "plan_eau": 174, "rang": 1, "nb_courses": 1}}, {"type": "Feature", "geometry": {"type": "LineString", "coordinates": [[1.44679, 44.44551], [1.43951, 44.45663]]}, "properties": {"nom": "Le Célé", "region": "Midi-Pyrenees", "longueur_m": 1364, "aire_ha": 674.5, "seuil_max_m": 1340, "largeur_libre_m": 60, "plan_eau": 177, "rang": 1, "nb_courses": 4}}, {"type": "Feature", "geometry": {"type": "LineString", "coordinates": [[1.68637, 44.46249], [1.6822, 44.47118]]}, "properties": {"nom": "Le Célé", "region": "Midi-Pyrenees", "longueur_m": 1021, "aire_ha": 674.5, "seuil_max_m": 1000, "largeur_libre_m": 60, "plan_eau": 177, "rang": 2, "nb_courses": 4}}, {"type": "Feature", "geometry": {"type": "LineString", "coordinates": [[1.60599, 44.46844], [1.60966, 44.47705]]}, "properties": {"nom": "Le Célé", "region": "Midi-Pyrenees", "longueur_m": 1001, "aire_ha": 674.5, "seuil_max_m": 1000, "largeur_libre_m": 60, "plan_eau": 177, "rang": 3, "nb_courses": 4}}, {"type": "Feature", "geometry": {"type": "LineString", "coordinates": [[1.54249, 44.46581], [1.53417, 44.47045]]}, "properties": {"nom": "Le Célé", "region": "Midi-Pyrenees", "longueur_m": 840, "aire_ha": 674.5, "seuil_max_m": 700, "largeur_libre_m": 60, "plan_eau": 177, "rang": 4, "nb_courses": 4}}, {"type": "Feature", "geometry": {"type": "LineString", "coordinates": [[2.15444, 44.5722], [2.16831, 44.5723]]}, "properties": {"nom": "Le Dourdou de Conques", "region": "Midi-Pyrenees", "longueur_m": 1101, "aire_ha": 800.3, "seuil_max_m": 1000, "largeur_libre_m": 60, "plan_eau": 178, "rang": 1, "nb_courses": 5}}, {"type": "Feature", "geometry": {"type": "LineString", "coordinates": [[1.97819, 44.53911], [1.98453, 44.5472]]}, "properties": {"nom": "Le Dourdou de Conques", "region": "Midi-Pyrenees", "longueur_m": 1030, "aire_ha": 800.3, "seuil_max_m": 1000, "largeur_libre_m": 60, "plan_eau": 178, "rang": 2, "nb_courses": 5}}, {"type": "Feature", "geometry": {"type": "LineString", "coordinates": [[1.84648, 44.48318], [1.85768, 44.48689]]}, "properties": {"nom": "Le Dourdou de Conques", "region": "Midi-Pyrenees", "longueur_m": 981, "aire_ha": 800.3, "seuil_max_m": 700, "largeur_libre_m": 60, "plan_eau": 178, "rang": 3, "nb_courses": 5}}, {"type": "Feature", "geometry": {"type": "LineString", "coordinates": [[2.07291, 44.57815], [2.07862, 44.58459]]}, "properties": {"nom": "Le Dourdou de Conques", "region": "Midi-Pyrenees", "longueur_m": 848, "aire_ha": 800.3, "seuil_max_m": 700, "largeur_libre_m": 60, "plan_eau": 178, "rang": 4, "nb_courses": 5}}, {"type": "Feature", "geometry": {"type": "LineString", "coordinates": [[2.23927, 44.61136], [2.24831, 44.61143]]}, "properties": {"nom": "Le Dourdou de Conques", "region": "Midi-Pyrenees", "longueur_m": 718, "aire_ha": 800.3, "seuil_max_m": 700, "largeur_libre_m": 60, "plan_eau": 178, "rang": 5, "nb_courses": 5}}, {"type": "Feature", "geometry": {"type": "LineString", "coordinates": [[2.82957, 44.0673], [2.81297, 44.0679]]}, "properties": {"nom": "Le Tarn", "region": "Midi-Pyrenees", "longueur_m": 1332, "aire_ha": 329.8, "seuil_max_m": 1000, "largeur_libre_m": 60, "plan_eau": 181, "rang": 1, "nb_courses": 1}}, {"type": "Feature", "geometry": {"type": "LineString", "coordinates": [[1.33495, 44.84954], [1.34635, 44.85639]]}, "properties": {"nom": "Plan d'Eau de Vayrac", "region": "Midi-Pyrenees", "longueur_m": 1180, "aire_ha": 774.9, "seuil_max_m": 1000, "largeur_libre_m": 60, "plan_eau": 184, "rang": 1, "nb_courses": 5}}, {"type": "Feature", "geometry": {"type": "LineString", "coordinates": [[1.61103, 44.88667], [1.61443, 44.89638]]}, "properties": {"nom": "Plan d'Eau de Vayrac", "region": "Midi-Pyrenees", "longueur_m": 1111, "aire_ha": 774.9, "seuil_max_m": 1000, "largeur_libre_m": 60, "plan_eau": 184, "rang": 2, "nb_courses": 5}}, {"type": "Feature", "geometry": {"type": "LineString", "coordinates": [[1.48991, 44.86279], [1.49655, 44.87135]]}, "properties": {"nom": "Plan d'Eau de Vayrac", "region": "Midi-Pyrenees", "longueur_m": 1086, "aire_ha": 774.9, "seuil_max_m": 1000, "largeur_libre_m": 60, "plan_eau": 184, "rang": 3, "nb_courses": 5}}, {"type": "Feature", "geometry": {"type": "LineString", "coordinates": [[1.41363, 44.87161], [1.40544, 44.8772]]}, "properties": {"nom": "Plan d'Eau de Vayrac", "region": "Midi-Pyrenees", "longueur_m": 896, "aire_ha": 774.9, "seuil_max_m": 700, "largeur_libre_m": 60, "plan_eau": 184, "rang": 4, "nb_courses": 5}}, {"type": "Feature", "geometry": {"type": "LineString", "coordinates": [[1.74869, 44.9042], [1.74353, 44.91032]]}, "properties": {"nom": "Plan d'Eau de Vayrac", "region": "Midi-Pyrenees", "longueur_m": 792, "aire_ha": 774.9, "seuil_max_m": 700, "largeur_libre_m": 60, "plan_eau": 184, "rang": 5, "nb_courses": 5}}, {"type": "Feature", "geometry": {"type": "LineString", "coordinates": [[1.35696, 43.76019], [1.34738, 43.76401]]}, "properties": {"nom": null, "region": "Midi-Pyrenees", "longueur_m": 881, "aire_ha": 39.3, "seuil_max_m": 700, "largeur_libre_m": 60, "plan_eau": 190, "rang": 1, "nb_courses": 1}}, {"type": "Feature", "geometry": {"type": "LineString", "coordinates": [[1.28693, 43.52746], [1.29352, 43.53197]]}, "properties": {"nom": "Lac de Birazel", "region": "Midi-Pyrenees", "longueur_m": 732, "aire_ha": 20.2, "seuil_max_m": 700, "largeur_libre_m": 60, "plan_eau": 193, "rang": 1, "nb_courses": 1}}, {"type": "Feature", "geometry": {"type": "LineString", "coordinates": [[1.31371, 43.47755], [1.31604, 43.48648]]}, "properties": {"nom": null, "region": "Midi-Pyrenees", "longueur_m": 1010, "aire_ha": 45.9, "seuil_max_m": 1000, "largeur_libre_m": 60, "plan_eau": 209, "rang": 1, "nb_courses": 1}}, {"type": "Feature", "geometry": {"type": "LineString", "coordinates": [[0.95111, 43.96001], [0.96149, 43.97223]]}, "properties": {"nom": null, "region": "Midi-Pyrenees", "longueur_m": 1593, "aire_ha": 45.1, "seuil_max_m": 1500, "largeur_libre_m": 60, "plan_eau": 211, "rang": 1, "nb_courses": 1}}, {"type": "Feature", "geometry": {"type": "LineString", "coordinates": [[1.83079, 43.59531], [1.83336, 43.60137]]}, "properties": {"nom": "Lac de Geignes", "region": "Midi-Pyrenees", "longueur_m": 705, "aire_ha": 16.6, "seuil_max_m": 700, "largeur_libre_m": 60, "plan_eau": 243, "rang": 1, "nb_courses": 1}}, {"type": "Feature", "geometry": {"type": "LineString", "coordinates": [[2.73429, 44.03813], [2.74298, 44.04324]]}, "properties": {"nom": null, "region": "Midi-Pyrenees", "longueur_m": 899, "aire_ha": 65.1, "seuil_max_m": 700, "largeur_libre_m": 60, "plan_eau": 258, "rang": 1, "nb_courses": 1}}, {"type": "Feature", "geometry": {"type": "LineString", "coordinates": [[0.82848, 43.31762], [0.84066, 43.32188]]}, "properties": {"nom": "Lac de Saint-Frajou", "region": "Midi-Pyrenees", "longueur_m": 1096, "aire_ha": 40.8, "seuil_max_m": 1000, "largeur_libre_m": 60, "plan_eau": 267, "rang": 1, "nb_courses": 1}}, {"type": "Feature", "geometry": {"type": "LineString", "coordinates": [[1.87772, 43.83149], [1.87095, 43.83737]]}, "properties": {"nom": "Retenue de Verdet", "region": "Midi-Pyrenees", "longueur_m": 850, "aire_ha": 22.7, "seuil_max_m": 700, "largeur_libre_m": 60, "plan_eau": 286, "rang": 1, "nb_courses": 1}}, {"type": "Feature", "geometry": {"type": "LineString", "coordinates": [[0.55686, 43.07691], [0.56538, 43.07777]]}, "properties": {"nom": "Lac de Montréjeau", "region": "Midi-Pyrenees", "longueur_m": 701, "aire_ha": 19.4, "seuil_max_m": 700, "largeur_libre_m": 60, "plan_eau": 289, "rang": 1, "nb_courses": 1}}, {"type": "Feature", "geometry": {"type": "LineString", "coordinates": [[1.15181, 43.27359], [1.15993, 43.27764]]}, "properties": {"nom": null, "region": "Midi-Pyrenees", "longueur_m": 798, "aire_ha": 31.2, "seuil_max_m": 700, "largeur_libre_m": 60, "plan_eau": 308, "rang": 1, "nb_courses": 1}}, {"type": "Feature", "geometry": {"type": "LineString", "coordinates": [[2.67151, 44.6605], [2.69395, 44.66056]]}, "properties": {"nom": "Lac de Maury", "region": "Midi-Pyrenees", "longueur_m": 1779, "aire_ha": 156.8, "seuil_max_m": 1500, "largeur_libre_m": 60, "plan_eau": 315, "rang": 1, "nb_courses": 1}}, {"type": "Feature", "geometry": {"type": "LineString", "coordinates": [[1.14567, 43.46302], [1.15897, 43.46701]]}, "properties": {"nom": "Lac du Parayre", "region": "Midi-Pyrenees", "longueur_m": 1164, "aire_ha": 25.5, "seuil_max_m": 1000, "largeur_libre_m": 60, "plan_eau": 318, "rang": 1, "nb_courses": 1}}, {"type": "Feature", "geometry": {"type": "LineString", "coordinates": [[1.10082, 43.70054], [1.10986, 43.7007]]}, "properties": {"nom": "Lac de Garac", "region": "Midi-Pyrenees", "longueur_m": 730, "aire_ha": 16.8, "seuil_max_m": 700, "largeur_libre_m": 60, "plan_eau": 328, "rang": 1, "nb_courses": 1}}, {"type": "Feature", "geometry": {"type": "LineString", "coordinates": [[2.16009, 44.08051], [2.13016, 44.08368]]}, "properties": {"nom": "Barrage de La Roucarié", "region": "Midi-Pyrenees", "longueur_m": 2423, "aire_ha": 53.8, "seuil_max_m": 2000, "largeur_libre_m": 60, "plan_eau": 341, "rang": 1, "nb_courses": 1}}, {"type": "Feature", "geometry": {"type": "LineString", "coordinates": [[2.61005, 43.58939], [2.65032, 43.60078]]}, "properties": {"nom": "Lac de la Raviège", "region": "Midi-Pyrenees", "longueur_m": 3490, "aire_ha": 369.7, "seuil_max_m": 3000, "largeur_libre_m": 60, "plan_eau": 345, "rang": 1, "nb_courses": 1}}, {"type": "Feature", "geometry": {"type": "LineString", "coordinates": [[1.83064, 43.8567], [1.82527, 43.86188]]}, "properties": {"nom": "Lac de Marot", "region": "Midi-Pyrenees", "longueur_m": 719, "aire_ha": 10.4, "seuil_max_m": 700, "largeur_libre_m": 60, "plan_eau": 350, "rang": 1, "nb_courses": 1}}, {"type": "Feature", "geometry": {"type": "LineString", "coordinates": [[2.66213, 44.55642], [2.66049, 44.56359]]}, "properties": {"nom": "Lac de Golinhac", "region": "Midi-Pyrenees", "longueur_m": 807, "aire_ha": 110.3, "seuil_max_m": 700, "largeur_libre_m": 60, "plan_eau": 363, "rang": 1, "nb_courses": 1}}, {"type": "Feature", "geometry": {"type": "LineString", "coordinates": [[0.49876, 43.29738], [0.50314, 43.30658]]}, "properties": {"nom": "Lac de Castelnau-Magnoac", "region": "Midi-Pyrenees", "longueur_m": 1082, "aire_ha": 64.3, "seuil_max_m": 1000, "largeur_libre_m": 60, "plan_eau": 374, "rang": 1, "nb_courses": 1}}, {"type": "Feature", "geometry": {"type": "LineString", "coordinates": [[-0.28153, 43.63094], [-0.28062, 43.64132]]}, "properties": {"nom": "Lac de Latrille", "region": "Midi-Pyrenees", "longueur_m": 1156, "aire_ha": 33.5, "seuil_max_m": 1000, "largeur_libre_m": 60, "plan_eau": 379, "rang": 1, "nb_courses": 1}}, {"type": "Feature", "geometry": {"type": "LineString", "coordinates": [[0.50258, 43.60127], [0.49698, 43.60968]]}, "properties": {"nom": "Lac de la Castagnère", "region": "Midi-Pyrenees", "longueur_m": 1039, "aire_ha": 25.9, "seuil_max_m": 1000, "largeur_libre_m": 60, "plan_eau": 400, "rang": 1, "nb_courses": 1}}, {"type": "Feature", "geometry": {"type": "LineString", "coordinates": [[-0.13778, 42.7715], [-0.1489, 42.77161]]}, "properties": {"nom": "Glacier d'Ossoue", "region": "Midi-Pyrenees", "longueur_m": 911, "aire_ha": 25.2, "seuil_max_m": 700, "largeur_libre_m": 60, "plan_eau": 401, "rang": 1, "nb_courses": 1}}, {"type": "Feature", "geometry": {"type": "LineString", "coordinates": [[0.07928, 42.93076], [0.07818, 42.93983]]}, "properties": {"nom": "Lac Bleu", "region": "Midi-Pyrenees", "longueur_m": 1012, "aire_ha": 53.4, "seuil_max_m": 1000, "largeur_libre_m": 60, "plan_eau": 405, "rang": 1, "nb_courses": 1}}, {"type": "Feature", "geometry": {"type": "LineString", "coordinates": [[0.20455, 42.88736], [0.19624, 42.89196]]}, "properties": {"nom": "Lac de Gréziolles", "region": "Midi-Pyrenees", "longueur_m": 851, "aire_ha": 21.9, "seuil_max_m": 700, "largeur_libre_m": 60, "plan_eau": 410, "rang": 1, "nb_courses": 1}}, {"type": "Feature", "geometry": {"type": "LineString", "coordinates": [[0.15433, 42.8393], [0.14479, 42.84583]]}, "properties": {"nom": "Lac d'Aumar", "region": "Midi-Pyrenees", "longueur_m": 1066, "aire_ha": 26.2, "seuil_max_m": 1000, "largeur_libre_m": 60, "plan_eau": 429, "rang": 1, "nb_courses": 1}}, {"type": "Feature", "geometry": {"type": "LineString", "coordinates": [[0.14236, 42.83906], [0.1342, 42.84673]]}, "properties": {"nom": "Lac d'Aubert", "region": "Midi-Pyrenees", "longueur_m": 1083, "aire_ha": 45.2, "seuil_max_m": 1000, "largeur_libre_m": 60, "plan_eau": 430, "rang": 1, "nb_courses": 1}}, {"type": "Feature", "geometry": {"type": "LineString", "coordinates": [[-0.13898, 42.8283], [-0.14067, 42.83453]]}, "properties": {"nom": "Lac de Gaube", "region": "Midi-Pyrenees", "longueur_m": 706, "aire_ha": 18.9, "seuil_max_m": 700, "largeur_libre_m": 60, "plan_eau": 451, "rang": 1, "nb_courses": 1}}, {"type": "Feature", "geometry": {"type": "LineString", "coordinates": [[0.79377, 43.46241], [0.7988, 43.46919]]}, "properties": {"nom": null, "region": "Midi-Pyrenees", "longueur_m": 856, "aire_ha": 18.1, "seuil_max_m": 700, "largeur_libre_m": 60, "plan_eau": 457, "rang": 1, "nb_courses": 1}}, {"type": "Feature", "geometry": {"type": "LineString", "coordinates": [[1.5496, 43.9698], [1.54683, 43.97676]]}, "properties": {"nom": null, "region": "Midi-Pyrenees", "longueur_m": 805, "aire_ha": 18.9, "seuil_max_m": 700, "largeur_libre_m": 60, "plan_eau": 472, "rang": 1, "nb_courses": 1}}, {"type": "Feature", "geometry": {"type": "LineString", "coordinates": [[0.88177, 43.85785], [0.87681, 43.8637]]}, "properties": {"nom": "Lac de Pessoulens", "region": "Midi-Pyrenees", "longueur_m": 763, "aire_ha": 11.0, "seuil_max_m": 700, "largeur_libre_m": 60, "plan_eau": 475, "rang": 1, "nb_courses": 1}}, {"type": "Feature", "geometry": {"type": "LineString", "coordinates": [[1.3458, 43.56655], [1.35616, 43.57527]]}, "properties": {"nom": "Lac de la Ramée", "region": "Midi-Pyrenees", "longueur_m": 1281, "aire_ha": 44.4, "seuil_max_m": 1000, "largeur_libre_m": 60, "plan_eau": 476, "rang": 1, "nb_courses": 1}}, {"type": "Feature", "geometry": {"type": "LineString", "coordinates": [[0.51929, 43.48587], [0.5099, 43.48637]]}, "properties": {"nom": null, "region": "Midi-Pyrenees", "longueur_m": 762, "aire_ha": 13.7, "seuil_max_m": 700, "largeur_libre_m": 60, "plan_eau": 505, "rang": 1, "nb_courses": 1}}, {"type": "Feature", "geometry": {"type": "LineString", "coordinates": [[1.34114, 43.73097], [1.34898, 43.73631]]}, "properties": {"nom": "Lac de Borde Blanque", "region": "Midi-Pyrenees", "longueur_m": 867, "aire_ha": 31.9, "seuil_max_m": 700, "largeur_libre_m": 60, "plan_eau": 506, "rang": 1, "nb_courses": 1}}, {"type": "Feature", "geometry": {"type": "LineString", "coordinates": [[1.33738, 43.75022], [1.34698, 43.75495]]}, "properties": {"nom": null, "region": "Midi-Pyrenees", "longueur_m": 936, "aire_ha": 20.8, "seuil_max_m": 700, "largeur_libre_m": 60, "plan_eau": 508, "rang": 1, "nb_courses": 1}}, {"type": "Feature", "geometry": {"type": "LineString", "coordinates": [[0.19174, 43.21433], [0.19799, 43.23419]]}, "properties": {"nom": "Retenue de l'Arrêt Darré", "region": "Midi-Pyrenees", "longueur_m": 2266, "aire_ha": 107.9, "seuil_max_m": 2000, "largeur_libre_m": 60, "plan_eau": 518, "rang": 1, "nb_courses": 1}}, {"type": "Feature", "geometry": {"type": "LineString", "coordinates": [[2.59402, 44.69831], [2.60492, 44.70801]]}, "properties": {"nom": "Lac de Couesques", "region": "Midi-Pyrenees", "longueur_m": 1381, "aire_ha": 205.7, "seuil_max_m": 1340, "largeur_libre_m": 60, "plan_eau": 526, "rang": 1, "nb_courses": 1}}, {"type": "Feature", "geometry": {"type": "LineString", "coordinates": [[0.30124, 43.26151], [0.29813, 43.26896]]}, "properties": {"nom": null, "region": "Midi-Pyrenees", "longueur_m": 865, "aire_ha": 37.6, "seuil_max_m": 700, "largeur_libre_m": 60, "plan_eau": 529, "rang": 1, "nb_courses": 1}}, {"type": "Feature", "geometry": {"type": "LineString", "coordinates": [[0.42951, 43.96347], [0.42559, 43.9702]]}, "properties": {"nom": "Lac de Bousquètara", "region": "Midi-Pyrenees", "longueur_m": 811, "aire_ha": 21.4, "seuil_max_m": 700, "largeur_libre_m": 60, "plan_eau": 532, "rang": 1, "nb_courses": 1}}, {"type": "Feature", "geometry": {"type": "LineString", "coordinates": [[1.02499, 44.4748], [1.01036, 44.47915]]}, "properties": {"nom": "Le Lot", "region": "Midi-Pyrenees", "longueur_m": 1260, "aire_ha": 278.3, "seuil_max_m": 1000, "largeur_libre_m": 60, "plan_eau": 544, "rang": 1, "nb_courses": 2}}, {"type": "Feature", "geometry": {"type": "LineString", "coordinates": [[1.17893, 44.48873], [1.17615, 44.49713]]}, "properties": {"nom": "Le Lot", "region": "Midi-Pyrenees", "longueur_m": 960, "aire_ha": 278.3, "seuil_max_m": 700, "largeur_libre_m": 60, "plan_eau": 544, "rang": 2, "nb_courses": 2}}, {"type": "Feature", "geometry": {"type": "LineString", "coordinates": [[1.22972, 44.49227], [1.22122, 44.49944]]}, "properties": {"nom": "Le Lot", "region": "Midi-Pyrenees", "longueur_m": 1045, "aire_ha": 150.0, "seuil_max_m": 1000, "largeur_libre_m": 60, "plan_eau": 545, "rang": 1, "nb_courses": 1}}, {"type": "Feature", "geometry": {"type": "LineString", "coordinates": [[0.64188, 43.30848], [0.67521, 43.32941]]}, "properties": {"nom": "Lac de la Gimone", "region": "Midi-Pyrenees", "longueur_m": 3568, "aire_ha": 218.1, "seuil_max_m": 3000, "largeur_libre_m": 60, "plan_eau": 548, "rang": 1, "nb_courses": 1}}, {"type": "Feature", "geometry": {"type": "LineString", "coordinates": [[0.61756, 43.37154], [0.63601, 43.38922]]}, "properties": {"nom": "Lac de l'Astarac", "region": "Midi-Pyrenees", "longueur_m": 2470, "aire_ha": 146.2, "seuil_max_m": 2000, "largeur_libre_m": 60, "plan_eau": 550, "rang": 1, "nb_courses": 1}}, {"type": "Feature", "geometry": {"type": "LineString", "coordinates": [[1.07489, 43.80974], [1.07838, 43.8158]]}, "properties": {"nom": "Retenue de Bouillac-Lagraulet", "region": "Midi-Pyrenees", "longueur_m": 729, "aire_ha": 36.1, "seuil_max_m": 700, "largeur_libre_m": 60, "plan_eau": 560, "rang": 1, "nb_courses": 1}}, {"type": "Feature", "geometry": {"type": "LineString", "coordinates": [[0.40695, 42.80299], [0.40855, 42.80958]]}, "properties": {"nom": "Lac de Génos-Loudenvielle", "region": "Midi-Pyrenees", "longueur_m": 745, "aire_ha": 34.9, "seuil_max_m": 700, "largeur_libre_m": 60, "plan_eau": 575, "rang": 1, "nb_courses": 1}}, {"type": "Feature", "geometry": {"type": "LineString", "coordinates": [[0.45315, 42.71995], [0.44305, 42.72394]]}, "properties": {"nom": "Lac de Caillaouas", "region": "Midi-Pyrenees", "longueur_m": 940, "aire_ha": 45.1, "seuil_max_m": 700, "largeur_libre_m": 60, "plan_eau": 578, "rang": 1, "nb_courses": 1}}, {"type": "Feature", "geometry": {"type": "LineString", "coordinates": [[1.18361, 43.28583], [1.17416, 43.28676]]}, "properties": {"nom": null, "region": "Midi-Pyrenees", "longueur_m": 775, "aire_ha": 35.1, "seuil_max_m": 700, "largeur_libre_m": 60, "plan_eau": 595, "rang": 1, "nb_courses": 1}}, {"type": "Feature", "geometry": {"type": "LineString", "coordinates": [[0.96102, 44.30311], [0.95618, 44.30879]]}, "properties": {"nom": null, "region": "Midi-Pyrenees", "longueur_m": 740, "aire_ha": 15.1, "seuil_max_m": 700, "largeur_libre_m": 60, "plan_eau": 601, "rang": 1, "nb_courses": 1}}, {"type": "Feature", "geometry": {"type": "LineString", "coordinates": [[1.04166, 43.21065], [1.05023, 43.21286]]}, "properties": {"nom": null, "region": "Midi-Pyrenees", "longueur_m": 739, "aire_ha": 20.6, "seuil_max_m": 700, "largeur_libre_m": 60, "plan_eau": 605, "rang": 1, "nb_courses": 1}}, {"type": "Feature", "geometry": {"type": "LineString", "coordinates": [[2.65816, 44.71185], [2.66767, 44.72727]]}, "properties": {"nom": "Réservoir de Montézic", "region": "Midi-Pyrenees", "longueur_m": 1871, "aire_ha": 197.2, "seuil_max_m": 1500, "largeur_libre_m": 60, "plan_eau": 643, "rang": 1, "nb_courses": 1}}, {"type": "Feature", "geometry": {"type": "LineString", "coordinates": [[1.31694, 43.79224], [1.30892, 43.80079]]}, "properties": {"nom": null, "region": "Midi-Pyrenees", "longueur_m": 1149, "aire_ha": 42.8, "seuil_max_m": 1000, "largeur_libre_m": 60, "plan_eau": 661, "rang": 1, "nb_courses": 1}}, {"type": "Feature", "geometry": {"type": "LineString", "coordinates": [[2.58339, 44.66049], [2.57807, 44.66699]]}, "properties": {"nom": null, "region": "Midi-Pyrenees", "longueur_m": 836, "aire_ha": 46.5, "seuil_max_m": 700, "largeur_libre_m": 60, "plan_eau": 673, "rang": 1, "nb_courses": 1}}, {"type": "Feature", "geometry": {"type": "LineString", "coordinates": [[2.33667, 43.46118], [2.34437, 43.46448]]}, "properties": {"nom": "Lac des Montagnès", "region": "Midi-Pyrenees", "longueur_m": 724, "aire_ha": 22.6, "seuil_max_m": 700, "largeur_libre_m": 60, "plan_eau": 676, "rang": 1, "nb_courses": 1}}, {"type": "Feature", "geometry": {"type": "LineString", "coordinates": [[-0.30863, 42.88034], [-0.29968, 42.8883]]}, "properties": {"nom": "Lac de Migouélou", "region": "Midi-Pyrenees", "longueur_m": 1149, "aire_ha": 49.2, "seuil_max_m": 1000, "largeur_libre_m": 60, "plan_eau": 677, "rang": 1, "nb_courses": 1}}, {"type": "Feature", "geometry": {"type": "LineString", "coordinates": [[0.27636, 43.59449], [0.27397, 43.60684]]}, "properties": {"nom": "Lac de la Baradée", "region": "Midi-Pyrenees", "longueur_m": 1386, "aire_ha": 45.7, "seuil_max_m": 1340, "largeur_libre_m": 60, "plan_eau": 689, "rang": 1, "nb_courses": 1}}, {"type": "Feature", "geometry": {"type": "LineString", "coordinates": [[1.42376, 43.4184], [1.4175, 43.4238]]}, "properties": {"nom": null, "region": "Midi-Pyrenees", "longueur_m": 786, "aire_ha": 29.8, "seuil_max_m": 700, "largeur_libre_m": 60, "plan_eau": 690, "rang": 1, "nb_courses": 1}}, {"type": "Feature", "geometry": {"type": "LineString", "coordinates": [[0.23089, 43.59443], [0.23031, 43.60647]]}, "properties": {"nom": "Lac de Saint-Laurent", "region": "Midi-Pyrenees", "longueur_m": 1338, "aire_ha": 35.8, "seuil_max_m": 1000, "largeur_libre_m": 60, "plan_eau": 693, "rang": 1, "nb_courses": 1}}, {"type": "Feature", "geometry": {"type": "LineString", "coordinates": [[0.51343, 42.68935], [0.50245, 42.68951]]}, "properties": {"nom": "Nevero de Molseret", "region": "Midi-Pyrenees", "longueur_m": 901, "aire_ha": 40.5, "seuil_max_m": 700, "largeur_libre_m": 60, "plan_eau": 713, "rang": 1, "nb_courses": 1}}, {"type": "Feature", "geometry": {"type": "LineString", "coordinates": [[2.77099, 44.1796], [2.7708, 44.22617]]}, "properties": {"nom": "Lac de Pareloup", "region": "Midi-Pyrenees", "longueur_m": 5174, "aire_ha": 1161.8, "seuil_max_m": 3000, "largeur_libre_m": 60, "plan_eau": 716, "rang": 1, "nb_courses": 1}}, {"type": "Feature", "geometry": {"type": "LineString", "coordinates": [[2.74823, 44.8482], [2.78772, 44.85124]]}, "properties": {"nom": "Lac du Barrage de Sarrans", "region": "Midi-Pyrenees", "longueur_m": 3138, "aire_ha": 687.0, "seuil_max_m": 3000, "largeur_libre_m": 60, "plan_eau": 723, "rang": 1, "nb_courses": 2}}, {"type": "Feature", "geometry": {"type": "LineString", "coordinates": [[2.87462, 44.87123], [2.85515, 44.8757]]}, "properties": {"nom": "Lac du Barrage de Sarrans", "region": "Midi-Pyrenees", "longueur_m": 1615, "aire_ha": 687.0, "seuil_max_m": 1500, "largeur_libre_m": 60, "plan_eau": 723, "rang": 2, "nb_courses": 2}}, {"type": "Feature", "geometry": {"type": "LineString", "coordinates": [[2.50592, 43.54228], [2.52536, 43.54385]]}, "properties": {"nom": "Lac des Saints-Peyres", "region": "Midi-Pyrenees", "longueur_m": 1581, "aire_ha": 178.6, "seuil_max_m": 1500, "largeur_libre_m": 60, "plan_eau": 729, "rang": 1, "nb_courses": 1}}, {"type": "Feature", "geometry": {"type": "LineString", "coordinates": [[1.79761, 43.08174], [1.80778, 43.08264]]}, "properties": {"nom": null, "region": "Midi-Pyrenees", "longueur_m": 835, "aire_ha": 27.3, "seuil_max_m": 700, "largeur_libre_m": 60, "plan_eau": 734, "rang": 1, "nb_courses": 1}}, {"type": "Feature", "geometry": {"type": "LineString", "coordinates": [[2.22802, 43.40343], [2.23254, 43.41393]]}, "properties": {"nom": "Lac de la Galaube", "region": "Midi-Pyrenees", "longueur_m": 1223, "aire_ha": 63.5, "seuil_max_m": 1000, "largeur_libre_m": 60, "plan_eau": 736, "rang": 1, "nb_courses": 1}}, {"type": "Feature", "geometry": {"type": "LineString", "coordinates": [[1.30651, 42.70502], [1.29762, 42.71364]]}, "properties": {"nom": "Estany de Certascan", "region": "Midi-Pyrenees", "longueur_m": 1204, "aire_ha": 61.5, "seuil_max_m": 1000, "largeur_libre_m": 60, "plan_eau": 744, "rang": 1, "nb_courses": 1}}, {"type": "Feature", "geometry": {"type": "LineString", "coordinates": [[1.32304, 44.48931], [1.32751, 44.49594]]}, "properties": {"nom": null, "region": "Midi-Pyrenees", "longueur_m": 818, "aire_ha": 186.6, "seuil_max_m": 700, "largeur_libre_m": 60, "plan_eau": 747, "rang": 1, "nb_courses": 1}}, {"type": "Feature", "geometry": {"type": "LineString", "coordinates": [[1.53106, 42.68316], [1.52923, 42.70215]]}, "properties": {"nom": "Étang de Gnioure", "region": "Midi-Pyrenees", "longueur_m": 2118, "aire_ha": 83.5, "seuil_max_m": 2000, "largeur_libre_m": 60, "plan_eau": 750, "rang": 1, "nb_courses": 1}}, {"type": "Feature", "geometry": {"type": "LineString", "coordinates": [[0.10297, 43.68039], [0.09481, 43.68534]]}, "properties": {"nom": null, "region": "Midi-Pyrenees", "longueur_m": 858, "aire_ha": 17.4, "seuil_max_m": 700, "largeur_libre_m": 60, "plan_eau": 765, "rang": 1, "nb_courses": 1}}, {"type": "Feature", "geometry": {"type": "LineString", "coordinates": [[0.10424, 43.60021], [0.10494, 43.60764]]}, "properties": {"nom": "Lac de Maribot", "region": "Midi-Pyrenees", "longueur_m": 828, "aire_ha": 21.7, "seuil_max_m": 700, "largeur_libre_m": 60, "plan_eau": 766, "rang": 1, "nb_courses": 1}}, {"type": "Feature", "geometry": {"type": "LineString", "coordinates": [[1.3913, 43.69548], [1.38843, 43.7044]]}, "properties": {"nom": "Lac du Bocage", "region": "Midi-Pyrenees", "longueur_m": 1018, "aire_ha": 31.7, "seuil_max_m": 1000, "largeur_libre_m": 60, "plan_eau": 767, "rang": 1, "nb_courses": 1}}, {"type": "Feature", "geometry": {"type": "LineString", "coordinates": [[1.26847, 43.45359], [1.27641, 43.45904]]}, "properties": {"nom": "Lac des Bonnets", "region": "Midi-Pyrenees", "longueur_m": 883, "aire_ha": 10.6, "seuil_max_m": 700, "largeur_libre_m": 60, "plan_eau": 769, "rang": 1, "nb_courses": 1}}, {"type": "Feature", "geometry": {"type": "LineString", "coordinates": [[1.60569, 43.21263], [1.60425, 43.22119]]}, "properties": {"nom": null, "region": "Midi-Pyrenees", "longueur_m": 959, "aire_ha": 23.4, "seuil_max_m": 700, "largeur_libre_m": 60, "plan_eau": 775, "rang": 1, "nb_courses": 1}}]}