{"type": "FeatureCollection", "metadata": {"region": "Ile-de-France", "source": "OpenStreetMap via Geofabrik", "methode": "recollage des polygones contigus, erosion de W/2, toutes les cordes inscrites dont les milieux sont ecartes d'au moins ECART_MIN_M", "largeur_libre_m": 60, "ecart_min_m": 5000, "plusieurs_courses": "Un plan d'eau peut porter plusieurs courses : plan_eau les relie, rang 1 est la plus longue. aire_ha vaut pour l'etendue entiere et se repete sur chaque course ; pour totaliser une surface, ne sommer que les rang 1.", "avertissement": "profondeur, obstacles et degagement d'approche NON pris en compte : borne haute de candidats"}, "features": [{"type": "Feature", "geometry": {"type": "LineString", "coordinates": [[1.52653, 49.06299], [1.50102, 49.08775]]}, "properties": {"nom": "La Seine", "region": "Ile-de-France", "longueur_m": 3326, "aire_ha": 6765.0, "seuil_max_m": 3000, "largeur_libre_m": 60, "plan_eau": 2, "rang": 1, "nb_courses": 33}}, {"type": "Feature", "geometry": {"type": "LineString", "coordinates": [[1.78248, 48.96617], [1.74813, 48.96819]]}, "properties": {"nom": "La Seine", "region": "Ile-de-France", "longueur_m": 2525, "aire_ha": 6765.0, "seuil_max_m": 2000, "largeur_libre_m": 60, "plan_eau": 2, "rang": 2, "nb_courses": 33}}, {"type": "Feature", "geometry": {"type": "LineString", "coordinates": [[1.99905, 48.98276], [1.97339, 48.99758]]}, "properties": {"nom": "La Seine", "region": "Ile-de-France", "longueur_m": 2498, "aire_ha": 6765.0, "seuil_max_m": 2000, "largeur_libre_m": 60, "plan_eau": 2, "rang": 3, "nb_courses": 33}}, {"type": "Feature", "geometry": {"type": "LineString", "coordinates": [[1.67475, 49.00927], [1.70548, 49.00961]]}, "properties": {"nom": "La Seine", "region": "Ile-de-France", "longueur_m": 2248, "aire_ha": 6765.0, "seuil_max_m": 2000, "largeur_libre_m": 60, "plan_eau": 2, "rang": 4, "nb_courses": 33}}, {"type": "Feature", "geometry": {"type": "LineString", "coordinates": [[2.07002, 48.98638], [2.09636, 48.99124]]}, "properties": {"nom": "La Seine", "region": "Ile-de-France", "longueur_m": 2003, "aire_ha": 6765.0, "seuil_max_m": 2000, "largeur_libre_m": 60, "plan_eau": 2, "rang": 5, "nb_courses": 33}}, {"type": "Feature", "geometry": {"type": "LineString", "coordinates": [[1.43615, 49.12945], [1.41776, 49.14232]]}, "properties": {"nom": "La Seine", "region": "Ile-de-France", "longueur_m": 1962, "aire_ha": 6765.0, "seuil_max_m": 1500, "largeur_libre_m": 60, "plan_eau": 2, "rang": 6, "nb_courses": 33}}, {"type": "Feature", "geometry": {"type": "LineString", "coordinates": [[1.67976, 49.07398], [1.65463, 49.07904]]}, "properties": {"nom": "La Seine", "region": "Ile-de-France", "longueur_m": 1921, "aire_ha": 6765.0, "seuil_max_m": 1500, "largeur_libre_m": 60, "plan_eau": 2, "rang": 7, "nb_courses": 33}}, {"type": "Feature", "geometry": {"type": "LineString", "coordinates": [[2.37547, 48.83794], [2.35933, 48.84958]]}, "properties": {"nom": "La Seine", "region": "Ile-de-France", "longueur_m": 1755, "aire_ha": 6765.0, "seuil_max_m": 1500, "largeur_libre_m": 60, "plan_eau": 2, "rang": 8, "nb_courses": 33}}, {"type": "Feature", "geometry": {"type": "LineString", "coordinates": [[2.66966, 48.50984], [2.67081, 48.5256]]}, "properties": {"nom": "La Seine", "region": "Ile-de-France", "longueur_m": 1753, "aire_ha": 6765.0, "seuil_max_m": 1500, "largeur_libre_m": 60, "plan_eau": 2, "rang": 9, "nb_courses": 33}}, {"type": "Feature", "geometry": {"type": "LineString", "coordinates": [[1.58235, 49.04374], [1.59995, 49.05345]]}, "properties": {"nom": "La Seine", "region": "Ile-de-France", "longueur_m": 1679, "aire_ha": 6765.0, "seuil_max_m": 1500, "largeur_libre_m": 60, "plan_eau": 2, "rang": 10, "nb_courses": 33}}, {"type": "Feature", "geometry": {"type": "LineString", "coordinates": [[2.15753, 48.94475], [2.17516, 48.95436]]}, "properties": {"nom": "La Seine", "region": "Ile-de-France", "longueur_m": 1676, "aire_ha": 6765.0, "seuil_max_m": 1500, "largeur_libre_m": 60, "plan_eau": 2, "rang": 11, "nb_courses": 33}}, {"type": "Feature", "geometry": {"type": "LineString", "coordinates": [[2.25697, 48.94211], [2.27682, 48.94892]]}, "properties": {"nom": "La Seine", "region": "Ile-de-France", "longueur_m": 1639, "aire_ha": 6765.0, "seuil_max_m": 1500, "largeur_libre_m": 60, "plan_eau": 2, "rang": 12, "nb_courses": 33}}, {"type": "Feature", "geometry": {"type": "LineString", "coordinates": [[2.42896, 48.65335], [2.41373, 48.66231]]}, "properties": {"nom": "La Seine", "region": "Ile-de-France", "longueur_m": 1500, "aire_ha": 6765.0, "seuil_max_m": 1340, "largeur_libre_m": 60, "plan_eau": 2, "rang": 13, "nb_courses": 33}}, {"type": "Feature", "geometry": {"type": "LineString", "coordinates": [[1.88424, 48.99503], [1.90392, 48.9987]]}, "properties": {"nom": "La Seine", "region": "Ile-de-France", "longueur_m": 1496, "aire_ha": 6765.0, "seuil_max_m": 1340, "largeur_libre_m": 60, "plan_eau": 2, "rang": 14, "nb_courses": 33}}, {"type": "Feature", "geometry": {"type": "LineString", "coordinates": [[2.42219, 48.79448], [2.40974, 48.80449]]}, "properties": {"nom": "La Seine", "region": "Ile-de-France", "longueur_m": 1441, "aire_ha": 6765.0, "seuil_max_m": 1340, "largeur_libre_m": 60, "plan_eau": 2, "rang": 15, "nb_courses": 33}}, {"type": "Feature", "geometry": {"type": "LineString", "coordinates": [[2.77115, 48.47182], [2.76204, 48.48224]]}, "properties": {"nom": "La Seine", "region": "Ile-de-France", "longueur_m": 1339, "aire_ha": 6765.0, "seuil_max_m": 1000, "largeur_libre_m": 60, "plan_eau": 2, "rang": 16, "nb_courses": 33}}, {"type": "Feature", "geometry": {"type": "LineString", "coordinates": [[2.22232, 48.83812], [2.2265, 48.84885]]}, "properties": {"nom": "La Seine", "region": "Ile-de-France", "longueur_m": 1232, "aire_ha": 6765.0, "seuil_max_m": 1000, "largeur_libre_m": 60, "plan_eau": 2, "rang": 17, "nb_courses": 33}}, {"type": "Feature", "geometry": {"type": "LineString", "coordinates": [[2.36347, 49.15518], [2.36506, 49.16597]]}, "properties": {"nom": "La Seine", "region": "Ile-de-France", "longueur_m": 1206, "aire_ha": 6765.0, "seuil_max_m": 1000, "largeur_libre_m": 60, "plan_eau": 2, "rang": 18, "nb_courses": 33}}, {"type": "Feature", "geometry": {"type": "LineString", "coordinates": [[2.93696, 48.38827], [2.95291, 48.38939]]}, "properties": {"nom": "La Seine", "region": "Ile-de-France", "longueur_m": 1188, "aire_ha": 6765.0, "seuil_max_m": 1000, "largeur_libre_m": 60, "plan_eau": 2, "rang": 19, "nb_courses": 33}}, {"type": "Feature", "geometry": {"type": "LineString", "coordinates": [[2.49507, 48.56691], [2.50985, 48.5696]]}, "properties": {"nom": "La Seine", "region": "Ile-de-France", "longueur_m": 1131, "aire_ha": 6765.0, "seuil_max_m": 1000, "largeur_libre_m": 60, "plan_eau": 2, "rang": 20, "nb_courses": 33}}, {"type": "Feature", "geometry": {"type": "LineString", "coordinates": [[2.47674, 48.62023], [2.46746, 48.62771]]}, "properties": {"nom": "La Seine", "region": "Ile-de-France", "longueur_m": 1077, "aire_ha": 6765.0, "seuil_max_m": 1000, "largeur_libre_m": 60, "plan_eau": 2, "rang": 21, "nb_courses": 33}}, {"type": "Feature", "geometry": {"type": "LineString", "coordinates": [[2.01032, 48.93271], [2.00298, 48.94084]]}, "properties": {"nom": "La Seine", "region": "Ile-de-France", "longueur_m": 1052, "aire_ha": 6765.0, "seuil_max_m": 1000, "largeur_libre_m": 60, "plan_eau": 2, "rang": 22, "nb_courses": 33}}, {"type": "Feature", "geometry": {"type": "LineString", "coordinates": [[2.74528, 48.42847], [2.74597, 48.43779]]}, "properties": {"nom": "La Seine", "region": "Ile-de-France", "longueur_m": 1037, "aire_ha": 6765.0, "seuil_max_m": 1000, "largeur_libre_m": 60, "plan_eau": 2, "rang": 23, "nb_courses": 33}}, {"type": "Feature", "geometry": {"type": "LineString", "coordinates": [[2.17659, 48.90367], [2.18993, 48.90613]]}, "properties": {"nom": "La Seine", "region": "Ile-de-France", "longueur_m": 1015, "aire_ha": 6765.0, "seuil_max_m": 1000, "largeur_libre_m": 60, "plan_eau": 2, "rang": 24, "nb_courses": 33}}, {"type": "Feature", "geometry": {"type": "LineString", "coordinates": [[2.44328, 48.72642], [2.44532, 48.73535]]}, "properties": {"nom": "La Seine", "region": "Ile-de-France", "longueur_m": 1004, "aire_ha": 6765.0, "seuil_max_m": 1000, "largeur_libre_m": 60, "plan_eau": 2, "rang": 25, "nb_courses": 33}}, {"type": "Feature", "geometry": {"type": "LineString", "coordinates": [[3.38743, 48.46104], [3.39615, 48.46742]]}, "properties": {"nom": "La Seine", "region": "Ile-de-France", "longueur_m": 958, "aire_ha": 6765.0, "seuil_max_m": 700, "largeur_libre_m": 60, "plan_eau": 2, "rang": 26, "nb_courses": 33}}, {"type": "Feature", "geometry": {"type": "LineString", "coordinates": [[2.84077, 48.3848], [2.83082, 48.38959]]}, "properties": {"nom": "La Seine", "region": "Ile-de-France", "longueur_m": 909, "aire_ha": 6765.0, "seuil_max_m": 700, "largeur_libre_m": 60, "plan_eau": 2, "rang": 27, "nb_courses": 33}}, {"type": "Feature", "geometry": {"type": "LineString", "coordinates": [[3.05982, 48.3572], [3.07199, 48.35804]]}, "properties": {"nom": "La Seine", "region": "Ile-de-France", "longueur_m": 906, "aire_ha": 6765.0, "seuil_max_m": 700, "largeur_libre_m": 60, "plan_eau": 2, "rang": 28, "nb_courses": 33}}, {"type": "Feature", "geometry": {"type": "LineString", "coordinates": [[2.59593, 48.51605], [2.58726, 48.52067]]}, "properties": {"nom": "La Seine", "region": "Ile-de-France", "longueur_m": 821, "aire_ha": 6765.0, "seuil_max_m": 700, "largeur_libre_m": 60, "plan_eau": 2, "rang": 29, "nb_courses": 33}}, {"type": "Feature", "geometry": {"type": "LineString", "coordinates": [[2.11729, 48.87993], [2.11229, 48.88624]]}, "properties": {"nom": "La Seine", "region": "Ile-de-France", "longueur_m": 791, "aire_ha": 6765.0, "seuil_max_m": 700, "largeur_libre_m": 60, "plan_eau": 2, "rang": 30, "nb_courses": 33}}, {"type": "Feature", "geometry": {"type": "LineString", "coordinates": [[2.64756, 48.8648], [2.65382, 48.87055]]}, "properties": {"nom": "La Seine", "region": "Ile-de-France", "longueur_m": 787, "aire_ha": 6765.0, "seuil_max_m": 700, "largeur_libre_m": 60, "plan_eau": 2, "rang": 31, "nb_courses": 33}}, {"type": "Feature", "geometry": {"type": "LineString", "coordinates": [[2.11015, 49.05226], [2.1169, 49.0573]]}, "properties": {"nom": "La Seine", "region": "Ile-de-France", "longueur_m": 746, "aire_ha": 6765.0, "seuil_max_m": 700, "largeur_libre_m": 60, "plan_eau": 2, "rang": 32, "nb_courses": 33}}, {"type": "Feature", "geometry": {"type": "LineString", "coordinates": [[2.21407, 49.12107], [2.21995, 49.1265]]}, "properties": {"nom": "La Seine", "region": "Ile-de-France", "longueur_m": 741, "aire_ha": 6765.0, "seuil_max_m": 700, "largeur_libre_m": 60, "plan_eau": 2, "rang": 33, "nb_courses": 33}}, {"type": "Feature", "geometry": {"type": "LineString", "coordinates": [[2.17607, 48.73998], [2.16541, 48.7426]]}, "properties": {"nom": "Étang de Saclay", "region": "Ile-de-France", "longueur_m": 836, "aire_ha": 27.8, "seuil_max_m": 700, "largeur_libre_m": 60, "plan_eau": 6, "rang": 1, "nb_courses": 1}}, {"type": "Feature", "geometry": {"type": "LineString", "coordinates": [[2.15412, 48.74134], [2.16439, 48.74363]]}, "properties": {"nom": "Étang Vieux", "region": "Ile-de-France", "longueur_m": 797, "aire_ha": 30.9, "seuil_max_m": 700, "largeur_libre_m": 60, "plan_eau": 7, "rang": 1, "nb_courses": 1}}, {"type": "Feature", "geometry": {"type": "LineString", "coordinates": [[2.3913, 48.66421], [2.38515, 48.67206]]}, "properties": {"nom": "Étang de la Justice", "region": "Ile-de-France", "longueur_m": 984, "aire_ha": 94.4, "seuil_max_m": 700, "largeur_libre_m": 60, "plan_eau": 11, "rang": 1, "nb_courses": 1}}, {"type": "Feature", "geometry": {"type": "LineString", "coordinates": [[2.6363, 48.85966], [2.60788, 48.86676]]}, "properties": {"nom": "Bassin de Champfleuri", "region": "Ile-de-France", "longueur_m": 2229, "aire_ha": 89.7, "seuil_max_m": 2000, "largeur_libre_m": 60, "plan_eau": 14, "rang": 1, "nb_courses": 1}}, {"type": "Feature", "geometry": {"type": "LineString", "coordinates": [[2.05926, 48.77745], [2.05022, 48.77966]]}, "properties": {"nom": "Étang des Roussières", "region": "Ile-de-France", "longueur_m": 708, "aire_ha": 12.0, "seuil_max_m": 700, "largeur_libre_m": 60, "plan_eau": 16, "rang": 1, "nb_courses": 1}}, {"type": "Feature", "geometry": {"type": "LineString", "coordinates": [[2.7194, 48.90525], [2.72605, 48.91892]]}, "properties": {"nom": "Grand Lac", "region": "Ile-de-France", "longueur_m": 1596, "aire_ha": 75.4, "seuil_max_m": 1500, "largeur_libre_m": 60, "plan_eau": 18, "rang": 1, "nb_courses": 1}}, {"type": "Feature", "geometry": {"type": "LineString", "coordinates": [[2.73247, 48.90556], [2.73722, 48.91103]]}, "properties": {"nom": "Lac Sud", "region": "Ile-de-France", "longueur_m": 701, "aire_ha": 24.5, "seuil_max_m": 700, "largeur_libre_m": 60, "plan_eau": 20, "rang": 1, "nb_courses": 1}}, {"type": "Feature", "geometry": {"type": "LineString", "coordinates": [[2.42912, 48.75574], [2.42783, 48.77008]]}, "properties": {"nom": null, "region": "Ile-de-France", "longueur_m": 1598, "aire_ha": 28.0, "seuil_max_m": 1500, "largeur_libre_m": 60, "plan_eau": 34, "rang": 1, "nb_courses": 1}}, {"type": "Feature", "geometry": {"type": "LineString", "coordinates": [[2.83626, 48.9023], [2.8448, 48.90739]]}, "properties": {"nom": null, "region": "Ile-de-France", "longueur_m": 844, "aire_ha": 40.4, "seuil_max_m": 700, "largeur_libre_m": 60, "plan_eau": 50, "rang": 1, "nb_courses": 1}}, {"type": "Feature", "geometry": {"type": "LineString", "coordinates": [[2.6525, 48.86291], [2.6569, 48.86867]]}, "properties": {"nom": null, "region": "Ile-de-France", "longueur_m": 717, "aire_ha": 24.4, "seuil_max_m": 700, "largeur_libre_m": 60, "plan_eau": 66, "rang": 1, "nb_courses": 1}}, {"type": "Feature", "geometry": {"type": "LineString", "coordinates": [[2.9004, 48.37075], [2.88871, 48.37524]]}, "properties": {"nom": null, "region": "Ile-de-France", "longueur_m": 999, "aire_ha": 48.7, "seuil_max_m": 700, "largeur_libre_m": 60, "plan_eau": 69, "rang": 1, "nb_courses": 1}}, {"type": "Feature", "geometry": {"type": "LineString", "coordinates": [[3.00896, 48.36605], [3.00772, 48.37395]]}, "properties": {"nom": null, "region": "Ile-de-France", "longueur_m": 882, "aire_ha": 40.8, "seuil_max_m": 700, "largeur_libre_m": 60, "plan_eau": 72, "rang": 1, "nb_courses": 1}}, {"type": "Feature", "geometry": {"type": "LineString", "coordinates": [[3.02126, 48.36418], [3.01913, 48.37315]]}, "properties": {"nom": null, "region": "Ile-de-France", "longueur_m": 1010, "aire_ha": 44.0, "seuil_max_m": 1000, "largeur_libre_m": 60, "plan_eau": 73, "rang": 1, "nb_courses": 1}}, {"type": "Feature", "geometry": {"type": "LineString", "coordinates": [[2.01921, 48.93267], [2.02958, 48.93421]]}, "properties": {"nom": "Étang de la Galiotte", "region": "Ile-de-France", "longueur_m": 779, "aire_ha": 20.9, "seuil_max_m": 700, "largeur_libre_m": 60, "plan_eau": 76, "rang": 1, "nb_courses": 1}}, {"type": "Feature", "geometry": {"type": "LineString", "coordinates": [[1.97034, 48.99083], [1.96312, 48.99986]]}, "properties": {"nom": "Étang de la Grosse-Pierre", "region": "Ile-de-France", "longueur_m": 1135, "aire_ha": 45.4, "seuil_max_m": 1000, "largeur_libre_m": 60, "plan_eau": 85, "rang": 1, "nb_courses": 1}}, {"type": "Feature", "geometry": {"type": "LineString", "coordinates": [[1.99099, 48.98303], [1.97786, 48.98985]]}, "properties": {"nom": "Étang de Gallardon", "region": "Ile-de-France", "longueur_m": 1224, "aire_ha": 49.7, "seuil_max_m": 1000, "largeur_libre_m": 60, "plan_eau": 86, "rang": 1, "nb_courses": 1}}, {"type": "Feature", "geometry": {"type": "LineString", "coordinates": [[3.19431, 48.98687], [3.18257, 48.99316]]}, "properties": {"nom": null, "region": "Ile-de-France", "longueur_m": 1108, "aire_ha": 56.8, "seuil_max_m": 1000, "largeur_libre_m": 60, "plan_eau": 87, "rang": 1, "nb_courses": 1}}, {"type": "Feature", "geometry": {"type": "LineString", "coordinates": [[2.91019, 48.36209], [2.92395, 48.36456]]}, "properties": {"nom": null, "region": "Ile-de-France", "longueur_m": 1055, "aire_ha": 59.9, "seuil_max_m": 1000, "largeur_libre_m": 60, "plan_eau": 89, "rang": 1, "nb_courses": 1}}, {"type": "Feature", "geometry": {"type": "LineString", "coordinates": [[3.14203, 48.41177], [3.10206, 48.41461]]}, "properties": {"nom": "Casier Pilote de Seine-Bassée", "region": "Ile-de-France", "longueur_m": 2974, "aire_ha": 357.5, "seuil_max_m": 2000, "largeur_libre_m": 60, "plan_eau": 100, "rang": 1, "nb_courses": 1}}, {"type": "Feature", "geometry": {"type": "LineString", "coordinates": [[2.98843, 48.36995], [2.99706, 48.3757]]}, "properties": {"nom": null, "region": "Ile-de-France", "longueur_m": 904, "aire_ha": 54.5, "seuil_max_m": 700, "largeur_libre_m": 60, "plan_eau": 104, "rang": 1, "nb_courses": 1}}, {"type": "Feature", "geometry": {"type": "LineString", "coordinates": [[1.82363, 48.97166], [1.83199, 48.97579]]}, "properties": {"nom": "L'Hérubé", "region": "Ile-de-France", "longueur_m": 765, "aire_ha": 28.7, "seuil_max_m": 700, "largeur_libre_m": 60, "plan_eau": 111, "rang": 1, "nb_courses": 1}}, {"type": "Feature", "geometry": {"type": "LineString", "coordinates": [[1.88472, 48.65722], [1.87666, 48.66058]]}, "properties": {"nom": "Étang de la Tour", "region": "Ile-de-France", "longueur_m": 701, "aire_ha": 17.2, "seuil_max_m": 700, "largeur_libre_m": 60, "plan_eau": 112, "rang": 1, "nb_courses": 1}}, {"type": "Feature", "geometry": {"type": "LineString", "coordinates": [[3.0466, 48.36702], [3.03198, 48.36857]]}, "properties": {"nom": null, "region": "Ile-de-France", "longueur_m": 1096, "aire_ha": 39.6, "seuil_max_m": 1000, "largeur_libre_m": 60, "plan_eau": 114, "rang": 1, "nb_courses": 1}}, {"type": "Feature", "geometry": {"type": "LineString", "coordinates": [[2.20286, 48.58096], [2.21215, 48.5834]]}, "properties": {"nom": "Étang de Trevoix", "region": "Ile-de-France", "longueur_m": 737, "aire_ha": 26.5, "seuil_max_m": 700, "largeur_libre_m": 60, "plan_eau": 122, "rang": 1, "nb_courses": 1}}, {"type": "Feature", "geometry": {"type": "LineString", "coordinates": [[2.93098, 48.53467], [2.92736, 48.54091]]}, "properties": {"nom": "Étangs de Villefermoy", "region": "Ile-de-France", "longueur_m": 744, "aire_ha": 20.9, "seuil_max_m": 700, "largeur_libre_m": 60, "plan_eau": 126, "rang": 1, "nb_courses": 1}}, {"type": "Feature", "geometry": {"type": "LineString", "coordinates": [[1.70622, 49.25869], [1.70396, 49.26714]]}, "properties": {"nom": null, "region": "Ile-de-France", "longueur_m": 954, "aire_ha": 35.3, "seuil_max_m": 700, "largeur_libre_m": 60, "plan_eau": 128, "rang": 1, "nb_courses": 1}}, {"type": "Feature", "geometry": {"type": "LineString", "coordinates": [[2.36936, 48.53936], [2.37142, 48.54608]]}, "properties": {"nom": "L'Étang à Chat", "region": "Ile-de-France", "longueur_m": 762, "aire_ha": 14.5, "seuil_max_m": 700, "largeur_libre_m": 60, "plan_eau": 147, "rang": 1, "nb_courses": 1}}, {"type": "Feature", "geometry": {"type": "LineString", "coordinates": [[2.97529, 48.99411], [2.96693, 48.99768]]}, "properties": {"nom": "Étang de Pierre Lorraine", "region": "Ile-de-France", "longueur_m": 729, "aire_ha": 28.9, "seuil_max_m": 700, "largeur_libre_m": 60, "plan_eau": 168, "rang": 1, "nb_courses": 1}}, {"type": "Feature", "geometry": {"type": "LineString", "coordinates": [[2.78139, 48.94072], [2.79375, 48.94603]]}, "properties": {"nom": null, "region": "Ile-de-France", "longueur_m": 1081, "aire_ha": 79.1, "seuil_max_m": 1000, "largeur_libre_m": 60, "plan_eau": 188, "rang": 1, "nb_courses": 1}}, {"type": "Feature", "geometry": {"type": "LineString", "coordinates": [[3.16999, 48.98631], [3.17988, 48.98879]]}, "properties": {"nom": null, "region": "Ile-de-France", "longueur_m": 775, "aire_ha": 21.0, "seuil_max_m": 700, "largeur_libre_m": 60, "plan_eau": 201, "rang": 1, "nb_courses": 1}}, {"type": "Feature", "geometry": {"type": "LineString", "coordinates": [[3.36436, 48.46709], [3.37364, 48.47062]]}, "properties": {"nom": null, "region": "Ile-de-France", "longueur_m": 790, "aire_ha": 7.5, "seuil_max_m": 700, "largeur_libre_m": 60, "plan_eau": 209, "rang": 1, "nb_courses": 1}}, {"type": "Feature", "geometry": {"type": "LineString", "coordinates": [[3.40554, 48.48324], [3.41706, 48.4876]]}, "properties": {"nom": null, "region": "Ile-de-France", "longueur_m": 979, "aire_ha": 11.6, "seuil_max_m": 700, "largeur_libre_m": 60, "plan_eau": 212, "rang": 1, "nb_courses": 1}}, {"type": "Feature", "geometry": {"type": "LineString", "coordinates": [[1.66625, 49.04911], [1.69031, 49.061]]}, "properties": {"nom": "Lac de Moisson-Lavacourt", "region": "Ile-de-France", "longueur_m": 2201, "aire_ha": 109.6, "seuil_max_m": 2000, "largeur_libre_m": 60, "plan_eau": 216, "rang": 1, "nb_courses": 1}}, {"type": "Feature", "geometry": {"type": "LineString", "coordinates": [[2.89879, 48.35964], [2.90827, 48.35997]]}, "properties": {"nom": null, "region": "Ile-de-France", "longueur_m": 703, "aire_ha": 27.1, "seuil_max_m": 700, "largeur_libre_m": 60, "plan_eau": 222, "rang": 1, "nb_courses": 1}}, {"type": "Feature", "geometry": {"type": "LineString", "coordinates": [[2.75237, 48.15571], [2.74259, 48.16375]]}, "properties": {"nom": null, "region": "Ile-de-France", "longueur_m": 1152, "aire_ha": 44.7, "seuil_max_m": 1000, "largeur_libre_m": 60, "plan_eau": 233, "rang": 1, "nb_courses": 1}}, {"type": "Feature", "geometry": {"type": "LineString", "coordinates": [[3.14429, 48.41542], [3.13911, 48.42075]]}, "properties": {"nom": null, "region": "Ile-de-France", "longueur_m": 706, "aire_ha": 39.0, "seuil_max_m": 700, "largeur_libre_m": 60, "plan_eau": 246, "rang": 1, "nb_courses": 1}}, {"type": "Feature", "geometry": {"type": "LineString", "coordinates": [[3.30411, 48.43983], [3.30345, 48.44894]]}, "properties": {"nom": null, "region": "Ile-de-France", "longueur_m": 1014, "aire_ha": 36.0, "seuil_max_m": 1000, "largeur_libre_m": 60, "plan_eau": 249, "rang": 1, "nb_courses": 1}}, {"type": "Feature", "geometry": {"type": "LineString", "coordinates": [[2.00518, 48.95105], [2.00834, 48.95922]]}, "properties": {"nom": "Étang des Grésillons", "region": "Ile-de-France", "longueur_m": 938, "aire_ha": 33.5, "seuil_max_m": 700, "largeur_libre_m": 60, "plan_eau": 253, "rang": 1, "nb_courses": 1}}, {"type": "Feature", "geometry": {"type": "LineString", "coordinates": [[3.19906, 48.41705], [3.20931, 48.42097]]}, "properties": {"nom": null, "region": "Ile-de-France", "longueur_m": 875, "aire_ha": 32.6, "seuil_max_m": 700, "largeur_libre_m": 60, "plan_eau": 275, "rang": 1, "nb_courses": 1}}, {"type": "Feature", "geometry": {"type": "LineString", "coordinates": [[3.29752, 48.44426], [3.30189, 48.44992]]}, "properties": {"nom": null, "region": "Ile-de-France", "longueur_m": 707, "aire_ha": 25.1, "seuil_max_m": 700, "largeur_libre_m": 60, "plan_eau": 284, "rang": 1, "nb_courses": 1}}, {"type": "Feature", "geometry": {"type": "LineString", "coordinates": [[3.17552, 48.41774], [3.1851, 48.42288]]}, "properties": {"nom": null, "region": "Ile-de-France", "longueur_m": 910, "aire_ha": 35.1, "seuil_max_m": 700, "largeur_libre_m": 60, "plan_eau": 291, "rang": 1, "nb_courses": 1}}, {"type": "Feature", "geometry": {"type": "LineString", "coordinates": [[3.0176, 48.97215], [3.02828, 48.97251]]}, "properties": {"nom": null, "region": "Ile-de-France", "longueur_m": 783, "aire_ha": 20.1, "seuil_max_m": 700, "largeur_libre_m": 60, "plan_eau": 298, "rang": 1, "nb_courses": 1}}, {"type": "Feature", "geometry": {"type": "LineString", "coordinates": [[2.74328, 48.75211], [2.73423, 48.76239]]}, "properties": {"nom": "Étang d'Armainvilliers", "region": "Ile-de-France", "longueur_m": 1322, "aire_ha": 71.2, "seuil_max_m": 1000, "largeur_libre_m": 60, "plan_eau": 306, "rang": 1, "nb_courses": 1}}, {"type": "Feature", "geometry": {"type": "LineString", "coordinates": [[2.98447, 48.99302], [2.99714, 48.99844]]}, "properties": {"nom": "Étang des Pâtis", "region": "Ile-de-France", "longueur_m": 1105, "aire_ha": 33.5, "seuil_max_m": 1000, "largeur_libre_m": 60, "plan_eau": 315, "rang": 1, "nb_courses": 1}}, {"type": "Feature", "geometry": {"type": "LineString", "coordinates": [[2.41932, 48.70949], [2.43028, 48.71278]]}, "properties": {"nom": "Fosse Montalbot", "region": "Ile-de-France", "longueur_m": 885, "aire_ha": 23.3, "seuil_max_m": 700, "largeur_libre_m": 60, "plan_eau": 318, "rang": 1, "nb_courses": 1}}, {"type": "Feature", "geometry": {"type": "LineString", "coordinates": [[3.33665, 48.46416], [3.3269, 48.46668]]}, "properties": {"nom": null, "region": "Ile-de-France", "longueur_m": 773, "aire_ha": 31.1, "seuil_max_m": 700, "largeur_libre_m": 60, "plan_eau": 337, "rang": 1, "nb_courses": 1}}, {"type": "Feature", "geometry": {"type": "LineString", "coordinates": [[1.85768, 48.71064], [1.8438, 48.71296]]}, "properties": {"nom": "Étang de Saint-Hubert", "region": "Ile-de-France", "longueur_m": 1053, "aire_ha": 32.8, "seuil_max_m": 1000, "largeur_libre_m": 60, "plan_eau": 345, "rang": 1, "nb_courses": 1}}, {"type": "Feature", "geometry": {"type": "LineString", "coordinates": [[1.61655, 49.06834], [1.62571, 49.07396]]}, "properties": {"nom": null, "region": "Ile-de-France", "longueur_m": 915, "aire_ha": 13.1, "seuil_max_m": 700, "largeur_libre_m": 60, "plan_eau": 349, "rang": 1, "nb_courses": 1}}, {"type": "Feature", "geometry": {"type": "LineString", "coordinates": [[2.09796, 48.80637], [2.10175, 48.81313]]}, "properties": {"nom": "Grand Canal", "region": "Ile-de-France", "longueur_m": 801, "aire_ha": 23.3, "seuil_max_m": 700, "largeur_libre_m": 60, "plan_eau": 350, "rang": 1, "nb_courses": 1}}, {"type": "Feature", "geometry": {"type": "LineString", "coordinates": [[3.20992, 48.4475], [3.21218, 48.45448]]}, "properties": {"nom": null, "region": "Ile-de-France", "longueur_m": 793, "aire_ha": 23.7, "seuil_max_m": 700, "largeur_libre_m": 60, "plan_eau": 355, "rang": 1, "nb_courses": 1}}, {"type": "Feature", "geometry": {"type": "LineString", "coordinates": [[3.15482, 48.42825], [3.1621, 48.43488]]}, "properties": {"nom": null, "region": "Ile-de-France", "longueur_m": 913, "aire_ha": 32.7, "seuil_max_m": 700, "largeur_libre_m": 60, "plan_eau": 376, "rang": 1, "nb_courses": 1}}, {"type": "Feature", "geometry": {"type": "LineString", "coordinates": [[3.13598, 48.42639], [3.14773, 48.42678]]}, "properties": {"nom": null, "region": "Ile-de-France", "longueur_m": 870, "aire_ha": 35.2, "seuil_max_m": 700, "largeur_libre_m": 60, "plan_eau": 377, "rang": 1, "nb_courses": 1}}, {"type": "Feature", "geometry": {"type": "LineString", "coordinates": [[3.16096, 48.40815], [3.17462, 48.41472]]}, "properties": {"nom": null, "region": "Ile-de-France", "longueur_m": 1248, "aire_ha": 55.8, "seuil_max_m": 1000, "largeur_libre_m": 60, "plan_eau": 385, "rang": 1, "nb_courses": 1}}, {"type": "Feature", "geometry": {"type": "LineString", "coordinates": [[2.76002, 48.92273], [2.77131, 48.92705]]}, "properties": {"nom": "Espace naturel régional de Précy-sur-Marne", "region": "Ile-de-France", "longueur_m": 957, "aire_ha": 30.1, "seuil_max_m": 700, "largeur_libre_m": 60, "plan_eau": 387, "rang": 1, "nb_courses": 1}}, {"type": "Feature", "geometry": {"type": "LineString", "coordinates": [[2.0541, 49.02869], [2.05051, 49.03916]]}, "properties": {"nom": "Étang de la Folie", "region": "Ile-de-France", "longueur_m": 1194, "aire_ha": 91.4, "seuil_max_m": 1000, "largeur_libre_m": 60, "plan_eau": 389, "rang": 1, "nb_courses": 1}}, {"type": "Feature", "geometry": {"type": "LineString", "coordinates": [[2.30169, 48.9671], [2.29786, 48.97462]]}, "properties": {"nom": "Lac d'Enghien", "region": "Ile-de-France", "longueur_m": 881, "aire_ha": 34.1, "seuil_max_m": 700, "largeur_libre_m": 60, "plan_eau": 390, "rang": 1, "nb_courses": 1}}, {"type": "Feature", "geometry": {"type": "LineString", "coordinates": [[2.03184, 48.78602], [1.99933, 48.78915]]}, "properties": {"nom": "Étang de Saint-Quentin", "region": "Ile-de-France", "longueur_m": 2414, "aire_ha": 114.3, "seuil_max_m": 2000, "largeur_libre_m": 60, "plan_eau": 397, "rang": 1, "nb_courses": 1}}, {"type": "Feature", "geometry": {"type": "LineString", "coordinates": [[2.45288, 48.77176], [2.45057, 48.78101]]}, "properties": {"nom": "Lac de Créteil", "region": "Ile-de-France", "longueur_m": 1043, "aire_ha": 40.7, "seuil_max_m": 1000, "largeur_libre_m": 60, "plan_eau": 398, "rang": 1, "nb_courses": 1}}]}