{"type": "FeatureCollection", "metadata": {"region": "Bourgogne", "source": "OpenStreetMap via Geofabrik", "methode": "recollage des polygones contigus, erosion de W/2, toutes les cordes inscrites dont les milieux sont ecartes d'au moins ECART_MIN_M", "largeur_libre_m": 60, "ecart_min_m": 5000, "plusieurs_courses": "Un plan d'eau peut porter plusieurs courses : plan_eau les relie, rang 1 est la plus longue. aire_ha vaut pour l'etendue entiere et se repete sur chaque course ; pour totaliser une surface, ne sommer que les rang 1.", "avertissement": "profondeur, obstacles et degagement d'approche NON pris en compte : borne haute de candidats"}, "features": [{"type": "Feature", "geometry": {"type": "LineString", "coordinates": [[4.82595, 46.27314], [4.83341, 46.30154]]}, "properties": {"nom": "La Saône", "region": "Bourgogne", "longueur_m": 3206, "aire_ha": 5289.8, "seuil_max_m": 3000, "largeur_libre_m": 60, "plan_eau": 0, "rang": 1, "nb_courses": 25}}, {"type": "Feature", "geometry": {"type": "LineString", "coordinates": [[4.88847, 46.40165], [4.88944, 46.42975]]}, "properties": {"nom": "La Saône", "region": "Bourgogne", "longueur_m": 3122, "aire_ha": 5289.8, "seuil_max_m": 3000, "largeur_libre_m": 60, "plan_eau": 0, "rang": 2, "nb_courses": 25}}, {"type": "Feature", "geometry": {"type": "LineString", "coordinates": [[4.94468, 46.69016], [4.93152, 46.71192]]}, "properties": {"nom": "La Saône", "region": "Bourgogne", "longueur_m": 2617, "aire_ha": 5289.8, "seuil_max_m": 2000, "largeur_libre_m": 60, "plan_eau": 0, "rang": 3, "nb_courses": 25}}, {"type": "Feature", "geometry": {"type": "LineString", "coordinates": [[4.91448, 46.46115], [4.91527, 46.48358]]}, "properties": {"nom": "La Saône", "region": "Bourgogne", "longueur_m": 2492, "aire_ha": 5289.8, "seuil_max_m": 2000, "largeur_libre_m": 60, "plan_eau": 0, "rang": 4, "nb_courses": 25}}, {"type": "Feature", "geometry": {"type": "LineString", "coordinates": [[4.78724, 46.12979], [4.80174, 46.14636]]}, "properties": {"nom": "La Saône", "region": "Bourgogne", "longueur_m": 2154, "aire_ha": 5289.8, "seuil_max_m": 2000, "largeur_libre_m": 60, "plan_eau": 0, "rang": 5, "nb_courses": 25}}, {"type": "Feature", "geometry": {"type": "LineString", "coordinates": [[4.93907, 46.82251], [4.95692, 46.83546]]}, "properties": {"nom": "La Saône", "region": "Bourgogne", "longueur_m": 1979, "aire_ha": 5289.8, "seuil_max_m": 1500, "largeur_libre_m": 60, "plan_eau": 0, "rang": 6, "nb_courses": 25}}, {"type": "Feature", "geometry": {"type": "LineString", "coordinates": [[4.80685, 46.234], [4.81266, 46.25102]]}, "properties": {"nom": "La Saône", "region": "Bourgogne", "longueur_m": 1943, "aire_ha": 5289.8, "seuil_max_m": 1500, "largeur_libre_m": 60, "plan_eau": 0, "rang": 7, "nb_courses": 25}}, {"type": "Feature", "geometry": {"type": "LineString", "coordinates": [[4.94017, 46.60835], [4.94665, 46.62349]]}, "properties": {"nom": "La Saône", "region": "Bourgogne", "longueur_m": 1753, "aire_ha": 5289.8, "seuil_max_m": 1500, "largeur_libre_m": 60, "plan_eau": 0, "rang": 8, "nb_courses": 25}}, {"type": "Feature", "geometry": {"type": "LineString", "coordinates": [[4.74274, 46.01801], [4.74761, 46.03242]]}, "properties": {"nom": "La Saône", "region": "Bourgogne", "longueur_m": 1644, "aire_ha": 5289.8, "seuil_max_m": 1500, "largeur_libre_m": 60, "plan_eau": 0, "rang": 9, "nb_courses": 25}}, {"type": "Feature", "geometry": {"type": "LineString", "coordinates": [[4.74702, 45.96027], [4.75606, 45.97363]]}, "properties": {"nom": "La Saône", "region": "Bourgogne", "longueur_m": 1640, "aire_ha": 5289.8, "seuil_max_m": 1500, "largeur_libre_m": 60, "plan_eau": 0, "rang": 10, "nb_courses": 25}}, {"type": "Feature", "geometry": {"type": "LineString", "coordinates": [[4.9337, 46.53025], [4.92688, 46.54346]]}, "properties": {"nom": "La Saône", "region": "Bourgogne", "longueur_m": 1556, "aire_ha": 5289.8, "seuil_max_m": 1500, "largeur_libre_m": 60, "plan_eau": 0, "rang": 11, "nb_courses": 25}}, {"type": "Feature", "geometry": {"type": "LineString", "coordinates": [[5.26456, 47.09999], [5.28279, 47.10226]]}, "properties": {"nom": "La Saône", "region": "Bourgogne", "longueur_m": 1406, "aire_ha": 5289.8, "seuil_max_m": 1340, "largeur_libre_m": 60, "plan_eau": 0, "rang": 12, "nb_courses": 25}}, {"type": "Feature", "geometry": {"type": "LineString", "coordinates": [[5.31966, 46.92299], [5.337, 46.92389]]}, "properties": {"nom": "La Saône", "region": "Bourgogne", "longueur_m": 1323, "aire_ha": 5289.8, "seuil_max_m": 1000, "largeur_libre_m": 60, "plan_eau": 0, "rang": 13, "nb_courses": 25}}, {"type": "Feature", "geometry": {"type": "LineString", "coordinates": [[4.75142, 46.08456], [4.75525, 46.09585]]}, "properties": {"nom": "La Saône", "region": "Bourgogne", "longueur_m": 1288, "aire_ha": 5289.8, "seuil_max_m": 1000, "largeur_libre_m": 60, "plan_eau": 0, "rang": 14, "nb_courses": 25}}, {"type": "Feature", "geometry": {"type": "LineString", "coordinates": [[4.88088, 46.73448], [4.88477, 46.74572]]}, "properties": {"nom": "La Saône", "region": "Bourgogne", "longueur_m": 1283, "aire_ha": 5289.8, "seuil_max_m": 1000, "largeur_libre_m": 60, "plan_eau": 0, "rang": 15, "nb_courses": 25}}, {"type": "Feature", "geometry": {"type": "LineString", "coordinates": [[5.19754, 47.0686], [5.20793, 47.07687]]}, "properties": {"nom": "La Saône", "region": "Bourgogne", "longueur_m": 1211, "aire_ha": 5289.8, "seuil_max_m": 1000, "largeur_libre_m": 60, "plan_eau": 0, "rang": 16, "nb_courses": 25}}, {"type": "Feature", "geometry": {"type": "LineString", "coordinates": [[4.8504, 46.35295], [4.85614, 46.36262]]}, "properties": {"nom": "La Saône", "region": "Bourgogne", "longueur_m": 1161, "aire_ha": 5289.8, "seuil_max_m": 1000, "largeur_libre_m": 60, "plan_eau": 0, "rang": 17, "nb_courses": 25}}, {"type": "Feature", "geometry": {"type": "LineString", "coordinates": [[5.33089, 47.12112], [5.34395, 47.12592]]}, "properties": {"nom": "La Saône", "region": "Bourgogne", "longueur_m": 1124, "aire_ha": 5289.8, "seuil_max_m": 1000, "largeur_libre_m": 60, "plan_eau": 0, "rang": 18, "nb_courses": 25}}, {"type": "Feature", "geometry": {"type": "LineString", "coordinates": [[4.95104, 46.88279], [4.95406, 46.8915]]}, "properties": {"nom": "La Saône", "region": "Bourgogne", "longueur_m": 994, "aire_ha": 5289.8, "seuil_max_m": 700, "largeur_libre_m": 60, "plan_eau": 0, "rang": 19, "nb_courses": 25}}, {"type": "Feature", "geometry": {"type": "LineString", "coordinates": [[5.39124, 47.23573], [5.3983, 47.24267]]}, "properties": {"nom": "La Saône", "region": "Bourgogne", "longueur_m": 938, "aire_ha": 5289.8, "seuil_max_m": 700, "largeur_libre_m": 60, "plan_eau": 0, "rang": 20, "nb_courses": 25}}, {"type": "Feature", "geometry": {"type": "LineString", "coordinates": [[5.37611, 47.18878], [5.38275, 47.19531]]}, "properties": {"nom": "La Saône", "region": "Bourgogne", "longueur_m": 882, "aire_ha": 5289.8, "seuil_max_m": 700, "largeur_libre_m": 60, "plan_eau": 0, "rang": 21, "nb_courses": 25}}, {"type": "Feature", "geometry": {"type": "LineString", "coordinates": [[4.77871, 46.17856], [4.78126, 46.18605]]}, "properties": {"nom": "La Saône", "region": "Bourgogne", "longueur_m": 854, "aire_ha": 5289.8, "seuil_max_m": 700, "largeur_libre_m": 60, "plan_eau": 0, "rang": 22, "nb_courses": 25}}, {"type": "Feature", "geometry": {"type": "LineString", "coordinates": [[4.88002, 46.79766], [4.88722, 46.80289]]}, "properties": {"nom": "La Saône", "region": "Bourgogne", "longueur_m": 799, "aire_ha": 5289.8, "seuil_max_m": 700, "largeur_libre_m": 60, "plan_eau": 0, "rang": 23, "nb_courses": 25}}, {"type": "Feature", "geometry": {"type": "LineString", "coordinates": [[5.07605, 46.89854], [5.08455, 46.90254]]}, "properties": {"nom": "La Saône", "region": "Bourgogne", "longueur_m": 786, "aire_ha": 5289.8, "seuil_max_m": 700, "largeur_libre_m": 60, "plan_eau": 0, "rang": 24, "nb_courses": 25}}, {"type": "Feature", "geometry": {"type": "LineString", "coordinates": [[5.41016, 47.28056], [5.40946, 47.2869]]}, "properties": {"nom": "La Saône", "region": "Bourgogne", "longueur_m": 707, "aire_ha": 5289.8, "seuil_max_m": 700, "largeur_libre_m": 60, "plan_eau": 0, "rang": 25, "nb_courses": 25}}, {"type": "Feature", "geometry": {"type": "LineString", "coordinates": [[3.47425, 47.96212], [3.4907, 47.96321]]}, "properties": {"nom": "Avant-Port", "region": "Bourgogne", "longueur_m": 1233, "aire_ha": 1230.0, "seuil_max_m": 1000, "largeur_libre_m": 60, "plan_eau": 5, "rang": 1, "nb_courses": 6}}, {"type": "Feature", "geometry": {"type": "LineString", "coordinates": [[3.18023, 48.32424], [3.16798, 48.32645]]}, "properties": {"nom": "Avant-Port", "region": "Bourgogne", "longueur_m": 941, "aire_ha": 1230.0, "seuil_max_m": 700, "largeur_libre_m": 60, "plan_eau": 5, "rang": 2, "nb_courses": 6}}, {"type": "Feature", "geometry": {"type": "LineString", "coordinates": [[3.05982, 48.3572], [3.07199, 48.35804]]}, "properties": {"nom": "Avant-Port", "region": "Bourgogne", "longueur_m": 906, "aire_ha": 1230.0, "seuil_max_m": 700, "largeur_libre_m": 60, "plan_eau": 5, "rang": 3, "nb_courses": 6}}, {"type": "Feature", "geometry": {"type": "LineString", "coordinates": [[3.27109, 48.11417], [3.27748, 48.12001]]}, "properties": {"nom": "Avant-Port", "region": "Bourgogne", "longueur_m": 805, "aire_ha": 1230.0, "seuil_max_m": 700, "largeur_libre_m": 60, "plan_eau": 5, "rang": 4, "nb_courses": 6}}, {"type": "Feature", "geometry": {"type": "LineString", "coordinates": [[3.27431, 48.20564], [3.27105, 48.21243]]}, "properties": {"nom": "Avant-Port", "region": "Bourgogne", "longueur_m": 792, "aire_ha": 1230.0, "seuil_max_m": 700, "largeur_libre_m": 60, "plan_eau": 5, "rang": 5, "nb_courses": 6}}, {"type": "Feature", "geometry": {"type": "LineString", "coordinates": [[3.39651, 47.98085], [3.3863, 47.98273]]}, "properties": {"nom": "Avant-Port", "region": "Bourgogne", "longueur_m": 789, "aire_ha": 1230.0, "seuil_max_m": 700, "largeur_libre_m": 60, "plan_eau": 5, "rang": 6, "nb_courses": 6}}, {"type": "Feature", "geometry": {"type": "LineString", "coordinates": [[4.6291, 47.30654], [4.60314, 47.30971]]}, "properties": {"nom": "Réservoir de Grosbois", "region": "Bourgogne", "longueur_m": 1993, "aire_ha": 89.5, "seuil_max_m": 1500, "largeur_libre_m": 60, "plan_eau": 13, "rang": 1, "nb_courses": 1}}, {"type": "Feature", "geometry": {"type": "LineString", "coordinates": [[4.59361, 47.1799], [4.60248, 47.18787]]}, "properties": {"nom": "Réservoir de Chazilly", "region": "Bourgogne", "longueur_m": 1111, "aire_ha": 37.7, "seuil_max_m": 1000, "largeur_libre_m": 60, "plan_eau": 14, "rang": 1, "nb_courses": 1}}, {"type": "Feature", "geometry": {"type": "LineString", "coordinates": [[4.82383, 46.66657], [4.83239, 46.6702]]}, "properties": {"nom": "Lacs de Laives", "region": "Bourgogne", "longueur_m": 769, "aire_ha": 22.9, "seuil_max_m": 700, "largeur_libre_m": 60, "plan_eau": 15, "rang": 1, "nb_courses": 1}}, {"type": "Feature", "geometry": {"type": "LineString", "coordinates": [[3.91044, 47.36274], [3.90974, 47.37442]]}, "properties": {"nom": "Lac du Crescent", "region": "Bourgogne", "longueur_m": 1298, "aire_ha": 113.1, "seuil_max_m": 1000, "largeur_libre_m": 60, "plan_eau": 18, "rang": 1, "nb_courses": 1}}, {"type": "Feature", "geometry": {"type": "LineString", "coordinates": [[3.61462, 47.1809], [3.58595, 47.18742]]}, "properties": {"nom": "Étang de Vaux", "region": "Bourgogne", "longueur_m": 2288, "aire_ha": 126.6, "seuil_max_m": 2000, "largeur_libre_m": 60, "plan_eau": 19, "rang": 1, "nb_courses": 1}}, {"type": "Feature", "geometry": {"type": "LineString", "coordinates": [[5.37474, 47.51447], [5.369, 47.52087]]}, "properties": {"nom": "Étang du Fourneau", "region": "Bourgogne", "longueur_m": 831, "aire_ha": 29.1, "seuil_max_m": 700, "largeur_libre_m": 60, "plan_eau": 20, "rang": 1, "nb_courses": 1}}, {"type": "Feature", "geometry": {"type": "LineString", "coordinates": [[5.24616, 46.86521], [5.24377, 46.87211]]}, "properties": {"nom": "Étang de Pierre", "region": "Bourgogne", "longueur_m": 787, "aire_ha": 19.8, "seuil_max_m": 700, "largeur_libre_m": 60, "plan_eau": 22, "rang": 1, "nb_courses": 1}}, {"type": "Feature", "geometry": {"type": "LineString", "coordinates": [[2.90204, 47.65558], [2.90802, 47.66805]]}, "properties": {"nom": "Étang de la Tuilerie", "region": "Bourgogne", "longueur_m": 1456, "aire_ha": 47.7, "seuil_max_m": 1340, "largeur_libre_m": 60, "plan_eau": 24, "rang": 1, "nb_courses": 1}}, {"type": "Feature", "geometry": {"type": "LineString", "coordinates": [[4.3429, 46.56977], [4.35288, 46.57228]]}, "properties": {"nom": "Étang du Grand Baronnet", "region": "Bourgogne", "longueur_m": 813, "aire_ha": 27.9, "seuil_max_m": 700, "largeur_libre_m": 60, "plan_eau": 27, "rang": 1, "nb_courses": 1}}, {"type": "Feature", "geometry": {"type": "LineString", "coordinates": [[4.31712, 46.29193], [4.30708, 46.29353]]}, "properties": {"nom": "Le Grand Étang", "region": "Bourgogne", "longueur_m": 793, "aire_ha": 26.6, "seuil_max_m": 700, "largeur_libre_m": 60, "plan_eau": 28, "rang": 1, "nb_courses": 1}}, {"type": "Feature", "geometry": {"type": "LineString", "coordinates": [[3.20837, 47.64756], [3.20952, 47.65477]]}, "properties": {"nom": "Étang de Gaudry", "region": "Bourgogne", "longueur_m": 806, "aire_ha": 16.7, "seuil_max_m": 700, "largeur_libre_m": 60, "plan_eau": 31, "rang": 1, "nb_courses": 1}}, {"type": "Feature", "geometry": {"type": "LineString", "coordinates": [[3.19766, 47.63723], [3.19995, 47.64441]]}, "properties": {"nom": "Étang des Barres", "region": "Bourgogne", "longueur_m": 816, "aire_ha": 21.1, "seuil_max_m": 700, "largeur_libre_m": 60, "plan_eau": 32, "rang": 1, "nb_courses": 1}}, {"type": "Feature", "geometry": {"type": "LineString", "coordinates": [[3.16625, 47.61992], [3.15269, 47.62189]]}, "properties": {"nom": "Étang de Moutiers", "region": "Bourgogne", "longueur_m": 1042, "aire_ha": 26.4, "seuil_max_m": 1000, "largeur_libre_m": 60, "plan_eau": 33, "rang": 1, "nb_courses": 1}}, {"type": "Feature", "geometry": {"type": "LineString", "coordinates": [[4.15128, 47.27045], [4.14415, 47.27544]]}, "properties": {"nom": "Étang de Champeau", "region": "Bourgogne", "longueur_m": 773, "aire_ha": 29.7, "seuil_max_m": 700, "largeur_libre_m": 60, "plan_eau": 34, "rang": 1, "nb_courses": 1}}, {"type": "Feature", "geometry": {"type": "LineString", "coordinates": [[4.14337, 47.25918], [4.14799, 47.26596]]}, "properties": {"nom": "Étang Morin", "region": "Bourgogne", "longueur_m": 831, "aire_ha": 18.2, "seuil_max_m": 700, "largeur_libre_m": 60, "plan_eau": 36, "rang": 1, "nb_courses": 1}}, {"type": "Feature", "geometry": {"type": "LineString", "coordinates": [[4.19082, 47.24426], [4.19311, 47.25323]]}, "properties": {"nom": "Lac de Chamboux", "region": "Bourgogne", "longueur_m": 1011, "aire_ha": 64.5, "seuil_max_m": 1000, "largeur_libre_m": 60, "plan_eau": 37, "rang": 1, "nb_courses": 1}}, {"type": "Feature", "geometry": {"type": "LineString", "coordinates": [[3.85183, 47.16322], [3.86087, 47.16628]]}, "properties": {"nom": "Petit Lac de Pannecière", "region": "Bourgogne", "longueur_m": 764, "aire_ha": 23.3, "seuil_max_m": 700, "largeur_libre_m": 60, "plan_eau": 40, "rang": 1, "nb_courses": 1}}, {"type": "Feature", "geometry": {"type": "LineString", "coordinates": [[4.58198, 47.08635], [4.57516, 47.09596]]}, "properties": {"nom": "Étang de Rouey", "region": "Bourgogne", "longueur_m": 1187, "aire_ha": 53.4, "seuil_max_m": 1000, "largeur_libre_m": 60, "plan_eau": 42, "rang": 1, "nb_courses": 1}}, {"type": "Feature", "geometry": {"type": "LineString", "coordinates": [[3.56081, 46.98985], [3.55697, 47.00263]]}, "properties": {"nom": "Étang de Fleury-la-Tour", "region": "Bourgogne", "longueur_m": 1450, "aire_ha": 51.5, "seuil_max_m": 1340, "largeur_libre_m": 60, "plan_eau": 44, "rang": 1, "nb_courses": 1}}, {"type": "Feature", "geometry": {"type": "LineString", "coordinates": [[4.4707, 46.92132], [4.46632, 46.92959]]}, "properties": {"nom": "Barrage du Pont du Roi", "region": "Bourgogne", "longueur_m": 978, "aire_ha": 41.6, "seuil_max_m": 700, "largeur_libre_m": 60, "plan_eau": 45, "rang": 1, "nb_courses": 1}}, {"type": "Feature", "geometry": {"type": "LineString", "coordinates": [[3.80086, 46.89195], [3.79044, 46.89315]]}, "properties": {"nom": "Étang de Chèvres", "region": "Bourgogne", "longueur_m": 804, "aire_ha": 26.4, "seuil_max_m": 700, "largeur_libre_m": 60, "plan_eau": 46, "rang": 1, "nb_courses": 1}}, {"type": "Feature", "geometry": {"type": "LineString", "coordinates": [[4.11147, 46.84352], [4.09663, 46.84473]]}, "properties": {"nom": "Étang de Boussons", "region": "Bourgogne", "longueur_m": 1139, "aire_ha": 37.4, "seuil_max_m": 1000, "largeur_libre_m": 60, "plan_eau": 49, "rang": 1, "nb_courses": 1}}, {"type": "Feature", "geometry": {"type": "LineString", "coordinates": [[3.66603, 46.80559], [3.65599, 46.80789]]}, "properties": {"nom": "Étang de Briffaut", "region": "Bourgogne", "longueur_m": 807, "aire_ha": 15.7, "seuil_max_m": 700, "largeur_libre_m": 60, "plan_eau": 50, "rang": 1, "nb_courses": 1}}, {"type": "Feature", "geometry": {"type": "LineString", "coordinates": [[3.77391, 46.76784], [3.77728, 46.77473]]}, "properties": {"nom": "Étang du Marnant", "region": "Bourgogne", "longueur_m": 808, "aire_ha": 17.3, "seuil_max_m": 700, "largeur_libre_m": 60, "plan_eau": 52, "rang": 1, "nb_courses": 1}}, {"type": "Feature", "geometry": {"type": "LineString", "coordinates": [[4.78507, 47.99343], [4.78735, 48.0054]]}, "properties": {"nom": null, "region": "Bourgogne", "longueur_m": 1341, "aire_ha": 46.4, "seuil_max_m": 1340, "largeur_libre_m": 60, "plan_eau": 53, "rang": 1, "nb_courses": 1}}, {"type": "Feature", "geometry": {"type": "LineString", "coordinates": [[4.4047, 47.87147], [4.41546, 47.87922]]}, "properties": {"nom": "Étang de Marcenay", "region": "Bourgogne", "longueur_m": 1179, "aire_ha": 54.5, "seuil_max_m": 1000, "largeur_libre_m": 60, "plan_eau": 54, "rang": 1, "nb_courses": 1}}, {"type": "Feature", "geometry": {"type": "LineString", "coordinates": [[4.1383, 47.51194], [4.15148, 47.51371]]}, "properties": {"nom": "Étang d'Époisses", "region": "Bourgogne", "longueur_m": 1012, "aire_ha": 32.7, "seuil_max_m": 1000, "largeur_libre_m": 60, "plan_eau": 55, "rang": 1, "nb_courses": 1}}, {"type": "Feature", "geometry": {"type": "LineString", "coordinates": [[5.35186, 47.30173], [5.36205, 47.30897]]}, "properties": {"nom": "Grand Étang", "region": "Bourgogne", "longueur_m": 1113, "aire_ha": 48.3, "seuil_max_m": 1000, "largeur_libre_m": 60, "plan_eau": 59, "rang": 1, "nb_courses": 1}}, {"type": "Feature", "geometry": {"type": "LineString", "coordinates": [[5.32588, 46.87804], [5.33227, 46.88263]]}, "properties": {"nom": "Étang du Fay", "region": "Bourgogne", "longueur_m": 705, "aire_ha": 22.0, "seuil_max_m": 700, "largeur_libre_m": 60, "plan_eau": 66, "rang": 1, "nb_courses": 1}}, {"type": "Feature", "geometry": {"type": "LineString", "coordinates": [[2.64032, 47.68018], [2.57474, 47.69963]]}, "properties": {"nom": "La Loire", "region": "Bourgogne", "longueur_m": 5373, "aire_ha": 5402.1, "seuil_max_m": 3000, "largeur_libre_m": 60, "plan_eau": 72, "rang": 1, "nb_courses": 35}}, {"type": "Feature", "geometry": {"type": "LineString", "coordinates": [[2.83804, 47.54819], [2.80916, 47.57496]]}, "properties": {"nom": "La Loire", "region": "Bourgogne", "longueur_m": 3683, "aire_ha": 5402.1, "seuil_max_m": 3000, "largeur_libre_m": 60, "plan_eau": 72, "rang": 2, "nb_courses": 35}}, {"type": "Feature", "geometry": {"type": "LineString", "coordinates": [[2.56073, 47.70528], [2.53228, 47.72427]]}, "properties": {"nom": "La Loire", "region": "Bourgogne", "longueur_m": 3000, "aire_ha": 5402.1, "seuil_max_m": 2000, "largeur_libre_m": 60, "plan_eau": 72, "rang": 3, "nb_courses": 35}}, {"type": "Feature", "geometry": {"type": "LineString", "coordinates": [[3.0697, 46.8503], [3.06421, 46.87419]]}, "properties": {"nom": "La Loire", "region": "Bourgogne", "longueur_m": 2686, "aire_ha": 5402.1, "seuil_max_m": 2000, "largeur_libre_m": 60, "plan_eau": 72, "rang": 4, "nb_courses": 35}}, {"type": "Feature", "geometry": {"type": "LineString", "coordinates": [[3.03353, 47.12382], [3.02483, 47.14601]]}, "properties": {"nom": "La Loire", "region": "Bourgogne", "longueur_m": 2551, "aire_ha": 5402.1, "seuil_max_m": 2000, "largeur_libre_m": 60, "plan_eau": 72, "rang": 5, "nb_courses": 35}}, {"type": "Feature", "geometry": {"type": "LineString", "coordinates": [[3.01449, 47.17449], [3.00537, 47.19364]]}, "properties": {"nom": "La Loire", "region": "Bourgogne", "longueur_m": 2236, "aire_ha": 5402.1, "seuil_max_m": 2000, "largeur_libre_m": 60, "plan_eau": 72, "rang": 6, "nb_courses": 35}}, {"type": "Feature", "geometry": {"type": "LineString", "coordinates": [[2.70142, 47.65859], [2.67414, 47.66449]]}, "properties": {"nom": "La Loire", "region": "Bourgogne", "longueur_m": 2150, "aire_ha": 5402.1, "seuil_max_m": 2000, "largeur_libre_m": 60, "plan_eau": 72, "rang": 7, "nb_courses": 35}}, {"type": "Feature", "geometry": {"type": "LineString", "coordinates": [[2.92702, 47.29399], [2.9128, 47.3107]]}, "properties": {"nom": "La Loire", "region": "Bourgogne", "longueur_m": 2145, "aire_ha": 5402.1, "seuil_max_m": 2000, "largeur_libre_m": 60, "plan_eau": 72, "rang": 8, "nb_courses": 35}}, {"type": "Feature", "geometry": {"type": "LineString", "coordinates": [[2.8931, 47.49401], [2.8832, 47.51141]]}, "properties": {"nom": "La Loire", "region": "Bourgogne", "longueur_m": 2071, "aire_ha": 5402.1, "seuil_max_m": 2000, "largeur_libre_m": 60, "plan_eau": 72, "rang": 9, "nb_courses": 35}}, {"type": "Feature", "geometry": {"type": "LineString", "coordinates": [[2.88326, 47.35861], [2.89768, 47.37374]]}, "properties": {"nom": "La Loire", "region": "Bourgogne", "longueur_m": 2002, "aire_ha": 5402.1, "seuil_max_m": 2000, "largeur_libre_m": 60, "plan_eau": 72, "rang": 10, "nb_courses": 35}}, {"type": "Feature", "geometry": {"type": "LineString", "coordinates": [[3.29767, 46.86907], [3.27978, 46.88143]]}, "properties": {"nom": "La Loire", "region": "Bourgogne", "longueur_m": 1933, "aire_ha": 5402.1, "seuil_max_m": 1500, "largeur_libre_m": 60, "plan_eau": 72, "rang": 11, "nb_courses": 35}}, {"type": "Feature", "geometry": {"type": "LineString", "coordinates": [[3.06587, 46.97708], [3.06721, 46.99436]]}, "properties": {"nom": "La Loire", "region": "Bourgogne", "longueur_m": 1922, "aire_ha": 5402.1, "seuil_max_m": 1500, "largeur_libre_m": 60, "plan_eau": 72, "rang": 12, "nb_courses": 35}}, {"type": "Feature", "geometry": {"type": "LineString", "coordinates": [[3.2082, 46.9708], [3.18777, 46.97892]]}, "properties": {"nom": "La Loire", "region": "Bourgogne", "longueur_m": 1796, "aire_ha": 5402.1, "seuil_max_m": 1500, "largeur_libre_m": 60, "plan_eau": 72, "rang": 13, "nb_courses": 35}}, {"type": "Feature", "geometry": {"type": "LineString", "coordinates": [[3.54643, 46.78674], [3.52665, 46.7947]]}, "properties": {"nom": "La Loire", "region": "Bourgogne", "longueur_m": 1749, "aire_ha": 5402.1, "seuil_max_m": 1500, "largeur_libre_m": 60, "plan_eau": 72, "rang": 14, "nb_courses": 35}}, {"type": "Feature", "geometry": {"type": "LineString", "coordinates": [[3.03523, 46.80115], [3.04455, 46.8155]]}, "properties": {"nom": "La Loire", "region": "Bourgogne", "longueur_m": 1745, "aire_ha": 5402.1, "seuil_max_m": 1500, "largeur_libre_m": 60, "plan_eau": 72, "rang": 15, "nb_courses": 35}}, {"type": "Feature", "geometry": {"type": "LineString", "coordinates": [[2.9191, 47.40331], [2.92144, 47.41859]]}, "properties": {"nom": "La Loire", "region": "Bourgogne", "longueur_m": 1706, "aire_ha": 5402.1, "seuil_max_m": 1500, "largeur_libre_m": 60, "plan_eau": 72, "rang": 16, "nb_courses": 35}}, {"type": "Feature", "geometry": {"type": "LineString", "coordinates": [[3.35016, 46.83564], [3.33618, 46.84532]]}, "properties": {"nom": "La Loire", "region": "Bourgogne", "longueur_m": 1514, "aire_ha": 5402.1, "seuil_max_m": 1500, "largeur_libre_m": 60, "plan_eau": 72, "rang": 17, "nb_courses": 35}}, {"type": "Feature", "geometry": {"type": "LineString", "coordinates": [[3.07556, 47.02756], [3.06573, 47.03922]]}, "properties": {"nom": "La Loire", "region": "Bourgogne", "longueur_m": 1494, "aire_ha": 5402.1, "seuil_max_m": 1340, "largeur_libre_m": 60, "plan_eau": 72, "rang": 18, "nb_courses": 35}}, {"type": "Feature", "geometry": {"type": "LineString", "coordinates": [[2.97615, 47.2483], [2.97909, 47.26096]]}, "properties": {"nom": "La Loire", "region": "Bourgogne", "longueur_m": 1425, "aire_ha": 5402.1, "seuil_max_m": 1340, "largeur_libre_m": 60, "plan_eau": 72, "rang": 19, "nb_courses": 35}}, {"type": "Feature", "geometry": {"type": "LineString", "coordinates": [[2.7529, 47.60181], [2.74123, 47.6115]]}, "properties": {"nom": "La Loire", "region": "Bourgogne", "longueur_m": 1389, "aire_ha": 5402.1, "seuil_max_m": 1340, "largeur_libre_m": 60, "plan_eau": 72, "rang": 20, "nb_courses": 35}}, {"type": "Feature", "geometry": {"type": "LineString", "coordinates": [[3.74452, 46.53692], [3.73337, 46.54661]]}, "properties": {"nom": "La Loire", "region": "Bourgogne", "longueur_m": 1373, "aire_ha": 5402.1, "seuil_max_m": 1340, "largeur_libre_m": 60, "plan_eau": 72, "rang": 21, "nb_courses": 35}}, {"type": "Feature", "geometry": {"type": "LineString", "coordinates": [[3.1261, 46.96494], [3.1376, 46.97279]]}, "properties": {"nom": "La Loire", "region": "Bourgogne", "longueur_m": 1235, "aire_ha": 5402.1, "seuil_max_m": 1000, "largeur_libre_m": 60, "plan_eau": 72, "rang": 22, "nb_courses": 35}}, {"type": "Feature", "geometry": {"type": "LineString", "coordinates": [[3.89049, 46.48106], [3.87744, 46.48706]]}, "properties": {"nom": "La Loire", "region": "Bourgogne", "longueur_m": 1202, "aire_ha": 5402.1, "seuil_max_m": 1000, "largeur_libre_m": 60, "plan_eau": 72, "rang": 23, "nb_courses": 35}}, {"type": "Feature", "geometry": {"type": "LineString", "coordinates": [[3.45172, 46.83733], [3.43684, 46.84012]]}, "properties": {"nom": "La Loire", "region": "Bourgogne", "longueur_m": 1176, "aire_ha": 5402.1, "seuil_max_m": 1000, "largeur_libre_m": 60, "plan_eau": 72, "rang": 24, "nb_courses": 35}}, {"type": "Feature", "geometry": {"type": "LineString", "coordinates": [[4.09094, 46.16451], [4.08588, 46.17405]]}, "properties": {"nom": "La Loire", "region": "Bourgogne", "longueur_m": 1130, "aire_ha": 5402.1, "seuil_max_m": 1000, "largeur_libre_m": 60, "plan_eau": 72, "rang": 25, "nb_courses": 35}}, {"type": "Feature", "geometry": {"type": "LineString", "coordinates": [[3.14481, 46.71182], [3.13641, 46.71981]]}, "properties": {"nom": "La Loire", "region": "Bourgogne", "longueur_m": 1094, "aire_ha": 5402.1, "seuil_max_m": 1000, "largeur_libre_m": 60, "plan_eau": 72, "rang": 26, "nb_courses": 35}}, {"type": "Feature", "geometry": {"type": "LineString", "coordinates": [[3.25128, 46.9388], [3.24212, 46.94581]]}, "properties": {"nom": "La Loire", "region": "Bourgogne", "longueur_m": 1045, "aire_ha": 5402.1, "seuil_max_m": 1000, "largeur_libre_m": 60, "plan_eau": 72, "rang": 27, "nb_courses": 35}}, {"type": "Feature", "geometry": {"type": "LineString", "coordinates": [[3.01626, 47.06742], [3.01687, 47.0754]]}, "properties": {"nom": "La Loire", "region": "Bourgogne", "longueur_m": 887, "aire_ha": 5402.1, "seuil_max_m": 700, "largeur_libre_m": 60, "plan_eau": 72, "rang": 28, "nb_courses": 35}}, {"type": "Feature", "geometry": {"type": "LineString", "coordinates": [[2.91935, 47.45591], [2.91934, 47.46378]]}, "properties": {"nom": "La Loire", "region": "Bourgogne", "longueur_m": 874, "aire_ha": 5402.1, "seuil_max_m": 700, "largeur_libre_m": 60, "plan_eau": 72, "rang": 29, "nb_courses": 35}}, {"type": "Feature", "geometry": {"type": "LineString", "coordinates": [[3.81753, 46.52525], [3.82755, 46.52868]]}, "properties": {"nom": "La Loire", "region": "Bourgogne", "longueur_m": 857, "aire_ha": 5402.1, "seuil_max_m": 700, "largeur_libre_m": 60, "plan_eau": 72, "rang": 30, "nb_courses": 35}}, {"type": "Feature", "geometry": {"type": "LineString", "coordinates": [[3.73606, 46.59131], [3.73181, 46.59808]]}, "properties": {"nom": "La Loire", "region": "Bourgogne", "longueur_m": 819, "aire_ha": 5402.1, "seuil_max_m": 700, "largeur_libre_m": 60, "plan_eau": 72, "rang": 31, "nb_courses": 35}}, {"type": "Feature", "geometry": {"type": "LineString", "coordinates": [[3.0529, 46.91561], [3.05676, 46.92247]]}, "properties": {"nom": "La Loire", "region": "Bourgogne", "longueur_m": 817, "aire_ha": 5402.1, "seuil_max_m": 700, "largeur_libre_m": 60, "plan_eau": 72, "rang": 32, "nb_courses": 35}}, {"type": "Feature", "geometry": {"type": "LineString", "coordinates": [[4.06099, 46.21118], [4.05336, 46.21607]]}, "properties": {"nom": "La Loire", "region": "Bourgogne", "longueur_m": 801, "aire_ha": 5402.1, "seuil_max_m": 700, "largeur_libre_m": 60, "plan_eau": 72, "rang": 33, "nb_courses": 35}}, {"type": "Feature", "geometry": {"type": "LineString", "coordinates": [[3.98817, 46.34349], [3.98618, 46.35038]]}, "properties": {"nom": "La Loire", "region": "Bourgogne", "longueur_m": 781, "aire_ha": 5402.1, "seuil_max_m": 700, "largeur_libre_m": 60, "plan_eau": 72, "rang": 34, "nb_courses": 35}}, {"type": "Feature", "geometry": {"type": "LineString", "coordinates": [[3.6659, 46.68805], [3.65833, 46.69234]]}, "properties": {"nom": "La Loire", "region": "Bourgogne", "longueur_m": 749, "aire_ha": 5402.1, "seuil_max_m": 700, "largeur_libre_m": 60, "plan_eau": 72, "rang": 35, "nb_courses": 35}}, {"type": "Feature", "geometry": {"type": "LineString", "coordinates": [[5.00613, 47.32533], [4.99006, 47.32984]]}, "properties": {"nom": "Lac Kir", "region": "Bourgogne", "longueur_m": 1313, "aire_ha": 81.3, "seuil_max_m": 1000, "largeur_libre_m": 60, "plan_eau": 73, "rang": 1, "nb_courses": 1}}, {"type": "Feature", "geometry": {"type": "LineString", "coordinates": [[4.93493, 46.9126], [4.92231, 46.91419]]}, "properties": {"nom": "Étang de Baignant", "region": "Bourgogne", "longueur_m": 976, "aire_ha": 24.4, "seuil_max_m": 700, "largeur_libre_m": 60, "plan_eau": 79, "rang": 1, "nb_courses": 1}}, {"type": "Feature", "geometry": {"type": "LineString", "coordinates": [[3.9111, 47.2839], [3.91539, 47.30106]]}, "properties": {"nom": "Réservoir de Chaumeçon", "region": "Bourgogne", "longueur_m": 1933, "aire_ha": 133.8, "seuil_max_m": 1500, "largeur_libre_m": 60, "plan_eau": 100, "rang": 1, "nb_courses": 1}}, {"type": "Feature", "geometry": {"type": "LineString", "coordinates": [[4.40266, 47.88849], [4.39277, 47.89039]]}, "properties": {"nom": "Étang de Bailly", "region": "Bourgogne", "longueur_m": 769, "aire_ha": 17.7, "seuil_max_m": 700, "largeur_libre_m": 60, "plan_eau": 142, "rang": 1, "nb_courses": 1}}, {"type": "Feature", "geometry": {"type": "LineString", "coordinates": [[5.16638, 47.34693], [5.17609, 47.34674]]}, "properties": {"nom": null, "region": "Bourgogne", "longueur_m": 733, "aire_ha": 25.4, "seuil_max_m": 700, "largeur_libre_m": 60, "plan_eau": 144, "rang": 1, "nb_courses": 1}}, {"type": "Feature", "geometry": {"type": "LineString", "coordinates": [[3.87083, 46.48925], [3.863, 46.49326]]}, "properties": {"nom": null, "region": "Bourgogne", "longueur_m": 748, "aire_ha": 18.8, "seuil_max_m": 700, "largeur_libre_m": 60, "plan_eau": 175, "rang": 1, "nb_courses": 1}}, {"type": "Feature", "geometry": {"type": "LineString", "coordinates": [[3.27853, 48.10548], [3.27408, 48.11223]]}, "properties": {"nom": null, "region": "Bourgogne", "longueur_m": 821, "aire_ha": 28.3, "seuil_max_m": 700, "largeur_libre_m": 60, "plan_eau": 195, "rang": 1, "nb_courses": 1}}, {"type": "Feature", "geometry": {"type": "LineString", "coordinates": [[4.44748, 46.77322], [4.41928, 46.78106]]}, "properties": {"nom": "Étang de Torcy Neuf", "region": "Bourgogne", "longueur_m": 2321, "aire_ha": 98.2, "seuil_max_m": 2000, "largeur_libre_m": 60, "plan_eau": 201, "rang": 1, "nb_courses": 1}}, {"type": "Feature", "geometry": {"type": "LineString", "coordinates": [[4.44839, 46.77459], [4.44101, 46.78657]]}, "properties": {"nom": "Étang Leduc", "region": "Bourgogne", "longueur_m": 1444, "aire_ha": 44.7, "seuil_max_m": 1340, "largeur_libre_m": 60, "plan_eau": 202, "rang": 1, "nb_courses": 1}}, {"type": "Feature", "geometry": {"type": "LineString", "coordinates": [[3.12914, 47.60438], [3.12108, 47.60793]]}, "properties": {"nom": "Lac du Bourdon", "region": "Bourgogne", "longueur_m": 723, "aire_ha": 12.3, "seuil_max_m": 700, "largeur_libre_m": 60, "plan_eau": 238, "rang": 1, "nb_courses": 1}}, {"type": "Feature", "geometry": {"type": "LineString", "coordinates": [[4.35552, 46.71766], [4.34244, 46.73388]]}, "properties": {"nom": "Lac de la Sorme", "region": "Bourgogne", "longueur_m": 2060, "aire_ha": 149.5, "seuil_max_m": 2000, "largeur_libre_m": 60, "plan_eau": 249, "rang": 1, "nb_courses": 1}}, {"type": "Feature", "geometry": {"type": "LineString", "coordinates": [[4.38597, 46.67176], [4.37821, 46.67675]]}, "properties": {"nom": "Lac du Plessis", "region": "Bourgogne", "longueur_m": 812, "aire_ha": 23.6, "seuil_max_m": 700, "largeur_libre_m": 60, "plan_eau": 250, "rang": 1, "nb_courses": 1}}, {"type": "Feature", "geometry": {"type": "LineString", "coordinates": [[3.61859, 47.16441], [3.61515, 47.18002]]}, "properties": {"nom": "Étang de Baye", "region": "Bourgogne", "longueur_m": 1753, "aire_ha": 78.8, "seuil_max_m": 1500, "largeur_libre_m": 60, "plan_eau": 275, "rang": 1, "nb_courses": 1}}, {"type": "Feature", "geometry": {"type": "LineString", "coordinates": [[4.3655, 46.68472], [4.37652, 46.69003]]}, "properties": {"nom": "Lac Saint-Louis", "region": "Bourgogne", "longueur_m": 1028, "aire_ha": 30.5, "seuil_max_m": 1000, "largeur_libre_m": 60, "plan_eau": 300, "rang": 1, "nb_courses": 1}}, {"type": "Feature", "geometry": {"type": "LineString", "coordinates": [[3.11842, 48.34932], [3.10773, 48.35124]]}, "properties": {"nom": null, "region": "Bourgogne", "longueur_m": 821, "aire_ha": 41.5, "seuil_max_m": 700, "largeur_libre_m": 60, "plan_eau": 317, "rang": 1, "nb_courses": 1}}, {"type": "Feature", "geometry": {"type": "LineString", "coordinates": [[4.86967, 46.79019], [4.87272, 46.79734]]}, "properties": {"nom": "Lac des Prés Saint-Jean", "region": "Bourgogne", "longueur_m": 827, "aire_ha": 25.3, "seuil_max_m": 700, "largeur_libre_m": 60, "plan_eau": 320, "rang": 1, "nb_courses": 1}}, {"type": "Feature", "geometry": {"type": "LineString", "coordinates": [[4.49847, 46.74997], [4.49812, 46.75713]]}, "properties": {"nom": "Étang de Longpendu", "region": "Bourgogne", "longueur_m": 796, "aire_ha": 18.4, "seuil_max_m": 700, "largeur_libre_m": 60, "plan_eau": 341, "rang": 1, "nb_courses": 1}}, {"type": "Feature", "geometry": {"type": "LineString", "coordinates": [[5.2816, 47.43328], [5.28993, 47.43714]]}, "properties": {"nom": "Étang de Noiron", "region": "Bourgogne", "longueur_m": 760, "aire_ha": 12.8, "seuil_max_m": 700, "largeur_libre_m": 60, "plan_eau": 343, "rang": 1, "nb_courses": 1}}, {"type": "Feature", "geometry": {"type": "LineString", "coordinates": [[4.51159, 46.78414], [4.52729, 46.78804]]}, "properties": {"nom": "Étang de Montaubry", "region": "Bourgogne", "longueur_m": 1274, "aire_ha": 88.1, "seuil_max_m": 1000, "largeur_libre_m": 60, "plan_eau": 348, "rang": 1, "nb_courses": 1}}, {"type": "Feature", "geometry": {"type": "LineString", "coordinates": [[5.38972, 46.6431], [5.39202, 46.64959]]}, "properties": {"nom": "Étang de Villeron", "region": "Bourgogne", "longueur_m": 742, "aire_ha": 30.0, "seuil_max_m": 700, "largeur_libre_m": 60, "plan_eau": 375, "rang": 1, "nb_courses": 1}}, {"type": "Feature", "geometry": {"type": "LineString", "coordinates": [[5.35852, 46.65004], [5.36803, 46.65123]]}, "properties": {"nom": "Étang des Claies", "region": "Bourgogne", "longueur_m": 739, "aire_ha": 26.4, "seuil_max_m": 700, "largeur_libre_m": 60, "plan_eau": 377, "rang": 1, "nb_courses": 1}}, {"type": "Feature", "geometry": {"type": "LineString", "coordinates": [[5.32284, 46.4911], [5.32204, 46.49838]]}, "properties": {"nom": "Étang de Louvarel", "region": "Bourgogne", "longueur_m": 811, "aire_ha": 18.4, "seuil_max_m": 700, "largeur_libre_m": 60, "plan_eau": 391, "rang": 1, "nb_courses": 1}}, {"type": "Feature", "geometry": {"type": "LineString", "coordinates": [[4.98688, 46.86563], [4.98711, 46.87197]]}, "properties": {"nom": null, "region": "Bourgogne", "longueur_m": 704, "aire_ha": 17.3, "seuil_max_m": 700, "largeur_libre_m": 60, "plan_eau": 419, "rang": 1, "nb_courses": 1}}, {"type": "Feature", "geometry": {"type": "LineString", "coordinates": [[5.11481, 46.98805], [5.11309, 46.99443]]}, "properties": {"nom": null, "region": "Bourgogne", "longueur_m": 720, "aire_ha": 24.0, "seuil_max_m": 700, "largeur_libre_m": 60, "plan_eau": 422, "rang": 1, "nb_courses": 1}}, {"type": "Feature", "geometry": {"type": "LineString", "coordinates": [[3.29124, 46.87751], [3.29052, 46.88753]]}, "properties": {"nom": null, "region": "Bourgogne", "longueur_m": 1114, "aire_ha": 40.2, "seuil_max_m": 1000, "largeur_libre_m": 60, "plan_eau": 424, "rang": 1, "nb_courses": 1}}, {"type": "Feature", "geometry": {"type": "LineString", "coordinates": [[4.46429, 46.77983], [4.45708, 46.79001]]}, "properties": {"nom": "Grand Étang de Torcy", "region": "Bourgogne", "longueur_m": 1257, "aire_ha": 55.1, "seuil_max_m": 1000, "largeur_libre_m": 60, "plan_eau": 430, "rang": 1, "nb_courses": 1}}, {"type": "Feature", "geometry": {"type": "LineString", "coordinates": [[3.91191, 47.12976], [3.8905, 47.15574]]}, "properties": {"nom": "Réservoir de Pannecière", "region": "Bourgogne", "longueur_m": 3310, "aire_ha": 430.7, "seuil_max_m": 3000, "largeur_libre_m": 60, "plan_eau": 444, "rang": 1, "nb_courses": 1}}, {"type": "Feature", "geometry": {"type": "LineString", "coordinates": [[4.49113, 46.85493], [4.48806, 46.86583]]}, "properties": {"nom": "Étang de Brandon", "region": "Bourgogne", "longueur_m": 1232, "aire_ha": 39.7, "seuil_max_m": 1000, "largeur_libre_m": 60, "plan_eau": 445, "rang": 1, "nb_courses": 1}}, {"type": "Feature", "geometry": {"type": "LineString", "coordinates": [[5.15958, 46.68403], [5.1691, 46.68419]]}, "properties": {"nom": "Étang du Charmoy", "region": "Bourgogne", "longueur_m": 727, "aire_ha": 16.9, "seuil_max_m": 700, "largeur_libre_m": 60, "plan_eau": 448, "rang": 1, "nb_courses": 1}}, {"type": "Feature", "geometry": {"type": "LineString", "coordinates": [[4.4775, 46.7184], [4.4684, 46.72489]]}, "properties": {"nom": "Étang Berthaud", "region": "Bourgogne", "longueur_m": 1002, "aire_ha": 39.5, "seuil_max_m": 1000, "largeur_libre_m": 60, "plan_eau": 458, "rang": 1, "nb_courses": 1}}, {"type": "Feature", "geometry": {"type": "LineString", "coordinates": [[5.01645, 47.00633], [5.01683, 47.01648]]}, "properties": {"nom": "Étang de Champ Jarley", "region": "Bourgogne", "longueur_m": 1127, "aire_ha": 31.3, "seuil_max_m": 1000, "largeur_libre_m": 60, "plan_eau": 470, "rang": 1, "nb_courses": 1}}, {"type": "Feature", "geometry": {"type": "LineString", "coordinates": [[3.28682, 48.15213], [3.30279, 48.15436]]}, "properties": {"nom": null, "region": "Bourgogne", "longueur_m": 1213, "aire_ha": 39.1, "seuil_max_m": 1000, "largeur_libre_m": 60, "plan_eau": 479, "rang": 1, "nb_courses": 1}}, {"type": "Feature", "geometry": {"type": "LineString", "coordinates": [[3.04049, 48.10717], [3.03683, 48.11633]]}, "properties": {"nom": "Étang de Galetas", "region": "Bourgogne", "longueur_m": 1054, "aire_ha": 63.0, "seuil_max_m": 1000, "largeur_libre_m": 60, "plan_eau": 513, "rang": 1, "nb_courses": 1}}, {"type": "Feature", "geometry": {"type": "LineString", "coordinates": [[5.13634, 46.88159], [5.14153, 46.88903]]}, "properties": {"nom": "Étang de Mervins", "region": "Bourgogne", "longueur_m": 916, "aire_ha": 18.0, "seuil_max_m": 700, "largeur_libre_m": 60, "plan_eau": 530, "rang": 1, "nb_courses": 1}}, {"type": "Feature", "geometry": {"type": "LineString", "coordinates": [[4.3584, 46.74103], [4.34487, 46.74969]]}, "properties": {"nom": null, "region": "Bourgogne", "longueur_m": 1411, "aire_ha": 39.5, "seuil_max_m": 1340, "largeur_libre_m": 60, "plan_eau": 536, "rang": 1, "nb_courses": 1}}, {"type": "Feature", "geometry": {"type": "LineString", "coordinates": [[3.63507, 47.18875], [3.63016, 47.19644]]}, "properties": {"nom": "Étang Neuf", "region": "Bourgogne", "longueur_m": 932, "aire_ha": 28.4, "seuil_max_m": 700, "largeur_libre_m": 60, "plan_eau": 541, "rang": 1, "nb_courses": 1}}, {"type": "Feature", "geometry": {"type": "LineString", "coordinates": [[4.35164, 47.46121], [4.36009, 47.46804]]}, "properties": {"nom": "Lac de Pont", "region": "Bourgogne", "longueur_m": 991, "aire_ha": 75.9, "seuil_max_m": 700, "largeur_libre_m": 60, "plan_eau": 548, "rang": 1, "nb_courses": 1}}, {"type": "Feature", "geometry": {"type": "LineString", "coordinates": [[5.19772, 46.88921], [5.19699, 46.89564]]}, "properties": {"nom": "Étang de la Chaînée", "region": "Bourgogne", "longueur_m": 717, "aire_ha": 20.1, "seuil_max_m": 700, "largeur_libre_m": 60, "plan_eau": 552, "rang": 1, "nb_courses": 1}}, {"type": "Feature", "geometry": {"type": "LineString", "coordinates": [[4.47058, 47.09277], [4.4789, 47.09631]]}, "properties": {"nom": "Étang de Breuil", "region": "Bourgogne", "longueur_m": 744, "aire_ha": 14.2, "seuil_max_m": 700, "largeur_libre_m": 60, "plan_eau": 569, "rang": 1, "nb_courses": 1}}, {"type": "Feature", "geometry": {"type": "LineString", "coordinates": [[5.34103, 47.0951], [5.3482, 47.10303]]}, "properties": {"nom": "Étang du Milieu", "region": "Bourgogne", "longueur_m": 1036, "aire_ha": 31.5, "seuil_max_m": 1000, "largeur_libre_m": 60, "plan_eau": 571, "rang": 1, "nb_courses": 1}}, {"type": "Feature", "geometry": {"type": "LineString", "coordinates": [[3.10771, 48.33918], [3.11852, 48.34194]]}, "properties": {"nom": null, "region": "Bourgogne", "longueur_m": 857, "aire_ha": 32.0, "seuil_max_m": 700, "largeur_libre_m": 60, "plan_eau": 587, "rang": 1, "nb_courses": 1}}, {"type": "Feature", "geometry": {"type": "LineString", "coordinates": [[4.48231, 46.73655], [4.48994, 46.74349]]}, "properties": {"nom": "Étang de Montchanin", "region": "Bourgogne", "longueur_m": 966, "aire_ha": 23.8, "seuil_max_m": 700, "largeur_libre_m": 60, "plan_eau": 602, "rang": 1, "nb_courses": 1}}, {"type": "Feature", "geometry": {"type": "LineString", "coordinates": [[4.50322, 47.25029], [4.50834, 47.25888]]}, "properties": {"nom": "Reservoir de Cercey", "region": "Bourgogne", "longueur_m": 1029, "aire_ha": 69.5, "seuil_max_m": 1000, "largeur_libre_m": 60, "plan_eau": 607, "rang": 1, "nb_courses": 1}}, {"type": "Feature", "geometry": {"type": "LineString", "coordinates": [[5.33867, 46.89027], [5.3482, 46.89077]]}, "properties": {"nom": "Étang du Meix", "region": "Bourgogne", "longueur_m": 728, "aire_ha": 21.2, "seuil_max_m": 700, "largeur_libre_m": 60, "plan_eau": 618, "rang": 1, "nb_courses": 1}}, {"type": "Feature", "geometry": {"type": "LineString", "coordinates": [[3.11473, 47.60471], [3.09021, 47.60917]]}, "properties": {"nom": "Lac du Bourdon", "region": "Bourgogne", "longueur_m": 1908, "aire_ha": 123.8, "seuil_max_m": 1500, "largeur_libre_m": 60, "plan_eau": 633, "rang": 1, "nb_courses": 1}}, {"type": "Feature", "geometry": {"type": "LineString", "coordinates": [[4.4441, 46.58058], [4.46061, 46.58156]]}, "properties": {"nom": "Étang du Rousset", "region": "Bourgogne", "longueur_m": 1269, "aire_ha": 41.2, "seuil_max_m": 1000, "largeur_libre_m": 60, "plan_eau": 660, "rang": 1, "nb_courses": 1}}, {"type": "Feature", "geometry": {"type": "LineString", "coordinates": [[3.22242, 46.94603], [3.21812, 46.95185]]}, "properties": {"nom": null, "region": "Bourgogne", "longueur_m": 724, "aire_ha": 25.7, "seuil_max_m": 700, "largeur_libre_m": 60, "plan_eau": 697, "rang": 1, "nb_courses": 1}}, {"type": "Feature", "geometry": {"type": "LineString", "coordinates": [[4.17143, 47.27856], [4.16866, 47.28605]]}, "properties": {"nom": "Étang Fortier", "region": "Bourgogne", "longueur_m": 858, "aire_ha": 22.3, "seuil_max_m": 700, "largeur_libre_m": 60, "plan_eau": 733, "rang": 1, "nb_courses": 1}}, {"type": "Feature", "geometry": {"type": "LineString", "coordinates": [[2.90379, 47.32622], [2.9149, 47.32912]]}, "properties": {"nom": "Étang des Hâtes", "region": "Bourgogne", "longueur_m": 899, "aire_ha": 14.0, "seuil_max_m": 700, "largeur_libre_m": 60, "plan_eau": 740, "rang": 1, "nb_courses": 1}}, {"type": "Feature", "geometry": {"type": "LineString", "coordinates": [[4.62499, 47.23797], [4.63523, 47.2495]]}, "properties": {"nom": "Lac de Panthier", "region": "Bourgogne", "longueur_m": 1496, "aire_ha": 117.2, "seuil_max_m": 1340, "largeur_libre_m": 60, "plan_eau": 772, "rang": 1, "nb_courses": 1}}, {"type": "Feature", "geometry": {"type": "LineString", "coordinates": [[4.10054, 47.31957], [4.07693, 47.33607]]}, "properties": {"nom": "Lac de Saint-Agnan", "region": "Bourgogne", "longueur_m": 2558, "aire_ha": 122.4, "seuil_max_m": 2000, "largeur_libre_m": 60, "plan_eau": 791, "rang": 1, "nb_courses": 1}}, {"type": "Feature", "geometry": {"type": "LineString", "coordinates": [[4.06857, 47.17352], [4.0635, 47.19742]]}, "properties": {"nom": "Lac des Settons", "region": "Bourgogne", "longueur_m": 2683, "aire_ha": 328.3, "seuil_max_m": 2000, "largeur_libre_m": 60, "plan_eau": 800, "rang": 1, "nb_courses": 1}}, {"type": "Feature", "geometry": {"type": "LineString", "coordinates": [[4.56131, 47.07927], [4.57348, 47.07998]]}, "properties": {"nom": "Étang de Lacanche", "region": "Bourgogne", "longueur_m": 927, "aire_ha": 36.7, "seuil_max_m": 700, "largeur_libre_m": 60, "plan_eau": 801, "rang": 1, "nb_courses": 1}}, {"type": "Feature", "geometry": {"type": "LineString", "coordinates": [[4.30915, 46.91816], [4.29679, 46.92157]]}, "properties": {"nom": "Étang de la Toison", "region": "Bourgogne", "longueur_m": 1014, "aire_ha": 35.8, "seuil_max_m": 1000, "largeur_libre_m": 60, "plan_eau": 803, "rang": 1, "nb_courses": 1}}]}