{"type": "FeatureCollection", "metadata": {"region": "Poitou-Charentes", "source": "OpenStreetMap via Geofabrik", "methode": "recollage des polygones contigus, erosion de W/2, plus longue corde inscrite", "largeur_libre_m": 60, "avertissement": "profondeur, obstacles et degagement d'approche NON pris en compte : borne haute de candidats"}, "features": [{"type": "Feature", "geometry": {"type": "LineString", "coordinates": [[-1.13156, 46.30517], [-1.12249, 46.31929]]}, "properties": {"nom": null, "region": "Poitou-Charentes", "longueur_m": 1716, "aire_ha": 755.0, "seuil_max_m": 1500, "largeur_libre_m": 60}}, {"type": "Feature", "geometry": {"type": "LineString", "coordinates": [[-0.78763, 47.00666], [-0.82319, 47.01329]]}, "properties": {"nom": "Lac du Verdon", "region": "Poitou-Charentes", "longueur_m": 2800, "aire_ha": 213.1, "seuil_max_m": 2000, "largeur_libre_m": 60}}, {"type": "Feature", "geometry": {"type": "LineString", "coordinates": [[-1.23067, 46.15164], [-1.23703, 46.16518]]}, "properties": {"nom": "Grand Port Maritime de La Rochelle", "region": "Poitou-Charentes", "longueur_m": 1582, "aire_ha": 128.2, "seuil_max_m": 1500, "largeur_libre_m": 60}}, {"type": "Feature", "geometry": {"type": "LineString", "coordinates": [[-1.5211, 46.23202], [-1.51915, 46.23854]]}, "properties": {"nom": null, "region": "Poitou-Charentes", "longueur_m": 740, "aire_ha": 24.8, "seuil_max_m": 700, "largeur_libre_m": 60}}, {"type": "Feature", "geometry": {"type": "LineString", "coordinates": [[0.56333, 47.01627], [0.54606, 47.0286]]}, "properties": {"nom": "La Creuse", "region": "Poitou-Charentes", "longueur_m": 1896, "aire_ha": 1679.8, "seuil_max_m": 1500, "largeur_libre_m": 60}}, {"type": "Feature", "geometry": {"type": "LineString", "coordinates": [[-0.43575, 46.84014], [-0.4245, 46.84048]]}, "properties": {"nom": "Étang de la Madoire", "region": "Poitou-Charentes", "longueur_m": 858, "aire_ha": 29.2, "seuil_max_m": 700, "largeur_libre_m": 60}}, {"type": "Feature", "geometry": {"type": "LineString", "coordinates": [[-0.95442, 45.93438], [-0.95258, 45.94635]]}, "properties": {"nom": "La Charente", "region": "Poitou-Charentes", "longueur_m": 1337, "aire_ha": 1798.9, "seuil_max_m": 1000, "largeur_libre_m": 60}}, {"type": "Feature", "geometry": {"type": "LineString", "coordinates": [[-0.92979, 45.91694], [-0.92444, 45.92658]]}, "properties": {"nom": null, "region": "Poitou-Charentes", "longueur_m": 1148, "aire_ha": 41.1, "seuil_max_m": 1000, "largeur_libre_m": 60}}, {"type": "Feature", "geometry": {"type": "LineString", "coordinates": [[1.00798, 46.30314], [1.01779, 46.30367]]}, "properties": {"nom": "Le Grand Étang", "region": "Poitou-Charentes", "longueur_m": 757, "aire_ha": 29.4, "seuil_max_m": 700, "largeur_libre_m": 60}}, {"type": "Feature", "geometry": {"type": "LineString", "coordinates": [[0.80752, 46.14809], [0.82203, 46.14943]]}, "properties": {"nom": "Lac de Villedon", "region": "Poitou-Charentes", "longueur_m": 1130, "aire_ha": 28.5, "seuil_max_m": 1000, "largeur_libre_m": 60}}, {"type": "Feature", "geometry": {"type": "LineString", "coordinates": [[-0.48662, 47.06447], [-0.47728, 47.07309]]}, "properties": {"nom": "Étang de Beaurepaire", "region": "Poitou-Charentes", "longueur_m": 1192, "aire_ha": 36.9, "seuil_max_m": 1000, "largeur_libre_m": 60}}, {"type": "Feature", "geometry": {"type": "LineString", "coordinates": [[-0.18975, 46.76226], [-0.20001, 46.7722]]}, "properties": {"nom": "Lac du Cébron", "region": "Poitou-Charentes", "longueur_m": 1353, "aire_ha": 175.9, "seuil_max_m": 1340, "largeur_libre_m": 60}}, {"type": "Feature", "geometry": {"type": "LineString", "coordinates": [[0.14986, 45.68077], [0.15205, 45.68952]]}, "properties": {"nom": null, "region": "Poitou-Charentes", "longueur_m": 987, "aire_ha": 23.8, "seuil_max_m": 700, "largeur_libre_m": 60}}, {"type": "Feature", "geometry": {"type": "LineString", "coordinates": [[-0.47827, 45.39616], [-0.47537, 45.40353]]}, "properties": {"nom": "Étang d'Allas", "region": "Poitou-Charentes", "longueur_m": 850, "aire_ha": 13.0, "seuil_max_m": 700, "largeur_libre_m": 60}}, {"type": "Feature", "geometry": {"type": "LineString", "coordinates": [[-0.31757, 46.97116], [-0.32798, 46.97123]]}, "properties": {"nom": "Étang de Juigny", "region": "Poitou-Charentes", "longueur_m": 791, "aire_ha": 21.7, "seuil_max_m": 700, "largeur_libre_m": 60}}, {"type": "Feature", "geometry": {"type": "LineString", "coordinates": [[-0.22599, 46.49249], [-0.2324, 46.49702]]}, "properties": {"nom": null, "region": "Poitou-Charentes", "longueur_m": 703, "aire_ha": 19.5, "seuil_max_m": 700, "largeur_libre_m": 60}}, {"type": "Feature", "geometry": {"type": "LineString", "coordinates": [[-0.20282, 46.46009], [-0.19824, 46.47137]]}, "properties": {"nom": "Lac de la Touche Poupard", "region": "Poitou-Charentes", "longueur_m": 1302, "aire_ha": 115.2, "seuil_max_m": 1000, "largeur_libre_m": 60}}, {"type": "Feature", "geometry": {"type": "LineString", "coordinates": [[-0.99275, 46.00959], [-0.99836, 46.01842]]}, "properties": {"nom": null, "region": "Poitou-Charentes", "longueur_m": 1073, "aire_ha": 30.2, "seuil_max_m": 1000, "largeur_libre_m": 60}}, {"type": "Feature", "geometry": {"type": "LineString", "coordinates": [[-1.12667, 45.7851], [-1.13842, 45.79332]]}, "properties": {"nom": null, "region": "Poitou-Charentes", "longueur_m": 1291, "aire_ha": 37.9, "seuil_max_m": 1000, "largeur_libre_m": 60}}, {"type": "Feature", "geometry": {"type": "LineString", "coordinates": [[0.68127, 46.20815], [0.67533, 46.21967]]}, "properties": {"nom": null, "region": "Poitou-Charentes", "longueur_m": 1359, "aire_ha": 158.9, "seuil_max_m": 1340, "largeur_libre_m": 60}}, {"type": "Feature", "geometry": {"type": "LineString", "coordinates": [[0.82926, 46.36736], [0.8171, 46.37136]]}, "properties": {"nom": "Étang de Beaufour", "region": "Poitou-Charentes", "longueur_m": 1035, "aire_ha": 25.8, "seuil_max_m": 1000, "largeur_libre_m": 60}}, {"type": "Feature", "geometry": {"type": "LineString", "coordinates": [[-0.24273, 45.40996], [-0.25948, 45.41261]]}, "properties": {"nom": "Étang de Saint-Maigrin", "region": "Poitou-Charentes", "longueur_m": 1343, "aire_ha": 28.6, "seuil_max_m": 1340, "largeur_libre_m": 60}}, {"type": "Feature", "geometry": {"type": "LineString", "coordinates": [[0.70028, 45.80218], [0.68448, 45.82516]]}, "properties": {"nom": "Lac de Lavaud", "region": "Poitou-Charentes", "longueur_m": 2832, "aire_ha": 187.2, "seuil_max_m": 2000, "largeur_libre_m": 60}}, {"type": "Feature", "geometry": {"type": "LineString", "coordinates": [[0.6482, 45.79307], [0.64519, 45.81864]]}, "properties": {"nom": "Lac de Mas Chaban", "region": "Poitou-Charentes", "longueur_m": 2850, "aire_ha": 173.1, "seuil_max_m": 2000, "largeur_libre_m": 60}}, {"type": "Feature", "geometry": {"type": "LineString", "coordinates": [[0.45734, 46.72249], [0.47321, 46.73096]]}, "properties": {"nom": "Lac de Saint Cyr", "region": "Poitou-Charentes", "longueur_m": 1534, "aire_ha": 63.9, "seuil_max_m": 1500, "largeur_libre_m": 60}}, {"type": "Feature", "geometry": {"type": "LineString", "coordinates": [[-0.94204, 45.75953], [-0.93279, 45.76089]]}, "properties": {"nom": "Lac de Cadeuil", "region": "Poitou-Charentes", "longueur_m": 735, "aire_ha": 25.6, "seuil_max_m": 700, "largeur_libre_m": 60}}, {"type": "Feature", "geometry": {"type": "LineString", "coordinates": [[0.66179, 46.14929], [0.66808, 46.16424]]}, "properties": {"nom": null, "region": "Poitou-Charentes", "longueur_m": 1729, "aire_ha": 513.4, "seuil_max_m": 1500, "largeur_libre_m": 60}}, {"type": "Feature", "geometry": {"type": "LineString", "coordinates": [[-1.12407, 46.25615], [-1.11503, 46.26022]]}, "properties": {"nom": null, "region": "Poitou-Charentes", "longueur_m": 830, "aire_ha": 19.8, "seuil_max_m": 700, "largeur_libre_m": 60}}]}