{"type": "FeatureCollection", "metadata": {"region": "Nord-Pas-de-Calais", "source": "OpenStreetMap via Geofabrik", "methode": "recollage des polygones contigus, erosion de W/2, plus longue corde inscrite", "largeur_libre_m": 60, "avertissement": "profondeur, obstacles et degagement d'approche NON pris en compte : borne haute de candidats"}, "features": [{"type": "Feature", "geometry": {"type": "LineString", "coordinates": [[1.60987, 50.70706], [1.60214, 50.7213]]}, "properties": {"nom": "La Liane", "region": "Nord-Pas-de-Calais", "longueur_m": 1679, "aire_ha": 47.0, "seuil_max_m": 1500, "largeur_libre_m": 60}}, {"type": "Feature", "geometry": {"type": "LineString", "coordinates": [[2.18049, 50.99998], [2.16497, 51.04378]]}, "properties": {"nom": "Avant Port Ouest", "region": "Nord-Pas-de-Calais", "longueur_m": 5003, "aire_ha": 2165.6, "seuil_max_m": 3000, "largeur_libre_m": 60}}, {"type": "Feature", "geometry": {"type": "LineString", "coordinates": [[2.04434, 50.99182], [2.05322, 50.99515]]}, "properties": {"nom": null, "region": "Nord-Pas-de-Calais", "longueur_m": 727, "aire_ha": 21.6, "seuil_max_m": 700, "largeur_libre_m": 60}}, {"type": "Feature", "geometry": {"type": "LineString", "coordinates": [[3.55194, 50.46315], [3.53711, 50.46371]]}, "properties": {"nom": "Étang d'Amaury", "region": "Nord-Pas-de-Calais", "longueur_m": 1056, "aire_ha": 63.4, "seuil_max_m": 1000, "largeur_libre_m": 60}}, {"type": "Feature", "geometry": {"type": "LineString", "coordinates": [[3.11778, 50.3154], [3.1075, 50.3161]]}, "properties": {"nom": null, "region": "Nord-Pas-de-Calais", "longueur_m": 737, "aire_ha": 32.8, "seuil_max_m": 700, "largeur_libre_m": 60}}, {"type": "Feature", "geometry": {"type": "LineString", "coordinates": [[4.13988, 50.06624], [4.15705, 50.06724]]}, "properties": {"nom": "Étang de la Folie", "region": "Nord-Pas-de-Calais", "longueur_m": 1235, "aire_ha": 41.8, "seuil_max_m": 1000, "largeur_libre_m": 60}}, {"type": "Feature", "geometry": {"type": "LineString", "coordinates": [[3.07384, 50.26941], [3.05864, 50.27044]]}, "properties": {"nom": "Marais du Grand Clair", "region": "Nord-Pas-de-Calais", "longueur_m": 1091, "aire_ha": 178.6, "seuil_max_m": 1000, "largeur_libre_m": 60}}, {"type": "Feature", "geometry": {"type": "LineString", "coordinates": [[3.1644, 50.63601], [3.1772, 50.63642]]}, "properties": {"nom": "Lac du Héron", "region": "Nord-Pas-de-Calais", "longueur_m": 908, "aire_ha": 41.7, "seuil_max_m": 700, "largeur_libre_m": 60}}, {"type": "Feature", "geometry": {"type": "LineString", "coordinates": [[3.28929, 50.24973], [3.29827, 50.25544]]}, "properties": {"nom": "Le Bassin Rond", "region": "Nord-Pas-de-Calais", "longueur_m": 904, "aire_ha": 834.4, "seuil_max_m": 700, "largeur_libre_m": 60}}, {"type": "Feature", "geometry": {"type": "LineString", "coordinates": [[2.14594, 50.95726], [2.13165, 50.9745]]}, "properties": {"nom": "Stade Olympique", "region": "Nord-Pas-de-Calais", "longueur_m": 2169, "aire_ha": 31.3, "seuil_max_m": 2000, "largeur_libre_m": 60}}, {"type": "Feature", "geometry": {"type": "LineString", "coordinates": [[1.97751, 50.86218], [1.97734, 50.8704]]}, "properties": {"nom": "Étang d'Ardres", "region": "Nord-Pas-de-Calais", "longueur_m": 917, "aire_ha": 34.0, "seuil_max_m": 700, "largeur_libre_m": 60}}, {"type": "Feature", "geometry": {"type": "LineString", "coordinates": [[3.61774, 50.45024], [3.59545, 50.45498]]}, "properties": {"nom": "Étang Chabaud Latour", "region": "Nord-Pas-de-Calais", "longueur_m": 1671, "aire_ha": 102.2, "seuil_max_m": 1500, "largeur_libre_m": 60}}, {"type": "Feature", "geometry": {"type": "LineString", "coordinates": [[1.65056, 50.36243], [1.65263, 50.36923]]}, "properties": {"nom": null, "region": "Nord-Pas-de-Calais", "longueur_m": 771, "aire_ha": 20.9, "seuil_max_m": 700, "largeur_libre_m": 60}}, {"type": "Feature", "geometry": {"type": "LineString", "coordinates": [[2.44263, 51.03747], [2.43178, 51.03777]]}, "properties": {"nom": "Lac de Téteghem", "region": "Nord-Pas-de-Calais", "longueur_m": 763, "aire_ha": 35.1, "seuil_max_m": 700, "largeur_libre_m": 60}}, {"type": "Feature", "geometry": {"type": "LineString", "coordinates": [[4.14844, 50.11446], [4.12846, 50.11739]]}, "properties": {"nom": "Lac du Val-Joly", "region": "Nord-Pas-de-Calais", "longueur_m": 1467, "aire_ha": 137.9, "seuil_max_m": 1340, "largeur_libre_m": 60}}, {"type": "Feature", "geometry": {"type": "LineString", "coordinates": [[2.27522, 50.99542], [2.28413, 51.00115]]}, "properties": {"nom": "Lac du Puythouck", "region": "Nord-Pas-de-Calais", "longueur_m": 895, "aire_ha": 27.2, "seuil_max_m": 700, "largeur_libre_m": 60}}, {"type": "Feature", "geometry": {"type": "LineString", "coordinates": [[3.4919, 50.34115], [3.50686, 50.34965]]}, "properties": {"nom": "Étang du Vignoble", "region": "Nord-Pas-de-Calais", "longueur_m": 1426, "aire_ha": 54.7, "seuil_max_m": 1340, "largeur_libre_m": 60}}, {"type": "Feature", "geometry": {"type": "LineString", "coordinates": [[3.42138, 50.39398], [3.44291, 50.39758]]}, "properties": {"nom": "Mare a Goriaux", "region": "Nord-Pas-de-Calais", "longueur_m": 1585, "aire_ha": 77.0, "seuil_max_m": 1500, "largeur_libre_m": 60}}, {"type": "Feature", "geometry": {"type": "LineString", "coordinates": [[2.86582, 50.69687], [2.88081, 50.70054]]}, "properties": {"nom": "Lac du prés du Hem", "region": "Nord-Pas-de-Calais", "longueur_m": 1137, "aire_ha": 43.2, "seuil_max_m": 1000, "largeur_libre_m": 60}}, {"type": "Feature", "geometry": {"type": "LineString", "coordinates": [[2.21513, 51.00567], [2.21121, 51.01304]]}, "properties": {"nom": null, "region": "Nord-Pas-de-Calais", "longueur_m": 867, "aire_ha": 18.0, "seuil_max_m": 700, "largeur_libre_m": 60}}, {"type": "Feature", "geometry": {"type": "LineString", "coordinates": [[2.18898, 50.98973], [2.17848, 50.99393]]}, "properties": {"nom": null, "region": "Nord-Pas-de-Calais", "longueur_m": 875, "aire_ha": 29.3, "seuil_max_m": 700, "largeur_libre_m": 60}}, {"type": "Feature", "geometry": {"type": "LineString", "coordinates": [[1.84206, 50.97359], [1.87366, 50.98158]]}, "properties": {"nom": "Grand Bassin Général De Gaulle", "region": "Nord-Pas-de-Calais", "longueur_m": 2396, "aire_ha": 180.3, "seuil_max_m": 2000, "largeur_libre_m": 60}}, {"type": "Feature", "geometry": {"type": "LineString", "coordinates": [[1.84798, 50.96797], [1.86981, 50.97036]]}, "properties": {"nom": "Bassin Président Henri-Ravisse", "region": "Nord-Pas-de-Calais", "longueur_m": 1560, "aire_ha": 41.1, "seuil_max_m": 1500, "largeur_libre_m": 60}}, {"type": "Feature", "geometry": {"type": "LineString", "coordinates": [[3.15319, 50.26424], [3.13884, 50.26621]]}, "properties": {"nom": "Marais d'Aubigny", "region": "Nord-Pas-de-Calais", "longueur_m": 1047, "aire_ha": 44.7, "seuil_max_m": 1000, "largeur_libre_m": 60}}]}