{"type": "FeatureCollection", "metadata": {"region": "Bretagne", "source": "OpenStreetMap via Geofabrik", "methode": "recollage des polygones contigus, erosion de W/2, plus longue corde inscrite", "largeur_libre_m": 60, "avertissement": "profondeur, obstacles et degagement d'approche NON pris en compte : borne haute de candidats"}, "features": [{"type": "Feature", "geometry": {"type": "LineString", "coordinates": [[-2.38271, 47.49608], [-2.35537, 47.50853]]}, "properties": {"nom": "La Vilaine", "region": "Bretagne", "longueur_m": 2479, "aire_ha": 1398.6, "seuil_max_m": 2000, "largeur_libre_m": 60}}, {"type": "Feature", "geometry": {"type": "LineString", "coordinates": [[-3.87565, 48.34822], [-3.92193, 48.3626]]}, "properties": {"nom": "Lac de Brennilis", "region": "Bretagne", "longueur_m": 3782, "aire_ha": 433.9, "seuil_max_m": 3000, "largeur_libre_m": 60}}, {"type": "Feature", "geometry": {"type": "LineString", "coordinates": [[-4.60752, 48.42778], [-4.61554, 48.43131]]}, "properties": {"nom": "Lac de Ty-Colo", "region": "Bretagne", "longueur_m": 711, "aire_ha": 13.3, "seuil_max_m": 700, "largeur_libre_m": 60}}, {"type": "Feature", "geometry": {"type": "LineString", "coordinates": [[-1.94923, 48.0008], [-1.96376, 48.00443]]}, "properties": {"nom": "Grand Étang de la Musse", "region": "Bretagne", "longueur_m": 1156, "aire_ha": 40.3, "seuil_max_m": 1000, "largeur_libre_m": 60}}, {"type": "Feature", "geometry": {"type": "LineString", "coordinates": [[-1.58531, 48.29565], [-1.58088, 48.3024]]}, "properties": {"nom": "Étang d'Andouillé", "region": "Bretagne", "longueur_m": 819, "aire_ha": 20.0, "seuil_max_m": 700, "largeur_libre_m": 60}}, {"type": "Feature", "geometry": {"type": "LineString", "coordinates": [[-3.0539, 47.72002], [-3.06228, 47.72486]]}, "properties": {"nom": "Étang du Crannic", "region": "Bretagne", "longueur_m": 827, "aire_ha": 39.1, "seuil_max_m": 700, "largeur_libre_m": 60}}, {"type": "Feature", "geometry": {"type": "LineString", "coordinates": [[-3.50017, 47.74134], [-3.48356, 47.74226]]}, "properties": {"nom": "Étang de Lannenec", "region": "Bretagne", "longueur_m": 1249, "aire_ha": 55.0, "seuil_max_m": 1000, "largeur_libre_m": 60}}, {"type": "Feature", "geometry": {"type": "LineString", "coordinates": [[-3.87389, 47.81801], [-3.86432, 47.81998]]}, "properties": {"nom": "Loc'h Lougar", "region": "Bretagne", "longueur_m": 749, "aire_ha": 24.5, "seuil_max_m": 700, "largeur_libre_m": 60}}, {"type": "Feature", "geometry": {"type": "LineString", "coordinates": [[-2.31573, 48.39731], [-2.32452, 48.40432]]}, "properties": {"nom": "Étang de Jugon-les-Lacs", "region": "Bretagne", "longueur_m": 1015, "aire_ha": 51.0, "seuil_max_m": 1000, "largeur_libre_m": 60}}, {"type": "Feature", "geometry": {"type": "LineString", "coordinates": [[-2.83463, 48.49518], [-2.83163, 48.50332]]}, "properties": {"nom": "Lac Saint-Barthélémy", "region": "Bretagne", "longueur_m": 932, "aire_ha": 76.3, "seuil_max_m": 700, "largeur_libre_m": 60}}, {"type": "Feature", "geometry": {"type": "LineString", "coordinates": [[-1.39086, 48.12263], [-1.38414, 48.12716]]}, "properties": {"nom": "Étang de Fayelle", "region": "Bretagne", "longueur_m": 710, "aire_ha": 12.6, "seuil_max_m": 700, "largeur_libre_m": 60}}, {"type": "Feature", "geometry": {"type": "LineString", "coordinates": [[-3.40115, 48.2096], [-3.38951, 48.21979]]}, "properties": {"nom": "Étang du Coroncq", "region": "Bretagne", "longueur_m": 1425, "aire_ha": 49.1, "seuil_max_m": 1340, "largeur_libre_m": 60}}, {"type": "Feature", "geometry": {"type": "LineString", "coordinates": [[-3.53109, 47.77133], [-3.53068, 47.78398]]}, "properties": {"nom": null, "region": "Bretagne", "longueur_m": 1406, "aire_ha": 198.2, "seuil_max_m": 1340, "largeur_libre_m": 60}}, {"type": "Feature", "geometry": {"type": "LineString", "coordinates": [[-2.31287, 48.48202], [-2.30791, 48.491]]}, "properties": {"nom": "Barrage de Arguenon", "region": "Bretagne", "longueur_m": 1063, "aire_ha": 167.8, "seuil_max_m": 1000, "largeur_libre_m": 60}}, {"type": "Feature", "geometry": {"type": "LineString", "coordinates": [[-1.09773, 48.1445], [-1.12551, 48.14846]]}, "properties": {"nom": "Plan d'eau de la Haute Vilaine", "region": "Bretagne", "longueur_m": 2112, "aire_ha": 138.3, "seuil_max_m": 2000, "largeur_libre_m": 60}}, {"type": "Feature", "geometry": {"type": "LineString", "coordinates": [[-2.38927, 48.21917], [-2.38156, 48.22449]]}, "properties": {"nom": "Étang de la Hardouinais", "region": "Bretagne", "longueur_m": 822, "aire_ha": 32.8, "seuil_max_m": 700, "largeur_libre_m": 60}}, {"type": "Feature", "geometry": {"type": "LineString", "coordinates": [[-2.90754, 48.30712], [-2.91782, 48.30697]]}, "properties": {"nom": "Lac de Bosméléac", "region": "Bretagne", "longueur_m": 762, "aire_ha": 45.7, "seuil_max_m": 700, "largeur_libre_m": 60}}, {"type": "Feature", "geometry": {"type": "LineString", "coordinates": [[-2.17297, 48.01625], [-2.18157, 48.02187]]}, "properties": {"nom": "Étang de l'Abbaye de Paimpont", "region": "Bretagne", "longueur_m": 894, "aire_ha": 43.3, "seuil_max_m": 700, "largeur_libre_m": 60}}, {"type": "Feature", "geometry": {"type": "LineString", "coordinates": [[-2.14513, 48.03461], [-2.12977, 48.04073]]}, "properties": {"nom": "Étang du Pas du Houx", "region": "Bretagne", "longueur_m": 1332, "aire_ha": 54.8, "seuil_max_m": 1000, "largeur_libre_m": 60}}, {"type": "Feature", "geometry": {"type": "LineString", "coordinates": [[-2.01846, 48.09322], [-2.03162, 48.0988]]}, "properties": {"nom": "Lac de Trémelin", "region": "Bretagne", "longueur_m": 1160, "aire_ha": 42.3, "seuil_max_m": 1000, "largeur_libre_m": 60}}, {"type": "Feature", "geometry": {"type": "LineString", "coordinates": [[-4.36155, 47.89322], [-4.34231, 47.89802]]}, "properties": {"nom": "Étang de Trunvel", "region": "Bretagne", "longueur_m": 1534, "aire_ha": 51.6, "seuil_max_m": 1500, "largeur_libre_m": 60}}, {"type": "Feature", "geometry": {"type": "LineString", "coordinates": [[-4.23714, 47.88628], [-4.24318, 47.89728]]}, "properties": {"nom": "Retenue du Moulin-Neuf", "region": "Bretagne", "longueur_m": 1304, "aire_ha": 49.0, "seuil_max_m": 1000, "largeur_libre_m": 60}}, {"type": "Feature", "geometry": {"type": "LineString", "coordinates": [[-2.41922, 47.94524], [-2.40563, 47.96666]]}, "properties": {"nom": "Lac au Duc", "region": "Bretagne", "longueur_m": 2587, "aire_ha": 192.7, "seuil_max_m": 2000, "largeur_libre_m": 60}}, {"type": "Feature", "geometry": {"type": "LineString", "coordinates": [[-1.81671, 47.73367], [-1.80661, 47.73481]]}, "properties": {"nom": "Étang de la Taberge", "region": "Bretagne", "longueur_m": 767, "aire_ha": 18.4, "seuil_max_m": 700, "largeur_libre_m": 60}}, {"type": "Feature", "geometry": {"type": "LineString", "coordinates": [[-2.09428, 47.50769], [-2.08445, 47.51119]]}, "properties": {"nom": "Étang du Gué aux Biches", "region": "Bretagne", "longueur_m": 836, "aire_ha": 18.6, "seuil_max_m": 700, "largeur_libre_m": 60}}, {"type": "Feature", "geometry": {"type": "LineString", "coordinates": [[-2.41778, 47.46291], [-2.42502, 47.46944]]}, "properties": {"nom": "Étang du Pont de Fer", "region": "Bretagne", "longueur_m": 907, "aire_ha": 34.8, "seuil_max_m": 700, "largeur_libre_m": 60}}, {"type": "Feature", "geometry": {"type": "LineString", "coordinates": [[-1.82122, 48.50618], [-1.81972, 48.51288]]}, "properties": {"nom": "Étang de Beaufort", "region": "Bretagne", "longueur_m": 753, "aire_ha": 28.9, "seuil_max_m": 700, "largeur_libre_m": 60}}, {"type": "Feature", "geometry": {"type": "LineString", "coordinates": [[-1.30249, 48.19918], [-1.29283, 48.2013]]}, "properties": {"nom": "Étang de la Noë", "region": "Bretagne", "longueur_m": 755, "aire_ha": 25.2, "seuil_max_m": 700, "largeur_libre_m": 60}}, {"type": "Feature", "geometry": {"type": "LineString", "coordinates": [[-4.43445, 48.22852], [-4.4586, 48.2349]]}, "properties": {"nom": null, "region": "Bretagne", "longueur_m": 1929, "aire_ha": 132.5, "seuil_max_m": 1500, "largeur_libre_m": 60}}, {"type": "Feature", "geometry": {"type": "LineString", "coordinates": [[-3.77177, 47.78924], [-3.78834, 47.79063]]}, "properties": {"nom": null, "region": "Bretagne", "longueur_m": 1250, "aire_ha": 81.7, "seuil_max_m": 1000, "largeur_libre_m": 60}}, {"type": "Feature", "geometry": {"type": "LineString", "coordinates": [[-3.40761, 48.8272], [-3.41393, 48.8444]]}, "properties": {"nom": null, "region": "Bretagne", "longueur_m": 1968, "aire_ha": 103.6, "seuil_max_m": 1500, "largeur_libre_m": 60}}, {"type": "Feature", "geometry": {"type": "LineString", "coordinates": [[-2.02061, 48.65047], [-2.01019, 48.65091]]}, "properties": {"nom": "Bassin Duguay-Trouin", "region": "Bretagne", "longueur_m": 770, "aire_ha": 52.3, "seuil_max_m": 700, "largeur_libre_m": 60}}, {"type": "Feature", "geometry": {"type": "LineString", "coordinates": [[-1.75307, 48.40537], [-1.74329, 48.40833]]}, "properties": {"nom": "Lac Tranquille", "region": "Bretagne", "longueur_m": 795, "aire_ha": 16.3, "seuil_max_m": 700, "largeur_libre_m": 60}}, {"type": "Feature", "geometry": {"type": "LineString", "coordinates": [[-1.67765, 47.83171], [-1.67713, 47.83939]]}, "properties": {"nom": "Étang de la Bornière", "region": "Bretagne", "longueur_m": 854, "aire_ha": 34.8, "seuil_max_m": 700, "largeur_libre_m": 60}}, {"type": "Feature", "geometry": {"type": "LineString", "coordinates": [[-1.35708, 47.94643], [-1.34165, 47.954]]}, "properties": {"nom": "Étang de Carcraon", "region": "Bretagne", "longueur_m": 1426, "aire_ha": 205.3, "seuil_max_m": 1340, "largeur_libre_m": 60}}, {"type": "Feature", "geometry": {"type": "LineString", "coordinates": [[-1.76696, 48.3068], [-1.76299, 48.31702]]}, "properties": {"nom": "Bassin de Bazouges", "region": "Bretagne", "longueur_m": 1174, "aire_ha": 40.3, "seuil_max_m": 1000, "largeur_libre_m": 60}}, {"type": "Feature", "geometry": {"type": "LineString", "coordinates": [[-1.45117, 48.26491], [-1.47418, 48.26485]]}, "properties": {"nom": "Étang d'Ouée", "region": "Bretagne", "longueur_m": 1708, "aire_ha": 63.3, "seuil_max_m": 1500, "largeur_libre_m": 60}}, {"type": "Feature", "geometry": {"type": "LineString", "coordinates": [[-1.4602, 48.1937], [-1.45198, 48.19691]]}, "properties": {"nom": "Étang de Chevré", "region": "Bretagne", "longueur_m": 707, "aire_ha": 18.3, "seuil_max_m": 700, "largeur_libre_m": 60}}, {"type": "Feature", "geometry": {"type": "LineString", "coordinates": [[-4.50373, 48.28736], [-4.51777, 48.29431]]}, "properties": {"nom": "Étang du Fret", "region": "Bretagne", "longueur_m": 1296, "aire_ha": 113.4, "seuil_max_m": 1000, "largeur_libre_m": 60}}, {"type": "Feature", "geometry": {"type": "LineString", "coordinates": [[-1.18099, 48.22906], [-1.19042, 48.23995]]}, "properties": {"nom": "Étang de Châtillon", "region": "Bretagne", "longueur_m": 1398, "aire_ha": 76.8, "seuil_max_m": 1340, "largeur_libre_m": 60}}, {"type": "Feature", "geometry": {"type": "LineString", "coordinates": [[-1.16368, 48.08281], [-1.16258, 48.09696]]}, "properties": {"nom": "Plan d'eau de la Valière", "region": "Bretagne", "longueur_m": 1574, "aire_ha": 89.4, "seuil_max_m": 1500, "largeur_libre_m": 60}}, {"type": "Feature", "geometry": {"type": "LineString", "coordinates": [[-1.13705, 48.11721], [-1.12584, 48.11923]]}, "properties": {"nom": "Étang de Paintourteau", "region": "Bretagne", "longueur_m": 864, "aire_ha": 48.7, "seuil_max_m": 700, "largeur_libre_m": 60}}, {"type": "Feature", "geometry": {"type": "LineString", "coordinates": [[-1.96868, 48.5394], [-2.00015, 48.59211]]}, "properties": {"nom": "Estuaire de la Rance", "region": "Bretagne", "longueur_m": 6303, "aire_ha": 2238.5, "seuil_max_m": 3000, "largeur_libre_m": 60}}, {"type": "Feature", "geometry": {"type": "LineString", "coordinates": [[-1.51527, 48.59529], [-1.51347, 48.60721]]}, "properties": {"nom": null, "region": "Bretagne", "longueur_m": 1333, "aire_ha": 59.7, "seuil_max_m": 1000, "largeur_libre_m": 60}}, {"type": "Feature", "geometry": {"type": "LineString", "coordinates": [[-3.57506, 48.5148], [-3.56598, 48.52193]]}, "properties": {"nom": "Étang du Guic", "region": "Bretagne", "longueur_m": 1038, "aire_ha": 25.6, "seuil_max_m": 1000, "largeur_libre_m": 60}}, {"type": "Feature", "geometry": {"type": "LineString", "coordinates": [[-2.98921, 47.71017], [-2.99187, 47.71772]]}, "properties": {"nom": null, "region": "Bretagne", "longueur_m": 863, "aire_ha": 42.7, "seuil_max_m": 700, "largeur_libre_m": 60}}, {"type": "Feature", "geometry": {"type": "LineString", "coordinates": [[-3.42315, 48.05912], [-3.41242, 48.06356]]}, "properties": {"nom": "Lac du Bel-Air", "region": "Bretagne", "longueur_m": 940, "aire_ha": 42.1, "seuil_max_m": 700, "largeur_libre_m": 60}}, {"type": "Feature", "geometry": {"type": "LineString", "coordinates": [[-3.8518, 47.80488], [-3.85988, 47.80899]]}, "properties": {"nom": "Loc'h Coziou", "region": "Bretagne", "longueur_m": 758, "aire_ha": 16.4, "seuil_max_m": 700, "largeur_libre_m": 60}}, {"type": "Feature", "geometry": {"type": "LineString", "coordinates": [[-2.66736, 47.61299], [-2.68273, 47.61614]]}, "properties": {"nom": "Étang de Noyalo", "region": "Bretagne", "longueur_m": 1206, "aire_ha": 121.6, "seuil_max_m": 1000, "largeur_libre_m": 60}}, {"type": "Feature", "geometry": {"type": "LineString", "coordinates": [[-3.03341, 48.20177], [-3.05829, 48.20674]]}, "properties": {"nom": "Lac de Guerlédan", "region": "Bretagne", "longueur_m": 1929, "aire_ha": 339.9, "seuil_max_m": 1500, "largeur_libre_m": 60}}, {"type": "Feature", "geometry": {"type": "LineString", "coordinates": [[-3.25477, 48.34857], [-3.25748, 48.36218]]}, "properties": {"nom": "Étang de Kerne Uhel", "region": "Bretagne", "longueur_m": 1526, "aire_ha": 58.0, "seuil_max_m": 1500, "largeur_libre_m": 60}}, {"type": "Feature", "geometry": {"type": "LineString", "coordinates": [[-3.1337, 48.17946], [-3.14243, 48.18263]]}, "properties": {"nom": "Étang des Salles", "region": "Bretagne", "longueur_m": 738, "aire_ha": 30.3, "seuil_max_m": 700, "largeur_libre_m": 60}}, {"type": "Feature", "geometry": {"type": "LineString", "coordinates": [[-1.96836, 48.01945], [-1.95254, 48.02365]]}, "properties": {"nom": "Retenue de la Chèze", "region": "Bretagne", "longueur_m": 1268, "aire_ha": 152.8, "seuil_max_m": 1000, "largeur_libre_m": 60}}, {"type": "Feature", "geometry": {"type": "LineString", "coordinates": [[-1.64246, 48.33643], [-1.64145, 48.35111]]}, "properties": {"nom": "Étang de Boulet", "region": "Bretagne", "longueur_m": 1633, "aire_ha": 94.4, "seuil_max_m": 1500, "largeur_libre_m": 60}}, {"type": "Feature", "geometry": {"type": "LineString", "coordinates": [[-3.89869, 47.88102], [-3.88943, 47.88257]]}, "properties": {"nom": "Étang du Moros", "region": "Bretagne", "longueur_m": 713, "aire_ha": 19.4, "seuil_max_m": 700, "largeur_libre_m": 60}}, {"type": "Feature", "geometry": {"type": "LineString", "coordinates": [[-2.24962, 48.18052], [-2.2569, 48.18478]]}, "properties": {"nom": "Étang de Loscouët", "region": "Bretagne", "longueur_m": 719, "aire_ha": 20.8, "seuil_max_m": 700, "largeur_libre_m": 60}}, {"type": "Feature", "geometry": {"type": "LineString", "coordinates": [[-4.36705, 47.90181], [-4.3749, 47.91015]]}, "properties": {"nom": "Étang de Kergalan", "region": "Bretagne", "longueur_m": 1096, "aire_ha": 44.8, "seuil_max_m": 1000, "largeur_libre_m": 60}}, {"type": "Feature", "geometry": {"type": "LineString", "coordinates": [[-3.1204, 47.69858], [-3.13064, 47.70334]]}, "properties": {"nom": "Étang de Saint-Jean", "region": "Bretagne", "longueur_m": 932, "aire_ha": 32.7, "seuil_max_m": 700, "largeur_libre_m": 60}}, {"type": "Feature", "geometry": {"type": "LineString", "coordinates": [[-2.92162, 47.59026], [-2.91889, 47.60003]]}, "properties": {"nom": "Étang de Toulvern", "region": "Bretagne", "longueur_m": 1104, "aire_ha": 37.1, "seuil_max_m": 1000, "largeur_libre_m": 60}}, {"type": "Feature", "geometry": {"type": "LineString", "coordinates": [[-2.09012, 48.30187], [-2.09287, 48.30839]]}, "properties": {"nom": "Lac de Rophémel", "region": "Bretagne", "longueur_m": 753, "aire_ha": 78.6, "seuil_max_m": 700, "largeur_libre_m": 60}}, {"type": "Feature", "geometry": {"type": "LineString", "coordinates": [[-2.01805, 48.07122], [-2.00761, 48.07318]]}, "properties": {"nom": "Étang de Careil", "region": "Bretagne", "longueur_m": 808, "aire_ha": 37.4, "seuil_max_m": 700, "largeur_libre_m": 60}}, {"type": "Feature", "geometry": {"type": "LineString", "coordinates": [[-4.00832, 48.38611], [-4.01237, 48.39989]]}, "properties": {"nom": "Lac du Drennec", "region": "Bretagne", "longueur_m": 1561, "aire_ha": 109.3, "seuil_max_m": 1500, "largeur_libre_m": 60}}, {"type": "Feature", "geometry": {"type": "LineString", "coordinates": [[-4.29543, 48.42826], [-4.28448, 48.43537]]}, "properties": {"nom": null, "region": "Bretagne", "longueur_m": 1132, "aire_ha": 44.0, "seuil_max_m": 1000, "largeur_libre_m": 60}}, {"type": "Feature", "geometry": {"type": "LineString", "coordinates": [[-3.3879, 47.73021], [-3.39952, 47.73251]]}, "properties": {"nom": "Étang de Kermélo", "region": "Bretagne", "longueur_m": 908, "aire_ha": 33.4, "seuil_max_m": 700, "largeur_libre_m": 60}}, {"type": "Feature", "geometry": {"type": "LineString", "coordinates": [[-4.3113, 48.2978], [-4.27241, 48.3002]]}, "properties": {"nom": null, "region": "Bretagne", "longueur_m": 2896, "aire_ha": 374.5, "seuil_max_m": 2000, "largeur_libre_m": 60}}, {"type": "Feature", "geometry": {"type": "LineString", "coordinates": [[-4.37742, 48.40041], [-4.38496, 48.40934]]}, "properties": {"nom": "Anse de Kerhuon", "region": "Bretagne", "longueur_m": 1139, "aire_ha": 31.3, "seuil_max_m": 1000, "largeur_libre_m": 60}}, {"type": "Feature", "geometry": {"type": "LineString", "coordinates": [[-4.53018, 48.03673], [-4.51468, 48.03828]]}, "properties": {"nom": null, "region": "Bretagne", "longueur_m": 1168, "aire_ha": 88.3, "seuil_max_m": 1000, "largeur_libre_m": 60}}, {"type": "Feature", "geometry": {"type": "LineString", "coordinates": [[-3.31318, 47.75872], [-3.30404, 47.764]]}, "properties": {"nom": "moillage à bateau", "region": "Bretagne", "longueur_m": 902, "aire_ha": 9.6, "seuil_max_m": 700, "largeur_libre_m": 60}}, {"type": "Feature", "geometry": {"type": "LineString", "coordinates": [[-1.27393, 48.13709], [-1.258, 48.14486]]}, "properties": {"nom": "La Cantache", "region": "Bretagne", "longueur_m": 1466, "aire_ha": 156.3, "seuil_max_m": 1340, "largeur_libre_m": 60}}, {"type": "Feature", "geometry": {"type": "LineString", "coordinates": [[-2.71057, 48.52728], [-2.69171, 48.53398]]}, "properties": {"nom": null, "region": "Bretagne", "longueur_m": 1580, "aire_ha": 64.3, "seuil_max_m": 1500, "largeur_libre_m": 60}}]}