{"type": "FeatureCollection", "metadata": {"region": "Ile-de-France", "source": "OpenStreetMap via Geofabrik", "methode": "recollage des polygones contigus, erosion de W/2, plus longue corde inscrite", "largeur_libre_m": 60, "avertissement": "profondeur, obstacles et degagement d'approche NON pris en compte : borne haute de candidats"}, "features": [{"type": "Feature", "geometry": {"type": "LineString", "coordinates": [[1.52653, 49.06299], [1.50102, 49.08775]]}, "properties": {"nom": "La Seine", "region": "Ile-de-France", "longueur_m": 3326, "aire_ha": 6765.1, "seuil_max_m": 3000, "largeur_libre_m": 60}}, {"type": "Feature", "geometry": {"type": "LineString", "coordinates": [[2.17607, 48.73998], [2.16541, 48.7426]]}, "properties": {"nom": "Étang de Saclay", "region": "Ile-de-France", "longueur_m": 836, "aire_ha": 27.8, "seuil_max_m": 700, "largeur_libre_m": 60}}, {"type": "Feature", "geometry": {"type": "LineString", "coordinates": [[2.15412, 48.74134], [2.16439, 48.74363]]}, "properties": {"nom": "Étang Vieux", "region": "Ile-de-France", "longueur_m": 797, "aire_ha": 30.9, "seuil_max_m": 700, "largeur_libre_m": 60}}, {"type": "Feature", "geometry": {"type": "LineString", "coordinates": [[2.3913, 48.66421], [2.38515, 48.67206]]}, "properties": {"nom": "Étang de la Justice", "region": "Ile-de-France", "longueur_m": 984, "aire_ha": 94.4, "seuil_max_m": 700, "largeur_libre_m": 60}}, {"type": "Feature", "geometry": {"type": "LineString", "coordinates": [[2.6363, 48.85966], [2.60788, 48.86676]]}, "properties": {"nom": "Bassin de Champfleuri", "region": "Ile-de-France", "longueur_m": 2229, "aire_ha": 89.7, "seuil_max_m": 2000, "largeur_libre_m": 60}}, {"type": "Feature", "geometry": {"type": "LineString", "coordinates": [[2.05926, 48.77745], [2.05022, 48.77966]]}, "properties": {"nom": "Étang des Roussières", "region": "Ile-de-France", "longueur_m": 708, "aire_ha": 12.0, "seuil_max_m": 700, "largeur_libre_m": 60}}, {"type": "Feature", "geometry": {"type": "LineString", "coordinates": [[2.7194, 48.90525], [2.72605, 48.91892]]}, "properties": {"nom": "Grand Lac", "region": "Ile-de-France", "longueur_m": 1596, "aire_ha": 75.4, "seuil_max_m": 1500, "largeur_libre_m": 60}}, {"type": "Feature", "geometry": {"type": "LineString", "coordinates": [[2.73247, 48.90556], [2.73722, 48.91103]]}, "properties": {"nom": "Lac Sud", "region": "Ile-de-France", "longueur_m": 701, "aire_ha": 24.5, "seuil_max_m": 700, "largeur_libre_m": 60}}, {"type": "Feature", "geometry": {"type": "LineString", "coordinates": [[2.42912, 48.75574], [2.42783, 48.77008]]}, "properties": {"nom": null, "region": "Ile-de-France", "longueur_m": 1598, "aire_ha": 28.0, "seuil_max_m": 1500, "largeur_libre_m": 60}}, {"type": "Feature", "geometry": {"type": "LineString", "coordinates": [[2.83626, 48.9023], [2.8448, 48.90739]]}, "properties": {"nom": null, "region": "Ile-de-France", "longueur_m": 844, "aire_ha": 40.4, "seuil_max_m": 700, "largeur_libre_m": 60}}, {"type": "Feature", "geometry": {"type": "LineString", "coordinates": [[2.6525, 48.86291], [2.6569, 48.86867]]}, "properties": {"nom": null, "region": "Ile-de-France", "longueur_m": 717, "aire_ha": 24.4, "seuil_max_m": 700, "largeur_libre_m": 60}}, {"type": "Feature", "geometry": {"type": "LineString", "coordinates": [[2.9004, 48.37075], [2.88871, 48.37524]]}, "properties": {"nom": null, "region": "Ile-de-France", "longueur_m": 999, "aire_ha": 48.7, "seuil_max_m": 700, "largeur_libre_m": 60}}, {"type": "Feature", "geometry": {"type": "LineString", "coordinates": [[3.00896, 48.36605], [3.00772, 48.37395]]}, "properties": {"nom": null, "region": "Ile-de-France", "longueur_m": 882, "aire_ha": 40.8, "seuil_max_m": 700, "largeur_libre_m": 60}}, {"type": "Feature", "geometry": {"type": "LineString", "coordinates": [[3.02126, 48.36418], [3.01913, 48.37315]]}, "properties": {"nom": null, "region": "Ile-de-France", "longueur_m": 1010, "aire_ha": 44.0, "seuil_max_m": 1000, "largeur_libre_m": 60}}, {"type": "Feature", "geometry": {"type": "LineString", "coordinates": [[2.01921, 48.93267], [2.02958, 48.93421]]}, "properties": {"nom": "Étang de la Galiotte", "region": "Ile-de-France", "longueur_m": 779, "aire_ha": 20.9, "seuil_max_m": 700, "largeur_libre_m": 60}}, {"type": "Feature", "geometry": {"type": "LineString", "coordinates": [[1.97034, 48.99083], [1.96312, 48.99986]]}, "properties": {"nom": "Étang de la Grosse-Pierre", "region": "Ile-de-France", "longueur_m": 1135, "aire_ha": 45.4, "seuil_max_m": 1000, "largeur_libre_m": 60}}, {"type": "Feature", "geometry": {"type": "LineString", "coordinates": [[1.99099, 48.98303], [1.97786, 48.98985]]}, "properties": {"nom": "Étang de Gallardon", "region": "Ile-de-France", "longueur_m": 1224, "aire_ha": 49.7, "seuil_max_m": 1000, "largeur_libre_m": 60}}, {"type": "Feature", "geometry": {"type": "LineString", "coordinates": [[3.19431, 48.98687], [3.18257, 48.99316]]}, "properties": {"nom": null, "region": "Ile-de-France", "longueur_m": 1108, "aire_ha": 56.8, "seuil_max_m": 1000, "largeur_libre_m": 60}}, {"type": "Feature", "geometry": {"type": "LineString", "coordinates": [[2.91019, 48.36209], [2.92395, 48.36456]]}, "properties": {"nom": null, "region": "Ile-de-France", "longueur_m": 1055, "aire_ha": 59.9, "seuil_max_m": 1000, "largeur_libre_m": 60}}, {"type": "Feature", "geometry": {"type": "LineString", "coordinates": [[3.14203, 48.41177], [3.10206, 48.41461]]}, "properties": {"nom": "Casier Pilote de Seine-Bassée", "region": "Ile-de-France", "longueur_m": 2974, "aire_ha": 357.5, "seuil_max_m": 2000, "largeur_libre_m": 60}}, {"type": "Feature", "geometry": {"type": "LineString", "coordinates": [[2.98843, 48.36995], [2.99706, 48.3757]]}, "properties": {"nom": null, "region": "Ile-de-France", "longueur_m": 904, "aire_ha": 54.5, "seuil_max_m": 700, "largeur_libre_m": 60}}, {"type": "Feature", "geometry": {"type": "LineString", "coordinates": [[1.82363, 48.97166], [1.83199, 48.97579]]}, "properties": {"nom": "L'Hérubé", "region": "Ile-de-France", "longueur_m": 765, "aire_ha": 28.7, "seuil_max_m": 700, "largeur_libre_m": 60}}, {"type": "Feature", "geometry": {"type": "LineString", "coordinates": [[1.88472, 48.65722], [1.87666, 48.66058]]}, "properties": {"nom": "Étang de la Tour", "region": "Ile-de-France", "longueur_m": 701, "aire_ha": 17.2, "seuil_max_m": 700, "largeur_libre_m": 60}}, {"type": "Feature", "geometry": {"type": "LineString", "coordinates": [[3.0466, 48.36702], [3.03198, 48.36857]]}, "properties": {"nom": null, "region": "Ile-de-France", "longueur_m": 1096, "aire_ha": 39.6, "seuil_max_m": 1000, "largeur_libre_m": 60}}, {"type": "Feature", "geometry": {"type": "LineString", "coordinates": [[2.20286, 48.58096], [2.21215, 48.5834]]}, "properties": {"nom": "Étang de Trevoix", "region": "Ile-de-France", "longueur_m": 737, "aire_ha": 26.5, "seuil_max_m": 700, "largeur_libre_m": 60}}, {"type": "Feature", "geometry": {"type": "LineString", "coordinates": [[2.93098, 48.53467], [2.92736, 48.54091]]}, "properties": {"nom": "Étangs de Villefermoy", "region": "Ile-de-France", "longueur_m": 744, "aire_ha": 20.9, "seuil_max_m": 700, "largeur_libre_m": 60}}, {"type": "Feature", "geometry": {"type": "LineString", "coordinates": [[1.70622, 49.25869], [1.70396, 49.26714]]}, "properties": {"nom": null, "region": "Ile-de-France", "longueur_m": 954, "aire_ha": 35.3, "seuil_max_m": 700, "largeur_libre_m": 60}}, {"type": "Feature", "geometry": {"type": "LineString", "coordinates": [[2.36936, 48.53936], [2.37142, 48.54608]]}, "properties": {"nom": "L'Étang à Chat", "region": "Ile-de-France", "longueur_m": 762, "aire_ha": 14.5, "seuil_max_m": 700, "largeur_libre_m": 60}}, {"type": "Feature", "geometry": {"type": "LineString", "coordinates": [[2.97529, 48.99411], [2.96693, 48.99768]]}, "properties": {"nom": "Étang de Pierre Lorraine", "region": "Ile-de-France", "longueur_m": 729, "aire_ha": 28.9, "seuil_max_m": 700, "largeur_libre_m": 60}}, {"type": "Feature", "geometry": {"type": "LineString", "coordinates": [[2.78139, 48.94072], [2.79375, 48.94603]]}, "properties": {"nom": null, "region": "Ile-de-France", "longueur_m": 1081, "aire_ha": 79.1, "seuil_max_m": 1000, "largeur_libre_m": 60}}, {"type": "Feature", "geometry": {"type": "LineString", "coordinates": [[3.16999, 48.98631], [3.17988, 48.98879]]}, "properties": {"nom": null, "region": "Ile-de-France", "longueur_m": 775, "aire_ha": 21.0, "seuil_max_m": 700, "largeur_libre_m": 60}}, {"type": "Feature", "geometry": {"type": "LineString", "coordinates": [[3.36436, 48.46709], [3.37364, 48.47062]]}, "properties": {"nom": null, "region": "Ile-de-France", "longueur_m": 790, "aire_ha": 7.5, "seuil_max_m": 700, "largeur_libre_m": 60}}, {"type": "Feature", "geometry": {"type": "LineString", "coordinates": [[3.40554, 48.48324], [3.41706, 48.4876]]}, "properties": {"nom": null, "region": "Ile-de-France", "longueur_m": 979, "aire_ha": 11.6, "seuil_max_m": 700, "largeur_libre_m": 60}}, {"type": "Feature", "geometry": {"type": "LineString", "coordinates": [[1.66625, 49.04911], [1.69031, 49.061]]}, "properties": {"nom": "Lac de Moisson-Lavacourt", "region": "Ile-de-France", "longueur_m": 2201, "aire_ha": 109.6, "seuil_max_m": 2000, "largeur_libre_m": 60}}, {"type": "Feature", "geometry": {"type": "LineString", "coordinates": [[2.89879, 48.35964], [2.90827, 48.35997]]}, "properties": {"nom": null, "region": "Ile-de-France", "longueur_m": 703, "aire_ha": 27.1, "seuil_max_m": 700, "largeur_libre_m": 60}}, {"type": "Feature", "geometry": {"type": "LineString", "coordinates": [[2.75237, 48.15571], [2.74259, 48.16375]]}, "properties": {"nom": null, "region": "Ile-de-France", "longueur_m": 1152, "aire_ha": 44.7, "seuil_max_m": 1000, "largeur_libre_m": 60}}, {"type": "Feature", "geometry": {"type": "LineString", "coordinates": [[3.14429, 48.41542], [3.13911, 48.42075]]}, "properties": {"nom": null, "region": "Ile-de-France", "longueur_m": 706, "aire_ha": 39.0, "seuil_max_m": 700, "largeur_libre_m": 60}}, {"type": "Feature", "geometry": {"type": "LineString", "coordinates": [[3.30411, 48.43983], [3.30345, 48.44894]]}, "properties": {"nom": null, "region": "Ile-de-France", "longueur_m": 1014, "aire_ha": 36.0, "seuil_max_m": 1000, "largeur_libre_m": 60}}, {"type": "Feature", "geometry": {"type": "LineString", "coordinates": [[2.00518, 48.95105], [2.00834, 48.95922]]}, "properties": {"nom": "Étang des Grésillons", "region": "Ile-de-France", "longueur_m": 938, "aire_ha": 33.5, "seuil_max_m": 700, "largeur_libre_m": 60}}, {"type": "Feature", "geometry": {"type": "LineString", "coordinates": [[3.19906, 48.41705], [3.20931, 48.42097]]}, "properties": {"nom": null, "region": "Ile-de-France", "longueur_m": 875, "aire_ha": 32.6, "seuil_max_m": 700, "largeur_libre_m": 60}}, {"type": "Feature", "geometry": {"type": "LineString", "coordinates": [[3.29752, 48.44426], [3.30189, 48.44992]]}, "properties": {"nom": null, "region": "Ile-de-France", "longueur_m": 707, "aire_ha": 25.1, "seuil_max_m": 700, "largeur_libre_m": 60}}, {"type": "Feature", "geometry": {"type": "LineString", "coordinates": [[3.17552, 48.41774], [3.1851, 48.42288]]}, "properties": {"nom": null, "region": "Ile-de-France", "longueur_m": 910, "aire_ha": 35.1, "seuil_max_m": 700, "largeur_libre_m": 60}}, {"type": "Feature", "geometry": {"type": "LineString", "coordinates": [[3.0176, 48.97215], [3.02828, 48.97251]]}, "properties": {"nom": null, "region": "Ile-de-France", "longueur_m": 783, "aire_ha": 20.1, "seuil_max_m": 700, "largeur_libre_m": 60}}, {"type": "Feature", "geometry": {"type": "LineString", "coordinates": [[2.74328, 48.75211], [2.73423, 48.76239]]}, "properties": {"nom": "Étang d'Armainvilliers", "region": "Ile-de-France", "longueur_m": 1322, "aire_ha": 71.2, "seuil_max_m": 1000, "largeur_libre_m": 60}}, {"type": "Feature", "geometry": {"type": "LineString", "coordinates": [[2.98447, 48.99302], [2.99714, 48.99844]]}, "properties": {"nom": "Étang des Pâtis", "region": "Ile-de-France", "longueur_m": 1105, "aire_ha": 33.5, "seuil_max_m": 1000, "largeur_libre_m": 60}}, {"type": "Feature", "geometry": {"type": "LineString", "coordinates": [[2.41932, 48.70949], [2.43028, 48.71278]]}, "properties": {"nom": "Fosse Montalbot", "region": "Ile-de-France", "longueur_m": 885, "aire_ha": 23.3, "seuil_max_m": 700, "largeur_libre_m": 60}}, {"type": "Feature", "geometry": {"type": "LineString", "coordinates": [[3.33665, 48.46416], [3.3269, 48.46668]]}, "properties": {"nom": null, "region": "Ile-de-France", "longueur_m": 773, "aire_ha": 31.1, "seuil_max_m": 700, "largeur_libre_m": 60}}, {"type": "Feature", "geometry": {"type": "LineString", "coordinates": [[1.85768, 48.71064], [1.8438, 48.71296]]}, "properties": {"nom": "Étang de Saint-Hubert", "region": "Ile-de-France", "longueur_m": 1053, "aire_ha": 32.8, "seuil_max_m": 1000, "largeur_libre_m": 60}}, {"type": "Feature", "geometry": {"type": "LineString", "coordinates": [[1.61655, 49.06834], [1.62571, 49.07396]]}, "properties": {"nom": null, "region": "Ile-de-France", "longueur_m": 915, "aire_ha": 13.1, "seuil_max_m": 700, "largeur_libre_m": 60}}, {"type": "Feature", "geometry": {"type": "LineString", "coordinates": [[2.09796, 48.80637], [2.10175, 48.81313]]}, "properties": {"nom": "Grand Canal", "region": "Ile-de-France", "longueur_m": 801, "aire_ha": 23.3, "seuil_max_m": 700, "largeur_libre_m": 60}}, {"type": "Feature", "geometry": {"type": "LineString", "coordinates": [[3.20992, 48.4475], [3.21218, 48.45448]]}, "properties": {"nom": null, "region": "Ile-de-France", "longueur_m": 793, "aire_ha": 23.7, "seuil_max_m": 700, "largeur_libre_m": 60}}, {"type": "Feature", "geometry": {"type": "LineString", "coordinates": [[3.15482, 48.42825], [3.1621, 48.43488]]}, "properties": {"nom": null, "region": "Ile-de-France", "longueur_m": 913, "aire_ha": 32.7, "seuil_max_m": 700, "largeur_libre_m": 60}}, {"type": "Feature", "geometry": {"type": "LineString", "coordinates": [[3.13598, 48.42639], [3.14773, 48.42678]]}, "properties": {"nom": null, "region": "Ile-de-France", "longueur_m": 870, "aire_ha": 35.2, "seuil_max_m": 700, "largeur_libre_m": 60}}, {"type": "Feature", "geometry": {"type": "LineString", "coordinates": [[3.16096, 48.40815], [3.17462, 48.41472]]}, "properties": {"nom": null, "region": "Ile-de-France", "longueur_m": 1248, "aire_ha": 55.8, "seuil_max_m": 1000, "largeur_libre_m": 60}}, {"type": "Feature", "geometry": {"type": "LineString", "coordinates": [[2.76002, 48.92273], [2.77131, 48.92705]]}, "properties": {"nom": "Espace naturel régional de Précy-sur-Marne", "region": "Ile-de-France", "longueur_m": 957, "aire_ha": 30.1, "seuil_max_m": 700, "largeur_libre_m": 60}}, {"type": "Feature", "geometry": {"type": "LineString", "coordinates": [[2.0541, 49.02869], [2.05051, 49.03916]]}, "properties": {"nom": "Étang de la Folie", "region": "Ile-de-France", "longueur_m": 1194, "aire_ha": 91.4, "seuil_max_m": 1000, "largeur_libre_m": 60}}, {"type": "Feature", "geometry": {"type": "LineString", "coordinates": [[2.30169, 48.9671], [2.29786, 48.97462]]}, "properties": {"nom": "Lac d'Enghien", "region": "Ile-de-France", "longueur_m": 881, "aire_ha": 34.1, "seuil_max_m": 700, "largeur_libre_m": 60}}, {"type": "Feature", "geometry": {"type": "LineString", "coordinates": [[2.03184, 48.78602], [1.99933, 48.78915]]}, "properties": {"nom": "Étang de Saint-Quentin", "region": "Ile-de-France", "longueur_m": 2414, "aire_ha": 114.3, "seuil_max_m": 2000, "largeur_libre_m": 60}}, {"type": "Feature", "geometry": {"type": "LineString", "coordinates": [[2.45288, 48.77176], [2.45057, 48.78101]]}, "properties": {"nom": "Lac de Créteil", "region": "Ile-de-France", "longueur_m": 1043, "aire_ha": 40.7, "seuil_max_m": 1000, "largeur_libre_m": 60}}]}