{"type": "FeatureCollection", "metadata": {"region": "Bourgogne", "source": "OpenStreetMap via Geofabrik", "methode": "recollage des polygones contigus, erosion de W/2, plus longue corde inscrite", "largeur_libre_m": 60, "avertissement": "profondeur, obstacles et degagement d'approche NON pris en compte : borne haute de candidats"}, "features": [{"type": "Feature", "geometry": {"type": "LineString", "coordinates": [[4.82595, 46.27314], [4.83341, 46.30154]]}, "properties": {"nom": "La Saône", "region": "Bourgogne", "longueur_m": 3206, "aire_ha": 5289.7, "seuil_max_m": 3000, "largeur_libre_m": 60}}, {"type": "Feature", "geometry": {"type": "LineString", "coordinates": [[3.47425, 47.96212], [3.4907, 47.96321]]}, "properties": {"nom": "Avant-Port", "region": "Bourgogne", "longueur_m": 1233, "aire_ha": 1230.0, "seuil_max_m": 1000, "largeur_libre_m": 60}}, {"type": "Feature", "geometry": {"type": "LineString", "coordinates": [[4.6291, 47.30654], [4.60314, 47.30971]]}, "properties": {"nom": "Réservoir de Grosbois", "region": "Bourgogne", "longueur_m": 1993, "aire_ha": 89.5, "seuil_max_m": 1500, "largeur_libre_m": 60}}, {"type": "Feature", "geometry": {"type": "LineString", "coordinates": [[4.59361, 47.1799], [4.60248, 47.18787]]}, "properties": {"nom": "Réservoir de Chazilly", "region": "Bourgogne", "longueur_m": 1111, "aire_ha": 37.7, "seuil_max_m": 1000, "largeur_libre_m": 60}}, {"type": "Feature", "geometry": {"type": "LineString", "coordinates": [[4.82383, 46.66657], [4.83239, 46.6702]]}, "properties": {"nom": "Lacs de Laives", "region": "Bourgogne", "longueur_m": 769, "aire_ha": 22.9, "seuil_max_m": 700, "largeur_libre_m": 60}}, {"type": "Feature", "geometry": {"type": "LineString", "coordinates": [[3.91044, 47.36274], [3.90974, 47.37442]]}, "properties": {"nom": "Lac du Crescent", "region": "Bourgogne", "longueur_m": 1298, "aire_ha": 113.1, "seuil_max_m": 1000, "largeur_libre_m": 60}}, {"type": "Feature", "geometry": {"type": "LineString", "coordinates": [[3.61462, 47.1809], [3.58595, 47.18742]]}, "properties": {"nom": "Étang de Vaux", "region": "Bourgogne", "longueur_m": 2288, "aire_ha": 126.6, "seuil_max_m": 2000, "largeur_libre_m": 60}}, {"type": "Feature", "geometry": {"type": "LineString", "coordinates": [[5.37474, 47.51447], [5.369, 47.52087]]}, "properties": {"nom": "Étang du Fourneau", "region": "Bourgogne", "longueur_m": 831, "aire_ha": 29.1, "seuil_max_m": 700, "largeur_libre_m": 60}}, {"type": "Feature", "geometry": {"type": "LineString", "coordinates": [[5.24616, 46.86521], [5.24377, 46.87211]]}, "properties": {"nom": "Étang de Pierre", "region": "Bourgogne", "longueur_m": 787, "aire_ha": 19.8, "seuil_max_m": 700, "largeur_libre_m": 60}}, {"type": "Feature", "geometry": {"type": "LineString", "coordinates": [[2.90204, 47.65558], [2.90802, 47.66805]]}, "properties": {"nom": "Étang de la Tuilerie", "region": "Bourgogne", "longueur_m": 1456, "aire_ha": 47.7, "seuil_max_m": 1340, "largeur_libre_m": 60}}, {"type": "Feature", "geometry": {"type": "LineString", "coordinates": [[4.3429, 46.56977], [4.35288, 46.57228]]}, "properties": {"nom": "Étang du Grand Baronnet", "region": "Bourgogne", "longueur_m": 813, "aire_ha": 27.9, "seuil_max_m": 700, "largeur_libre_m": 60}}, {"type": "Feature", "geometry": {"type": "LineString", "coordinates": [[4.31712, 46.29193], [4.30708, 46.29353]]}, "properties": {"nom": "Le Grand Étang", "region": "Bourgogne", "longueur_m": 793, "aire_ha": 26.6, "seuil_max_m": 700, "largeur_libre_m": 60}}, {"type": "Feature", "geometry": {"type": "LineString", "coordinates": [[3.20837, 47.64756], [3.20952, 47.65477]]}, "properties": {"nom": "Étang de Gaudry", "region": "Bourgogne", "longueur_m": 806, "aire_ha": 16.7, "seuil_max_m": 700, "largeur_libre_m": 60}}, {"type": "Feature", "geometry": {"type": "LineString", "coordinates": [[3.19766, 47.63723], [3.19995, 47.64441]]}, "properties": {"nom": "Étang des Barres", "region": "Bourgogne", "longueur_m": 816, "aire_ha": 21.1, "seuil_max_m": 700, "largeur_libre_m": 60}}, {"type": "Feature", "geometry": {"type": "LineString", "coordinates": [[3.16625, 47.61992], [3.15269, 47.62189]]}, "properties": {"nom": "Étang de Moutiers", "region": "Bourgogne", "longueur_m": 1042, "aire_ha": 26.4, "seuil_max_m": 1000, "largeur_libre_m": 60}}, {"type": "Feature", "geometry": {"type": "LineString", "coordinates": [[4.15128, 47.27045], [4.14415, 47.27544]]}, "properties": {"nom": "Étang de Champeau", "region": "Bourgogne", "longueur_m": 773, "aire_ha": 29.7, "seuil_max_m": 700, "largeur_libre_m": 60}}, {"type": "Feature", "geometry": {"type": "LineString", "coordinates": [[4.14337, 47.25918], [4.14799, 47.26596]]}, "properties": {"nom": "Étang Morin", "region": "Bourgogne", "longueur_m": 831, "aire_ha": 18.2, "seuil_max_m": 700, "largeur_libre_m": 60}}, {"type": "Feature", "geometry": {"type": "LineString", "coordinates": [[4.18977, 47.24417], [4.19288, 47.25345]]}, "properties": {"nom": "Lac de Chamboux", "region": "Bourgogne", "longueur_m": 1056, "aire_ha": 64.7, "seuil_max_m": 1000, "largeur_libre_m": 60}}, {"type": "Feature", "geometry": {"type": "LineString", "coordinates": [[3.85183, 47.16322], [3.86087, 47.16628]]}, "properties": {"nom": "Petit Lac de Pannecière", "region": "Bourgogne", "longueur_m": 764, "aire_ha": 23.3, "seuil_max_m": 700, "largeur_libre_m": 60}}, {"type": "Feature", "geometry": {"type": "LineString", "coordinates": [[4.58198, 47.08635], [4.57516, 47.09596]]}, "properties": {"nom": "Étang de Rouey", "region": "Bourgogne", "longueur_m": 1187, "aire_ha": 53.4, "seuil_max_m": 1000, "largeur_libre_m": 60}}, {"type": "Feature", "geometry": {"type": "LineString", "coordinates": [[3.56081, 46.98985], [3.55697, 47.00263]]}, "properties": {"nom": "Étang de Fleury-la-Tour", "region": "Bourgogne", "longueur_m": 1450, "aire_ha": 51.5, "seuil_max_m": 1340, "largeur_libre_m": 60}}, {"type": "Feature", "geometry": {"type": "LineString", "coordinates": [[4.4707, 46.92132], [4.46632, 46.92959]]}, "properties": {"nom": "Barrage du Pont du Roi", "region": "Bourgogne", "longueur_m": 978, "aire_ha": 41.6, "seuil_max_m": 700, "largeur_libre_m": 60}}, {"type": "Feature", "geometry": {"type": "LineString", "coordinates": [[3.80086, 46.89195], [3.79044, 46.89315]]}, "properties": {"nom": "Étang de Chèvres", "region": "Bourgogne", "longueur_m": 804, "aire_ha": 26.4, "seuil_max_m": 700, "largeur_libre_m": 60}}, {"type": "Feature", "geometry": {"type": "LineString", "coordinates": [[4.11147, 46.84352], [4.09663, 46.84473]]}, "properties": {"nom": "Étang de Boussons", "region": "Bourgogne", "longueur_m": 1139, "aire_ha": 37.4, "seuil_max_m": 1000, "largeur_libre_m": 60}}, {"type": "Feature", "geometry": {"type": "LineString", "coordinates": [[3.66603, 46.80559], [3.65599, 46.80789]]}, "properties": {"nom": "Étang de Briffaut", "region": "Bourgogne", "longueur_m": 807, "aire_ha": 15.7, "seuil_max_m": 700, "largeur_libre_m": 60}}, {"type": "Feature", "geometry": {"type": "LineString", "coordinates": [[3.77391, 46.76784], [3.77728, 46.77473]]}, "properties": {"nom": "Étang du Marnant", "region": "Bourgogne", "longueur_m": 808, "aire_ha": 17.3, "seuil_max_m": 700, "largeur_libre_m": 60}}, {"type": "Feature", "geometry": {"type": "LineString", "coordinates": [[4.78507, 47.99343], [4.78735, 48.0054]]}, "properties": {"nom": null, "region": "Bourgogne", "longueur_m": 1341, "aire_ha": 46.4, "seuil_max_m": 1340, "largeur_libre_m": 60}}, {"type": "Feature", "geometry": {"type": "LineString", "coordinates": [[4.4047, 47.87147], [4.41546, 47.87922]]}, "properties": {"nom": "Étang de Marcenay", "region": "Bourgogne", "longueur_m": 1179, "aire_ha": 54.5, "seuil_max_m": 1000, "largeur_libre_m": 60}}, {"type": "Feature", "geometry": {"type": "LineString", "coordinates": [[4.1383, 47.51194], [4.15148, 47.51371]]}, "properties": {"nom": "Étang d'Époisses", "region": "Bourgogne", "longueur_m": 1012, "aire_ha": 32.7, "seuil_max_m": 1000, "largeur_libre_m": 60}}, {"type": "Feature", "geometry": {"type": "LineString", "coordinates": [[5.35186, 47.30173], [5.36205, 47.30897]]}, "properties": {"nom": "Grand Étang", "region": "Bourgogne", "longueur_m": 1113, "aire_ha": 48.3, "seuil_max_m": 1000, "largeur_libre_m": 60}}, {"type": "Feature", "geometry": {"type": "LineString", "coordinates": [[5.32588, 46.87804], [5.33227, 46.88263]]}, "properties": {"nom": "Étang du Fay", "region": "Bourgogne", "longueur_m": 705, "aire_ha": 22.0, "seuil_max_m": 700, "largeur_libre_m": 60}}, {"type": "Feature", "geometry": {"type": "LineString", "coordinates": [[2.64032, 47.68018], [2.57474, 47.69963]]}, "properties": {"nom": "La Loire", "region": "Bourgogne", "longueur_m": 5373, "aire_ha": 5402.0, "seuil_max_m": 3000, "largeur_libre_m": 60}}, {"type": "Feature", "geometry": {"type": "LineString", "coordinates": [[5.00613, 47.32533], [4.99006, 47.32984]]}, "properties": {"nom": "Lac Kir", "region": "Bourgogne", "longueur_m": 1313, "aire_ha": 81.3, "seuil_max_m": 1000, "largeur_libre_m": 60}}, {"type": "Feature", "geometry": {"type": "LineString", "coordinates": [[4.93493, 46.9126], [4.92231, 46.91419]]}, "properties": {"nom": "Étang de Baignant", "region": "Bourgogne", "longueur_m": 976, "aire_ha": 24.4, "seuil_max_m": 700, "largeur_libre_m": 60}}, {"type": "Feature", "geometry": {"type": "LineString", "coordinates": [[3.91117, 47.28404], [3.91543, 47.30106]]}, "properties": {"nom": "Réservoir de Chaumeçon", "region": "Bourgogne", "longueur_m": 1918, "aire_ha": 136.9, "seuil_max_m": 1500, "largeur_libre_m": 60}}, {"type": "Feature", "geometry": {"type": "LineString", "coordinates": [[4.40266, 47.88849], [4.39277, 47.89039]]}, "properties": {"nom": "Étang de Bailly", "region": "Bourgogne", "longueur_m": 769, "aire_ha": 17.7, "seuil_max_m": 700, "largeur_libre_m": 60}}, {"type": "Feature", "geometry": {"type": "LineString", "coordinates": [[5.16638, 47.34693], [5.17609, 47.34674]]}, "properties": {"nom": null, "region": "Bourgogne", "longueur_m": 733, "aire_ha": 25.4, "seuil_max_m": 700, "largeur_libre_m": 60}}, {"type": "Feature", "geometry": {"type": "LineString", "coordinates": [[3.87083, 46.48925], [3.863, 46.49326]]}, "properties": {"nom": null, "region": "Bourgogne", "longueur_m": 748, "aire_ha": 18.8, "seuil_max_m": 700, "largeur_libre_m": 60}}, {"type": "Feature", "geometry": {"type": "LineString", "coordinates": [[3.27853, 48.10548], [3.27408, 48.11223]]}, "properties": {"nom": null, "region": "Bourgogne", "longueur_m": 821, "aire_ha": 28.3, "seuil_max_m": 700, "largeur_libre_m": 60}}, {"type": "Feature", "geometry": {"type": "LineString", "coordinates": [[4.44748, 46.77322], [4.41928, 46.78106]]}, "properties": {"nom": "Étang de Torcy Neuf", "region": "Bourgogne", "longueur_m": 2321, "aire_ha": 98.2, "seuil_max_m": 2000, "largeur_libre_m": 60}}, {"type": "Feature", "geometry": {"type": "LineString", "coordinates": [[4.44839, 46.77459], [4.44101, 46.78657]]}, "properties": {"nom": "Étang Leduc", "region": "Bourgogne", "longueur_m": 1444, "aire_ha": 44.7, "seuil_max_m": 1340, "largeur_libre_m": 60}}, {"type": "Feature", "geometry": {"type": "LineString", "coordinates": [[3.12914, 47.60438], [3.12108, 47.60793]]}, "properties": {"nom": "Lac du Bourdon", "region": "Bourgogne", "longueur_m": 723, "aire_ha": 12.3, "seuil_max_m": 700, "largeur_libre_m": 60}}, {"type": "Feature", "geometry": {"type": "LineString", "coordinates": [[4.35552, 46.71766], [4.34244, 46.73388]]}, "properties": {"nom": "Lac de la Sorme", "region": "Bourgogne", "longueur_m": 2060, "aire_ha": 149.5, "seuil_max_m": 2000, "largeur_libre_m": 60}}, {"type": "Feature", "geometry": {"type": "LineString", "coordinates": [[4.38597, 46.67176], [4.37821, 46.67675]]}, "properties": {"nom": "Lac du Plessis", "region": "Bourgogne", "longueur_m": 812, "aire_ha": 23.6, "seuil_max_m": 700, "largeur_libre_m": 60}}, {"type": "Feature", "geometry": {"type": "LineString", "coordinates": [[3.61859, 47.16441], [3.61515, 47.18002]]}, "properties": {"nom": "Étang de Baye", "region": "Bourgogne", "longueur_m": 1753, "aire_ha": 78.8, "seuil_max_m": 1500, "largeur_libre_m": 60}}, {"type": "Feature", "geometry": {"type": "LineString", "coordinates": [[4.3655, 46.68472], [4.37652, 46.69003]]}, "properties": {"nom": "Lac Saint-Louis", "region": "Bourgogne", "longueur_m": 1028, "aire_ha": 30.4, "seuil_max_m": 1000, "largeur_libre_m": 60}}, {"type": "Feature", "geometry": {"type": "LineString", "coordinates": [[3.11842, 48.34932], [3.10773, 48.35124]]}, "properties": {"nom": null, "region": "Bourgogne", "longueur_m": 821, "aire_ha": 41.5, "seuil_max_m": 700, "largeur_libre_m": 60}}, {"type": "Feature", "geometry": {"type": "LineString", "coordinates": [[4.86967, 46.79019], [4.87272, 46.79734]]}, "properties": {"nom": "Lac des Prés Saint-Jean", "region": "Bourgogne", "longueur_m": 827, "aire_ha": 25.3, "seuil_max_m": 700, "largeur_libre_m": 60}}, {"type": "Feature", "geometry": {"type": "LineString", "coordinates": [[4.49847, 46.74997], [4.49812, 46.75713]]}, "properties": {"nom": "Étang de Longpendu", "region": "Bourgogne", "longueur_m": 796, "aire_ha": 18.4, "seuil_max_m": 700, "largeur_libre_m": 60}}, {"type": "Feature", "geometry": {"type": "LineString", "coordinates": [[5.2816, 47.43328], [5.28993, 47.43714]]}, "properties": {"nom": "Étang de Noiron", "region": "Bourgogne", "longueur_m": 760, "aire_ha": 12.8, "seuil_max_m": 700, "largeur_libre_m": 60}}, {"type": "Feature", "geometry": {"type": "LineString", "coordinates": [[4.51159, 46.78414], [4.52729, 46.78804]]}, "properties": {"nom": "Étang de Montaubry", "region": "Bourgogne", "longueur_m": 1274, "aire_ha": 88.1, "seuil_max_m": 1000, "largeur_libre_m": 60}}, {"type": "Feature", "geometry": {"type": "LineString", "coordinates": [[5.38972, 46.6431], [5.39202, 46.64959]]}, "properties": {"nom": "Étang de Villeron", "region": "Bourgogne", "longueur_m": 742, "aire_ha": 30.0, "seuil_max_m": 700, "largeur_libre_m": 60}}, {"type": "Feature", "geometry": {"type": "LineString", "coordinates": [[5.35852, 46.65004], [5.36803, 46.65123]]}, "properties": {"nom": "Étang des Claies", "region": "Bourgogne", "longueur_m": 739, "aire_ha": 26.4, "seuil_max_m": 700, "largeur_libre_m": 60}}, {"type": "Feature", "geometry": {"type": "LineString", "coordinates": [[5.32284, 46.4911], [5.32204, 46.49838]]}, "properties": {"nom": "Étang de Louvarel", "region": "Bourgogne", "longueur_m": 811, "aire_ha": 18.4, "seuil_max_m": 700, "largeur_libre_m": 60}}, {"type": "Feature", "geometry": {"type": "LineString", "coordinates": [[4.98688, 46.86563], [4.98711, 46.87197]]}, "properties": {"nom": null, "region": "Bourgogne", "longueur_m": 704, "aire_ha": 17.3, "seuil_max_m": 700, "largeur_libre_m": 60}}, {"type": "Feature", "geometry": {"type": "LineString", "coordinates": [[5.11481, 46.98805], [5.11309, 46.99443]]}, "properties": {"nom": null, "region": "Bourgogne", "longueur_m": 720, "aire_ha": 24.0, "seuil_max_m": 700, "largeur_libre_m": 60}}, {"type": "Feature", "geometry": {"type": "LineString", "coordinates": [[3.29124, 46.87751], [3.29052, 46.88753]]}, "properties": {"nom": null, "region": "Bourgogne", "longueur_m": 1114, "aire_ha": 40.2, "seuil_max_m": 1000, "largeur_libre_m": 60}}, {"type": "Feature", "geometry": {"type": "LineString", "coordinates": [[4.46429, 46.77983], [4.45708, 46.79001]]}, "properties": {"nom": "Grand Étang de Torcy", "region": "Bourgogne", "longueur_m": 1257, "aire_ha": 55.1, "seuil_max_m": 1000, "largeur_libre_m": 60}}, {"type": "Feature", "geometry": {"type": "LineString", "coordinates": [[3.91191, 47.12976], [3.8905, 47.15574]]}, "properties": {"nom": "Réservoir de Pannecière", "region": "Bourgogne", "longueur_m": 3310, "aire_ha": 430.7, "seuil_max_m": 3000, "largeur_libre_m": 60}}, {"type": "Feature", "geometry": {"type": "LineString", "coordinates": [[4.49113, 46.85493], [4.48806, 46.86583]]}, "properties": {"nom": "Étang de Brandon", "region": "Bourgogne", "longueur_m": 1232, "aire_ha": 39.7, "seuil_max_m": 1000, "largeur_libre_m": 60}}, {"type": "Feature", "geometry": {"type": "LineString", "coordinates": [[5.15958, 46.68403], [5.1691, 46.68419]]}, "properties": {"nom": "Étang du Charmoy", "region": "Bourgogne", "longueur_m": 727, "aire_ha": 16.9, "seuil_max_m": 700, "largeur_libre_m": 60}}, {"type": "Feature", "geometry": {"type": "LineString", "coordinates": [[4.4775, 46.7184], [4.4684, 46.72489]]}, "properties": {"nom": "Étang Berthaud", "region": "Bourgogne", "longueur_m": 1002, "aire_ha": 39.5, "seuil_max_m": 1000, "largeur_libre_m": 60}}, {"type": "Feature", "geometry": {"type": "LineString", "coordinates": [[5.01645, 47.00633], [5.01683, 47.01648]]}, "properties": {"nom": "Étang de Champ Jarley", "region": "Bourgogne", "longueur_m": 1127, "aire_ha": 31.3, "seuil_max_m": 1000, "largeur_libre_m": 60}}, {"type": "Feature", "geometry": {"type": "LineString", "coordinates": [[3.28682, 48.15213], [3.30279, 48.15436]]}, "properties": {"nom": null, "region": "Bourgogne", "longueur_m": 1213, "aire_ha": 39.1, "seuil_max_m": 1000, "largeur_libre_m": 60}}, {"type": "Feature", "geometry": {"type": "LineString", "coordinates": [[3.04049, 48.10717], [3.03683, 48.11633]]}, "properties": {"nom": "Étang de Galetas", "region": "Bourgogne", "longueur_m": 1054, "aire_ha": 63.0, "seuil_max_m": 1000, "largeur_libre_m": 60}}, {"type": "Feature", "geometry": {"type": "LineString", "coordinates": [[5.13634, 46.88159], [5.14153, 46.88903]]}, "properties": {"nom": "Étang de Mervins", "region": "Bourgogne", "longueur_m": 916, "aire_ha": 18.0, "seuil_max_m": 700, "largeur_libre_m": 60}}, {"type": "Feature", "geometry": {"type": "LineString", "coordinates": [[4.3584, 46.74103], [4.34487, 46.74969]]}, "properties": {"nom": null, "region": "Bourgogne", "longueur_m": 1411, "aire_ha": 39.5, "seuil_max_m": 1340, "largeur_libre_m": 60}}, {"type": "Feature", "geometry": {"type": "LineString", "coordinates": [[3.63507, 47.18875], [3.63016, 47.19644]]}, "properties": {"nom": "Étang Neuf", "region": "Bourgogne", "longueur_m": 932, "aire_ha": 28.4, "seuil_max_m": 700, "largeur_libre_m": 60}}, {"type": "Feature", "geometry": {"type": "LineString", "coordinates": [[4.35164, 47.46121], [4.36009, 47.46804]]}, "properties": {"nom": "Lac de Pont", "region": "Bourgogne", "longueur_m": 991, "aire_ha": 75.8, "seuil_max_m": 700, "largeur_libre_m": 60}}, {"type": "Feature", "geometry": {"type": "LineString", "coordinates": [[5.19772, 46.88921], [5.19699, 46.89564]]}, "properties": {"nom": "Étang de la Chaînée", "region": "Bourgogne", "longueur_m": 717, "aire_ha": 20.1, "seuil_max_m": 700, "largeur_libre_m": 60}}, {"type": "Feature", "geometry": {"type": "LineString", "coordinates": [[4.47058, 47.09277], [4.4789, 47.09631]]}, "properties": {"nom": "Étang de Breuil", "region": "Bourgogne", "longueur_m": 744, "aire_ha": 14.2, "seuil_max_m": 700, "largeur_libre_m": 60}}, {"type": "Feature", "geometry": {"type": "LineString", "coordinates": [[5.34103, 47.0951], [5.3482, 47.10303]]}, "properties": {"nom": "Étang du Milieu", "region": "Bourgogne", "longueur_m": 1036, "aire_ha": 31.5, "seuil_max_m": 1000, "largeur_libre_m": 60}}, {"type": "Feature", "geometry": {"type": "LineString", "coordinates": [[3.10771, 48.33918], [3.11852, 48.34194]]}, "properties": {"nom": null, "region": "Bourgogne", "longueur_m": 857, "aire_ha": 32.0, "seuil_max_m": 700, "largeur_libre_m": 60}}, {"type": "Feature", "geometry": {"type": "LineString", "coordinates": [[4.48231, 46.73655], [4.48994, 46.74349]]}, "properties": {"nom": "Étang de Montchanin", "region": "Bourgogne", "longueur_m": 966, "aire_ha": 23.8, "seuil_max_m": 700, "largeur_libre_m": 60}}, {"type": "Feature", "geometry": {"type": "LineString", "coordinates": [[4.50322, 47.25029], [4.50834, 47.25888]]}, "properties": {"nom": "Reservoir de Cercey", "region": "Bourgogne", "longueur_m": 1029, "aire_ha": 69.5, "seuil_max_m": 1000, "largeur_libre_m": 60}}, {"type": "Feature", "geometry": {"type": "LineString", "coordinates": [[5.33867, 46.89027], [5.3482, 46.89077]]}, "properties": {"nom": "Étang du Meix", "region": "Bourgogne", "longueur_m": 728, "aire_ha": 21.2, "seuil_max_m": 700, "largeur_libre_m": 60}}, {"type": "Feature", "geometry": {"type": "LineString", "coordinates": [[3.11473, 47.60471], [3.09021, 47.60917]]}, "properties": {"nom": "Lac du Bourdon", "region": "Bourgogne", "longueur_m": 1908, "aire_ha": 123.8, "seuil_max_m": 1500, "largeur_libre_m": 60}}, {"type": "Feature", "geometry": {"type": "LineString", "coordinates": [[4.4441, 46.58058], [4.46061, 46.58156]]}, "properties": {"nom": "Étang du Rousset", "region": "Bourgogne", "longueur_m": 1269, "aire_ha": 41.2, "seuil_max_m": 1000, "largeur_libre_m": 60}}, {"type": "Feature", "geometry": {"type": "LineString", "coordinates": [[3.22242, 46.94603], [3.21812, 46.95185]]}, "properties": {"nom": null, "region": "Bourgogne", "longueur_m": 724, "aire_ha": 25.7, "seuil_max_m": 700, "largeur_libre_m": 60}}, {"type": "Feature", "geometry": {"type": "LineString", "coordinates": [[4.17143, 47.27856], [4.16866, 47.28605]]}, "properties": {"nom": "Étang Fortier", "region": "Bourgogne", "longueur_m": 858, "aire_ha": 22.3, "seuil_max_m": 700, "largeur_libre_m": 60}}, {"type": "Feature", "geometry": {"type": "LineString", "coordinates": [[2.90379, 47.32622], [2.9149, 47.32912]]}, "properties": {"nom": "Étang des Hâtes", "region": "Bourgogne", "longueur_m": 899, "aire_ha": 14.0, "seuil_max_m": 700, "largeur_libre_m": 60}}, {"type": "Feature", "geometry": {"type": "LineString", "coordinates": [[4.62499, 47.23797], [4.63523, 47.2495]]}, "properties": {"nom": "Lac de Panthier", "region": "Bourgogne", "longueur_m": 1496, "aire_ha": 117.2, "seuil_max_m": 1340, "largeur_libre_m": 60}}, {"type": "Feature", "geometry": {"type": "LineString", "coordinates": [[4.10054, 47.31957], [4.07693, 47.33607]]}, "properties": {"nom": "Lac de Saint-Agnan", "region": "Bourgogne", "longueur_m": 2558, "aire_ha": 122.4, "seuil_max_m": 2000, "largeur_libre_m": 60}}, {"type": "Feature", "geometry": {"type": "LineString", "coordinates": [[4.06857, 47.17352], [4.0635, 47.19742]]}, "properties": {"nom": "Lac des Settons", "region": "Bourgogne", "longueur_m": 2683, "aire_ha": 328.3, "seuil_max_m": 2000, "largeur_libre_m": 60}}, {"type": "Feature", "geometry": {"type": "LineString", "coordinates": [[4.56131, 47.07927], [4.57348, 47.07998]]}, "properties": {"nom": "Étang de Lacanche", "region": "Bourgogne", "longueur_m": 927, "aire_ha": 36.7, "seuil_max_m": 700, "largeur_libre_m": 60}}, {"type": "Feature", "geometry": {"type": "LineString", "coordinates": [[4.30915, 46.91816], [4.29679, 46.92157]]}, "properties": {"nom": "Étang de la Toison", "region": "Bourgogne", "longueur_m": 1014, "aire_ha": 35.8, "seuil_max_m": 1000, "largeur_libre_m": 60}}]}