{"type": "FeatureCollection", "metadata": {"region": "Franche-Comte", "source": "OpenStreetMap via Geofabrik", "methode": "recollage des polygones contigus, erosion de W/2, plus longue corde inscrite", "largeur_libre_m": 60, "avertissement": "profondeur, obstacles et degagement d'approche NON pris en compte : borne haute de candidats"}, "features": [{"type": "Feature", "geometry": {"type": "LineString", "coordinates": [[6.07883, 46.49958], [6.1015, 46.51005]]}, "properties": {"nom": "Lac des Rousses", "region": "Franche-Comte", "longueur_m": 2091, "aire_ha": 90.9, "seuil_max_m": 2000, "largeur_libre_m": 60}}, {"type": "Feature", "geometry": {"type": "LineString", "coordinates": [[5.81153, 46.66828], [5.77541, 46.67047]]}, "properties": {"nom": "Lac de Chalain", "region": "Franche-Comte", "longueur_m": 2771, "aire_ha": 227.2, "seuil_max_m": 2000, "largeur_libre_m": 60}}, {"type": "Feature", "geometry": {"type": "LineString", "coordinates": [[5.74956, 46.56081], [5.74781, 46.57068]]}, "properties": {"nom": "Grand Lac", "region": "Franche-Comte", "longueur_m": 1104, "aire_ha": 58.9, "seuil_max_m": 1000, "largeur_libre_m": 60}}, {"type": "Feature", "geometry": {"type": "LineString", "coordinates": [[5.81919, 46.62054], [5.81369, 46.63158]]}, "properties": {"nom": "Lac du Val", "region": "Franche-Comte", "longueur_m": 1295, "aire_ha": 47.8, "seuil_max_m": 1000, "largeur_libre_m": 60}}, {"type": "Feature", "geometry": {"type": "LineString", "coordinates": [[5.90402, 46.52366], [5.92024, 46.53649]]}, "properties": {"nom": "Lac de l'Abbaye", "region": "Franche-Comte", "longueur_m": 1892, "aire_ha": 82.2, "seuil_max_m": 1500, "largeur_libre_m": 60}}, {"type": "Feature", "geometry": {"type": "LineString", "coordinates": [[6.86687, 47.33588], [6.87971, 47.34096]]}, "properties": {"nom": "Cours du Doubs", "region": "Franche-Comte", "longueur_m": 1122, "aire_ha": 38.4, "seuil_max_m": 1000, "largeur_libre_m": 60}}, {"type": "Feature", "geometry": {"type": "LineString", "coordinates": [[6.80932, 47.68292], [6.7966, 47.69143]]}, "properties": {"nom": "Lac du Malsaucy", "region": "Franche-Comte", "longueur_m": 1343, "aire_ha": 53.9, "seuil_max_m": 1340, "largeur_libre_m": 60}}, {"type": "Feature", "geometry": {"type": "LineString", "coordinates": [[6.81615, 47.6852], [6.80706, 47.69196]]}, "properties": {"nom": "Étang de la Véronne", "region": "Franche-Comte", "longueur_m": 1015, "aire_ha": 33.8, "seuil_max_m": 1000, "largeur_libre_m": 60}}, {"type": "Feature", "geometry": {"type": "LineString", "coordinates": [[6.86526, 47.6517], [6.87952, 47.65431]]}, "properties": {"nom": "Étang des Forges", "region": "Franche-Comte", "longueur_m": 1109, "aire_ha": 32.5, "seuil_max_m": 1000, "largeur_libre_m": 60}}, {"type": "Feature", "geometry": {"type": "LineString", "coordinates": [[6.84452, 47.16567], [6.8592, 47.16518]]}, "properties": {"nom": "Cours du Doubs", "region": "Franche-Comte", "longueur_m": 1114, "aire_ha": 196.8, "seuil_max_m": 1000, "largeur_libre_m": 60}}, {"type": "Feature", "geometry": {"type": "LineString", "coordinates": [[6.28994, 46.79205], [6.33755, 46.83803]]}, "properties": {"nom": "Lac de Saint-Point", "region": "Franche-Comte", "longueur_m": 6266, "aire_ha": 533.8, "seuil_max_m": 3000, "largeur_libre_m": 60}}, {"type": "Feature", "geometry": {"type": "LineString", "coordinates": [[6.15362, 46.82486], [6.15022, 46.83522]]}, "properties": {"nom": "Grand Étang de Frasne", "region": "Franche-Comte", "longueur_m": 1180, "aire_ha": 59.1, "seuil_max_m": 1000, "largeur_libre_m": 60}}, {"type": "Feature", "geometry": {"type": "LineString", "coordinates": [[6.1571, 46.83625], [6.15999, 46.84261]]}, "properties": {"nom": "Étang Lucien", "region": "Franche-Comte", "longueur_m": 739, "aire_ha": 24.9, "seuil_max_m": 700, "largeur_libre_m": 60}}, {"type": "Feature", "geometry": {"type": "LineString", "coordinates": [[5.45006, 46.97145], [5.44465, 46.98052]]}, "properties": {"nom": "Étang de Servotte", "region": "Franche-Comte", "longueur_m": 1088, "aire_ha": 21.9, "seuil_max_m": 1000, "largeur_libre_m": 60}}, {"type": "Feature", "geometry": {"type": "LineString", "coordinates": [[5.31966, 46.92299], [5.337, 46.92389]]}, "properties": {"nom": "Cours du Doubs", "region": "Franche-Comte", "longueur_m": 1323, "aire_ha": 2681.9, "seuil_max_m": 1000, "largeur_libre_m": 60}}, {"type": "Feature", "geometry": {"type": "LineString", "coordinates": [[6.12696, 47.63114], [6.10846, 47.63903]]}, "properties": {"nom": "Lac de Vesoul-Vaivre", "region": "Franche-Comte", "longueur_m": 1643, "aire_ha": 85.8, "seuil_max_m": 1500, "largeur_libre_m": 60}}, {"type": "Feature", "geometry": {"type": "LineString", "coordinates": [[5.80723, 46.64021], [5.80028, 46.64733]]}, "properties": {"nom": "Lac de Chambly", "region": "Franche-Comte", "longueur_m": 953, "aire_ha": 28.0, "seuil_max_m": 700, "largeur_libre_m": 60}}, {"type": "Feature", "geometry": {"type": "LineString", "coordinates": [[5.5643, 47.44742], [5.57379, 47.44822]]}, "properties": {"nom": "L'Ognon", "region": "Franche-Comte", "longueur_m": 721, "aire_ha": 1311.4, "seuil_max_m": 700, "largeur_libre_m": 60}}, {"type": "Feature", "geometry": {"type": "LineString", "coordinates": [[5.71505, 46.62674], [5.72094, 46.63325]]}, "properties": {"nom": null, "region": "Franche-Comte", "longueur_m": 852, "aire_ha": 109.6, "seuil_max_m": 700, "largeur_libre_m": 60}}, {"type": "Feature", "geometry": {"type": "LineString", "coordinates": [[5.32588, 46.87804], [5.33227, 46.88263]]}, "properties": {"nom": "Étang du Fay", "region": "Franche-Comte", "longueur_m": 705, "aire_ha": 22.0, "seuil_max_m": 700, "largeur_libre_m": 60}}, {"type": "Feature", "geometry": {"type": "LineString", "coordinates": [[6.35957, 47.51656], [6.36911, 47.52135]]}, "properties": {"nom": "Lac de Bonnal", "region": "Franche-Comte", "longueur_m": 894, "aire_ha": 21.8, "seuil_max_m": 700, "largeur_libre_m": 60}}, {"type": "Feature", "geometry": {"type": "LineString", "coordinates": [[6.85987, 47.53639], [6.86033, 47.54281]]}, "properties": {"nom": "Gravière de Dambenois", "region": "Franche-Comte", "longueur_m": 715, "aire_ha": 16.1, "seuil_max_m": 700, "largeur_libre_m": 60}}, {"type": "Feature", "geometry": {"type": "LineString", "coordinates": [[6.73124, 47.08892], [6.74578, 47.0934]]}, "properties": {"nom": "Lac de Moron", "region": "Franche-Comte", "longueur_m": 1211, "aire_ha": 184.9, "seuil_max_m": 1000, "largeur_libre_m": 60}}, {"type": "Feature", "geometry": {"type": "LineString", "coordinates": [[6.73138, 47.68312], [6.71227, 47.68799]]}, "properties": {"nom": "Bassin de Champagney", "region": "Franche-Comte", "longueur_m": 1533, "aire_ha": 93.9, "seuil_max_m": 1500, "largeur_libre_m": 60}}, {"type": "Feature", "geometry": {"type": "LineString", "coordinates": [[5.60196, 46.31536], [5.64022, 46.3429]]}, "properties": {"nom": "Lac de Coiselet", "region": "Franche-Comte", "longueur_m": 4245, "aire_ha": 475.2, "seuil_max_m": 3000, "largeur_libre_m": 60}}, {"type": "Feature", "geometry": {"type": "LineString", "coordinates": [[6.49448, 47.72388], [6.4906, 47.72964]]}, "properties": {"nom": "Étang du grand Saint-Maurice", "region": "Franche-Comte", "longueur_m": 703, "aire_ha": 18.9, "seuil_max_m": 700, "largeur_libre_m": 60}}, {"type": "Feature", "geometry": {"type": "LineString", "coordinates": [[5.38745, 47.06665], [5.39703, 47.06894]]}, "properties": {"nom": null, "region": "Franche-Comte", "longueur_m": 770, "aire_ha": 38.2, "seuil_max_m": 700, "largeur_libre_m": 60}}, {"type": "Feature", "geometry": {"type": "LineString", "coordinates": [[6.30266, 47.83457], [6.31441, 47.8387]]}, "properties": {"nom": "Ètang du Beuchot", "region": "Franche-Comte", "longueur_m": 992, "aire_ha": 21.7, "seuil_max_m": 700, "largeur_libre_m": 60}}, {"type": "Feature", "geometry": {"type": "LineString", "coordinates": [[5.8019, 46.49855], [5.80543, 46.50651]]}, "properties": {"nom": "Le Grand Lac", "region": "Franche-Comte", "longueur_m": 925, "aire_ha": 15.6, "seuil_max_m": 700, "largeur_libre_m": 60}}, {"type": "Feature", "geometry": {"type": "LineString", "coordinates": [[5.90286, 46.62158], [5.91165, 46.62783]]}, "properties": {"nom": "Lac du Grand Maclu", "region": "Franche-Comte", "longueur_m": 966, "aire_ha": 24.0, "seuil_max_m": 700, "largeur_libre_m": 60}}, {"type": "Feature", "geometry": {"type": "LineString", "coordinates": [[5.88929, 46.61861], [5.90376, 46.63132]]}, "properties": {"nom": "Lac d'Ilay", "region": "Franche-Comte", "longueur_m": 1795, "aire_ha": 71.2, "seuil_max_m": 1500, "largeur_libre_m": 60}}, {"type": "Feature", "geometry": {"type": "LineString", "coordinates": [[5.90663, 46.64339], [5.9182, 46.64393]]}, "properties": {"nom": "Lac de Narlay", "region": "Franche-Comte", "longueur_m": 886, "aire_ha": 39.5, "seuil_max_m": 700, "largeur_libre_m": 60}}, {"type": "Feature", "geometry": {"type": "LineString", "coordinates": [[5.54195, 46.26948], [5.55196, 46.27945]]}, "properties": {"nom": "Lac de Conflans", "region": "Franche-Comte", "longueur_m": 1349, "aire_ha": 174.7, "seuil_max_m": 1340, "largeur_libre_m": 60}}, {"type": "Feature", "geometry": {"type": "LineString", "coordinates": [[5.4885, 46.75862], [5.49018, 46.76704]]}, "properties": {"nom": "Lac de Desnes", "region": "Franche-Comte", "longueur_m": 944, "aire_ha": 35.4, "seuil_max_m": 700, "largeur_libre_m": 60}}, {"type": "Feature", "geometry": {"type": "LineString", "coordinates": [[5.33867, 46.89027], [5.3482, 46.89077]]}, "properties": {"nom": "Étang du Meix", "region": "Franche-Comte", "longueur_m": 728, "aire_ha": 21.2, "seuil_max_m": 700, "largeur_libre_m": 60}}, {"type": "Feature", "geometry": {"type": "LineString", "coordinates": [[5.67724, 46.42146], [5.70264, 46.45321]]}, "properties": {"nom": "Lac de Vouglans", "region": "Franche-Comte", "longueur_m": 4029, "aire_ha": 1633.2, "seuil_max_m": 3000, "largeur_libre_m": 60}}, {"type": "Feature", "geometry": {"type": "LineString", "coordinates": [[5.52554, 46.89279], [5.53001, 46.89912]]}, "properties": {"nom": "Étang Grande Truge", "region": "Franche-Comte", "longueur_m": 781, "aire_ha": 17.5, "seuil_max_m": 700, "largeur_libre_m": 60}}, {"type": "Feature", "geometry": {"type": "LineString", "coordinates": [[5.51026, 46.87429], [5.51387, 46.8825]]}, "properties": {"nom": "Étang Seigneur", "region": "Franche-Comte", "longueur_m": 952, "aire_ha": 22.5, "seuil_max_m": 700, "largeur_libre_m": 60}}, {"type": "Feature", "geometry": {"type": "LineString", "coordinates": [[6.19986, 46.82498], [6.20282, 46.83513]]}, "properties": {"nom": "Lac de l'Entonnoir", "region": "Franche-Comte", "longueur_m": 1149, "aire_ha": 75.2, "seuil_max_m": 1000, "largeur_libre_m": 60}}]}