{"type": "FeatureCollection", "metadata": {"region": "Limousin", "source": "OpenStreetMap via Geofabrik", "methode": "recollage des polygones contigus, erosion de W/2, plus longue corde inscrite", "largeur_libre_m": 60, "avertissement": "profondeur, obstacles et degagement d'approche NON pris en compte : borne haute de candidats"}, "features": [{"type": "Feature", "geometry": {"type": "LineString", "coordinates": [[0.9349, 45.78488], [0.93709, 45.79655]]}, "properties": {"nom": "Étang de la Pouge", "region": "Limousin", "longueur_m": 1307, "aire_ha": 31.2, "seuil_max_m": 1000, "largeur_libre_m": 60}}, {"type": "Feature", "geometry": {"type": "LineString", "coordinates": [[1.05158, 45.98557], [1.06035, 45.99352]]}, "properties": {"nom": "Étang de Cieux", "region": "Limousin", "longueur_m": 1113, "aire_ha": 36.5, "seuil_max_m": 1000, "largeur_libre_m": 60}}, {"type": "Feature", "geometry": {"type": "LineString", "coordinates": [[1.69779, 45.37656], [1.69355, 45.38399]]}, "properties": {"nom": "Lac de Bournazel", "region": "Limousin", "longueur_m": 889, "aire_ha": 31.4, "seuil_max_m": 700, "largeur_libre_m": 60}}, {"type": "Feature", "geometry": {"type": "LineString", "coordinates": [[1.29815, 46.02815], [1.2707, 46.03737]]}, "properties": {"nom": "Lac de Saint-Pardoux", "region": "Limousin", "longueur_m": 2357, "aire_ha": 304.4, "seuil_max_m": 2000, "largeur_libre_m": 60}}, {"type": "Feature", "geometry": {"type": "LineString", "coordinates": [[1.34896, 46.09321], [1.35206, 46.10199]]}, "properties": {"nom": "Étang de Sagnat", "region": "Limousin", "longueur_m": 1004, "aire_ha": 20.8, "seuil_max_m": 1000, "largeur_libre_m": 60}}, {"type": "Feature", "geometry": {"type": "LineString", "coordinates": [[1.66369, 46.00951], [1.65053, 46.01749]]}, "properties": {"nom": "Le Thaurion", "region": "Limousin", "longueur_m": 1350, "aire_ha": 140.4, "seuil_max_m": 1340, "largeur_libre_m": 60}}, {"type": "Feature", "geometry": {"type": "LineString", "coordinates": [[1.3416, 45.98491], [1.33155, 45.98977]]}, "properties": {"nom": "Étang de la Crouzille", "region": "Limousin", "longueur_m": 947, "aire_ha": 42.1, "seuil_max_m": 700, "largeur_libre_m": 60}}, {"type": "Feature", "geometry": {"type": "LineString", "coordinates": [[1.47933, 45.93365], [1.49131, 45.93931]]}, "properties": {"nom": null, "region": "Limousin", "longueur_m": 1121, "aire_ha": 185.2, "seuil_max_m": 1000, "largeur_libre_m": 60}}, {"type": "Feature", "geometry": {"type": "LineString", "coordinates": [[1.46447, 46.33056], [1.44687, 46.33161]]}, "properties": {"nom": "Étang de la Chaume", "region": "Limousin", "longueur_m": 1359, "aire_ha": 34.8, "seuil_max_m": 1340, "largeur_libre_m": 60}}, {"type": "Feature", "geometry": {"type": "LineString", "coordinates": [[1.20017, 46.31542], [1.20829, 46.31845]]}, "properties": {"nom": "Étang de Murat", "region": "Limousin", "longueur_m": 709, "aire_ha": 27.3, "seuil_max_m": 700, "largeur_libre_m": 60}}, {"type": "Feature", "geometry": {"type": "LineString", "coordinates": [[1.00798, 46.30314], [1.01779, 46.30367]]}, "properties": {"nom": "Le Grand Étang", "region": "Limousin", "longueur_m": 757, "aire_ha": 29.4, "seuil_max_m": 700, "largeur_libre_m": 60}}, {"type": "Feature", "geometry": {"type": "LineString", "coordinates": [[1.23575, 46.30789], [1.24615, 46.31084]]}, "properties": {"nom": "Étang d'Heru", "region": "Limousin", "longueur_m": 865, "aire_ha": 17.9, "seuil_max_m": 700, "largeur_libre_m": 60}}, {"type": "Feature", "geometry": {"type": "LineString", "coordinates": [[1.57168, 46.24286], [1.5903, 46.24515]]}, "properties": {"nom": "Étang de la Grande Cazine", "region": "Limousin", "longueur_m": 1457, "aire_ha": 50.9, "seuil_max_m": 1340, "largeur_libre_m": 60}}, {"type": "Feature", "geometry": {"type": "LineString", "coordinates": [[1.61358, 46.14276], [1.62531, 46.14465]]}, "properties": {"nom": "Étang de la Toueille", "region": "Limousin", "longueur_m": 930, "aire_ha": 28.8, "seuil_max_m": 700, "largeur_libre_m": 60}}, {"type": "Feature", "geometry": {"type": "LineString", "coordinates": [[1.39855, 46.02998], [1.39025, 46.03683]]}, "properties": {"nom": "Étang de Pierre Millier", "region": "Limousin", "longueur_m": 995, "aire_ha": 41.6, "seuil_max_m": 700, "largeur_libre_m": 60}}, {"type": "Feature", "geometry": {"type": "LineString", "coordinates": [[1.36494, 46.01052], [1.35731, 46.01681]]}, "properties": {"nom": "Étang de Gouillet", "region": "Limousin", "longueur_m": 915, "aire_ha": 28.7, "seuil_max_m": 700, "largeur_libre_m": 60}}, {"type": "Feature", "geometry": {"type": "LineString", "coordinates": [[1.73172, 45.8144], [1.7248, 45.81909]]}, "properties": {"nom": null, "region": "Limousin", "longueur_m": 748, "aire_ha": 50.2, "seuil_max_m": 700, "largeur_libre_m": 60}}, {"type": "Feature", "geometry": {"type": "LineString", "coordinates": [[1.65493, 45.81715], [1.66623, 45.81729]]}, "properties": {"nom": null, "region": "Limousin", "longueur_m": 877, "aire_ha": 29.5, "seuil_max_m": 700, "largeur_libre_m": 60}}, {"type": "Feature", "geometry": {"type": "LineString", "coordinates": [[1.82671, 45.59751], [1.8219, 45.60392]]}, "properties": {"nom": "Étang de Saint-Hilaire", "region": "Limousin", "longueur_m": 804, "aire_ha": 29.3, "seuil_max_m": 700, "largeur_libre_m": 60}}, {"type": "Feature", "geometry": {"type": "LineString", "coordinates": [[1.42704, 45.54538], [1.43216, 45.5519]]}, "properties": {"nom": "Plan d'Eau de Forge Neuve", "region": "Limousin", "longueur_m": 826, "aire_ha": 18.2, "seuil_max_m": 700, "largeur_libre_m": 60}}, {"type": "Feature", "geometry": {"type": "LineString", "coordinates": [[2.00503, 45.25467], [1.99939, 45.26883]]}, "properties": {"nom": "Lac de Marcillac", "region": "Limousin", "longueur_m": 1634, "aire_ha": 202.6, "seuil_max_m": 1500, "largeur_libre_m": 60}}, {"type": "Feature", "geometry": {"type": "LineString", "coordinates": [[1.98053, 45.25627], [1.96806, 45.25952]]}, "properties": {"nom": "Étang Ferrier", "region": "Limousin", "longueur_m": 1042, "aire_ha": 32.5, "seuil_max_m": 1000, "largeur_libre_m": 60}}, {"type": "Feature", "geometry": {"type": "LineString", "coordinates": [[1.72114, 45.18086], [1.71233, 45.18391]]}, "properties": {"nom": "Lac du Coiroux", "region": "Limousin", "longueur_m": 770, "aire_ha": 21.4, "seuil_max_m": 700, "largeur_libre_m": 60}}, {"type": "Feature", "geometry": {"type": "LineString", "coordinates": [[1.99882, 45.06447], [2.00095, 45.07206]]}, "properties": {"nom": null, "region": "Limousin", "longueur_m": 859, "aire_ha": 126.5, "seuil_max_m": 700, "largeur_libre_m": 60}}, {"type": "Feature", "geometry": {"type": "LineString", "coordinates": [[2.03338, 46.24551], [2.04211, 46.24756]]}, "properties": {"nom": "Étang de Fragne", "region": "Limousin", "longueur_m": 710, "aire_ha": 17.2, "seuil_max_m": 700, "largeur_libre_m": 60}}, {"type": "Feature", "geometry": {"type": "LineString", "coordinates": [[1.92918, 46.02633], [1.93509, 46.03593]]}, "properties": {"nom": "Étang de la Chapelle", "region": "Limousin", "longueur_m": 1161, "aire_ha": 46.3, "seuil_max_m": 1000, "largeur_libre_m": 60}}, {"type": "Feature", "geometry": {"type": "LineString", "coordinates": [[2.62987, 45.95722], [2.61083, 45.96677]]}, "properties": {"nom": "Étang de Chancelade", "region": "Limousin", "longueur_m": 1816, "aire_ha": 95.4, "seuil_max_m": 1500, "largeur_libre_m": 60}}, {"type": "Feature", "geometry": {"type": "LineString", "coordinates": [[2.42342, 45.78101], [2.42664, 45.78968]]}, "properties": {"nom": "Étang de la Ramade", "region": "Limousin", "longueur_m": 995, "aire_ha": 62.5, "seuil_max_m": 700, "largeur_libre_m": 60}}, {"type": "Feature", "geometry": {"type": "LineString", "coordinates": [[2.27494, 45.77572], [2.26958, 45.78292]]}, "properties": {"nom": null, "region": "Limousin", "longueur_m": 901, "aire_ha": 21.8, "seuil_max_m": 700, "largeur_libre_m": 60}}, {"type": "Feature", "geometry": {"type": "LineString", "coordinates": [[1.94135, 45.75729], [1.93155, 45.76162]]}, "properties": {"nom": "Lac de Faux", "region": "Limousin", "longueur_m": 900, "aire_ha": 36.7, "seuil_max_m": 700, "largeur_libre_m": 60}}, {"type": "Feature", "geometry": {"type": "LineString", "coordinates": [[2.33744, 45.73959], [2.33813, 45.7506]]}, "properties": {"nom": "Étang de Méouze", "region": "Limousin", "longueur_m": 1225, "aire_ha": 50.4, "seuil_max_m": 1000, "largeur_libre_m": 60}}, {"type": "Feature", "geometry": {"type": "LineString", "coordinates": [[1.99607, 45.71363], [1.98965, 45.72689]]}, "properties": {"nom": "Lac du Chammet", "region": "Limousin", "longueur_m": 1555, "aire_ha": 88.6, "seuil_max_m": 1500, "largeur_libre_m": 60}}, {"type": "Feature", "geometry": {"type": "LineString", "coordinates": [[2.12354, 45.51881], [2.12193, 45.52855]]}, "properties": {"nom": "Lac de Sèchemailles", "region": "Limousin", "longueur_m": 1088, "aire_ha": 42.5, "seuil_max_m": 1000, "largeur_libre_m": 60}}, {"type": "Feature", "geometry": {"type": "LineString", "coordinates": [[2.35554, 45.46502], [2.34848, 45.47458]]}, "properties": {"nom": null, "region": "Limousin", "longueur_m": 1196, "aire_ha": 56.1, "seuil_max_m": 1000, "largeur_libre_m": 60}}, {"type": "Feature", "geometry": {"type": "LineString", "coordinates": [[2.357, 45.39895], [2.35127, 45.40672]]}, "properties": {"nom": null, "region": "Limousin", "longueur_m": 973, "aire_ha": 154.6, "seuil_max_m": 700, "largeur_libre_m": 60}}, {"type": "Feature", "geometry": {"type": "LineString", "coordinates": [[2.35988, 46.35441], [2.36834, 46.35875]]}, "properties": {"nom": "Grand Étang", "region": "Limousin", "longueur_m": 810, "aire_ha": 17.2, "seuil_max_m": 700, "largeur_libre_m": 60}}, {"type": "Feature", "geometry": {"type": "LineString", "coordinates": [[1.33844, 45.87148], [1.35093, 45.87402]]}, "properties": {"nom": "La Briance", "region": "Limousin", "longueur_m": 1009, "aire_ha": 830.2, "seuil_max_m": 1000, "largeur_libre_m": 60}}, {"type": "Feature", "geometry": {"type": "LineString", "coordinates": [[1.82096, 46.29022], [1.82222, 46.29987]]}, "properties": {"nom": null, "region": "Limousin", "longueur_m": 1077, "aire_ha": 37.2, "seuil_max_m": 1000, "largeur_libre_m": 60}}, {"type": "Feature", "geometry": {"type": "LineString", "coordinates": [[2.52118, 46.23577], [2.53435, 46.2399]]}, "properties": {"nom": null, "region": "Limousin", "longueur_m": 1113, "aire_ha": 142.3, "seuil_max_m": 1000, "largeur_libre_m": 60}}, {"type": "Feature", "geometry": {"type": "LineString", "coordinates": [[1.24053, 45.9957], [1.23754, 46.0072]]}, "properties": {"nom": "Étang de Tricherie", "region": "Limousin", "longueur_m": 1298, "aire_ha": 29.0, "seuil_max_m": 1000, "largeur_libre_m": 60}}, {"type": "Feature", "geometry": {"type": "LineString", "coordinates": [[2.29768, 45.29631], [2.30981, 45.316]]}, "properties": {"nom": "Lac du Barrage de l'Aigle", "region": "Limousin", "longueur_m": 2385, "aire_ha": 619.8, "seuil_max_m": 2000, "largeur_libre_m": 60}}, {"type": "Feature", "geometry": {"type": "LineString", "coordinates": [[2.01354, 45.16726], [2.02265, 45.18224]]}, "properties": {"nom": null, "region": "Limousin", "longueur_m": 1811, "aire_ha": 625.0, "seuil_max_m": 1500, "largeur_libre_m": 60}}, {"type": "Feature", "geometry": {"type": "LineString", "coordinates": [[2.06978, 45.63147], [2.06406, 45.6375]]}, "properties": {"nom": "Étang des Oussines", "region": "Limousin", "longueur_m": 804, "aire_ha": 18.6, "seuil_max_m": 700, "largeur_libre_m": 60}}, {"type": "Feature", "geometry": {"type": "LineString", "coordinates": [[2.48984, 45.41189], [2.50068, 45.46216]]}, "properties": {"nom": "Lac de Bort-les-Orgues", "region": "Limousin", "longueur_m": 5646, "aire_ha": 975.4, "seuil_max_m": 3000, "largeur_libre_m": 60}}, {"type": "Feature", "geometry": {"type": "LineString", "coordinates": [[1.95393, 45.10903], [1.96533, 45.10914]]}, "properties": {"nom": "Lac du Sablier", "region": "Limousin", "longueur_m": 897, "aire_ha": 86.3, "seuil_max_m": 700, "largeur_libre_m": 60}}, {"type": "Feature", "geometry": {"type": "LineString", "coordinates": [[1.60954, 46.42219], [1.61548, 46.43866]]}, "properties": {"nom": "Lac de Chambon", "region": "Limousin", "longueur_m": 1885, "aire_ha": 282.5, "seuil_max_m": 1500, "largeur_libre_m": 60}}, {"type": "Feature", "geometry": {"type": "LineString", "coordinates": [[1.92938, 45.08899], [1.93997, 45.09154]]}, "properties": {"nom": null, "region": "Limousin", "longueur_m": 880, "aire_ha": 369.9, "seuil_max_m": 700, "largeur_libre_m": 60}}, {"type": "Feature", "geometry": {"type": "LineString", "coordinates": [[1.82366, 45.56324], [1.83398, 45.57478]]}, "properties": {"nom": "Lac des Bariousses", "region": "Limousin", "longueur_m": 1514, "aire_ha": 84.0, "seuil_max_m": 1500, "largeur_libre_m": 60}}, {"type": "Feature", "geometry": {"type": "LineString", "coordinates": [[1.88853, 46.25293], [1.89194, 46.26227]]}, "properties": {"nom": "La Creuse", "region": "Limousin", "longueur_m": 1070, "aire_ha": 47.7, "seuil_max_m": 1000, "largeur_libre_m": 60}}, {"type": "Feature", "geometry": {"type": "LineString", "coordinates": [[2.3239, 46.18078], [2.30528, 46.18134]]}, "properties": {"nom": "Étang des Landes", "region": "Limousin", "longueur_m": 1438, "aire_ha": 91.9, "seuil_max_m": 1340, "largeur_libre_m": 60}}, {"type": "Feature", "geometry": {"type": "LineString", "coordinates": [[1.58249, 45.7879], [1.57015, 45.78958]]}, "properties": {"nom": null, "region": "Limousin", "longueur_m": 977, "aire_ha": 36.9, "seuil_max_m": 700, "largeur_libre_m": 60}}, {"type": "Feature", "geometry": {"type": "LineString", "coordinates": [[1.62944, 45.8036], [1.63792, 45.80807]]}, "properties": {"nom": null, "region": "Limousin", "longueur_m": 824, "aire_ha": 25.8, "seuil_max_m": 700, "largeur_libre_m": 60}}, {"type": "Feature", "geometry": {"type": "LineString", "coordinates": [[1.87983, 45.78442], [1.84548, 45.80543]]}, "properties": {"nom": "Lac de Vassivière", "region": "Limousin", "longueur_m": 3544, "aire_ha": 903.9, "seuil_max_m": 3000, "largeur_libre_m": 60}}, {"type": "Feature", "geometry": {"type": "LineString", "coordinates": [[1.88608, 45.58131], [1.88577, 45.59646]]}, "properties": {"nom": "Lac de Viam", "region": "Limousin", "longueur_m": 1683, "aire_ha": 143.2, "seuil_max_m": 1500, "largeur_libre_m": 60}}, {"type": "Feature", "geometry": {"type": "LineString", "coordinates": [[1.96233, 45.83129], [1.96503, 45.85186]]}, "properties": {"nom": "Lac de la Vaud Gelade", "region": "Limousin", "longueur_m": 2294, "aire_ha": 214.7, "seuil_max_m": 2000, "largeur_libre_m": 60}}, {"type": "Feature", "geometry": {"type": "LineString", "coordinates": [[2.31617, 46.15893], [2.31506, 46.16571]]}, "properties": {"nom": "Étang de Tête de Boeuf", "region": "Limousin", "longueur_m": 758, "aire_ha": 17.5, "seuil_max_m": 700, "largeur_libre_m": 60}}, {"type": "Feature", "geometry": {"type": "LineString", "coordinates": [[2.30107, 45.37884], [2.28454, 45.40838]]}, "properties": {"nom": "Lac de Neuvic", "region": "Limousin", "longueur_m": 3526, "aire_ha": 277.2, "seuil_max_m": 3000, "largeur_libre_m": 60}}, {"type": "Feature", "geometry": {"type": "LineString", "coordinates": [[2.29239, 45.41029], [2.29593, 45.41994]]}, "properties": {"nom": "Lac de Neuvic", "region": "Limousin", "longueur_m": 1106, "aire_ha": 29.3, "seuil_max_m": 1000, "largeur_libre_m": 60}}, {"type": "Feature", "geometry": {"type": "LineString", "coordinates": [[0.70028, 45.80218], [0.68448, 45.82516]]}, "properties": {"nom": "Lac de Lavaud", "region": "Limousin", "longueur_m": 2832, "aire_ha": 187.2, "seuil_max_m": 2000, "largeur_libre_m": 60}}, {"type": "Feature", "geometry": {"type": "LineString", "coordinates": [[2.04273, 45.14319], [2.03192, 45.1435]]}, "properties": {"nom": "Lac de Feyt", "region": "Limousin", "longueur_m": 851, "aire_ha": 47.9, "seuil_max_m": 700, "largeur_libre_m": 60}}, {"type": "Feature", "geometry": {"type": "LineString", "coordinates": [[1.8546, 46.15945], [1.85551, 46.16644]]}, "properties": {"nom": "Étang de Courtille", "region": "Limousin", "longueur_m": 779, "aire_ha": 20.4, "seuil_max_m": 700, "largeur_libre_m": 60}}, {"type": "Feature", "geometry": {"type": "LineString", "coordinates": [[1.4322, 45.09199], [1.46214, 45.09812]]}, "properties": {"nom": "Lac du Causse", "region": "Limousin", "longueur_m": 2451, "aire_ha": 73.8, "seuil_max_m": 2000, "largeur_libre_m": 60}}, {"type": "Feature", "geometry": {"type": "LineString", "coordinates": [[2.23181, 46.13194], [2.24108, 46.1353]]}, "properties": {"nom": "Étang de Pinaud", "region": "Limousin", "longueur_m": 807, "aire_ha": 31.9, "seuil_max_m": 700, "largeur_libre_m": 60}}]}