{"type": "FeatureCollection", "metadata": {"region": "Basse-Normandie", "source": "OpenStreetMap via Geofabrik", "methode": "recollage des polygones contigus, erosion de W/2, plus longue corde inscrite", "largeur_libre_m": 60, "avertissement": "profondeur, obstacles et degagement d'approche NON pris en compte : borne haute de candidats"}, "features": [{"type": "Feature", "geometry": {"type": "LineString", "coordinates": [[-0.3055, 49.22138], [-0.28107, 49.23406]]}, "properties": {"nom": "Bassin d'Hérouville", "region": "Basse-Normandie", "longueur_m": 2271, "aire_ha": 482.6, "seuil_max_m": 2000, "largeur_libre_m": 60}}, {"type": "Feature", "geometry": {"type": "LineString", "coordinates": [[-1.04983, 48.79839], [-1.06582, 48.79951]]}, "properties": {"nom": "Lac du Gast", "region": "Basse-Normandie", "longueur_m": 1182, "aire_ha": 58.9, "seuil_max_m": 1000, "largeur_libre_m": 60}}, {"type": "Feature", "geometry": {"type": "LineString", "coordinates": [[-0.9556, 48.80657], [-0.9444, 48.80984]]}, "properties": {"nom": "Lac de la Dathée", "region": "Basse-Normandie", "longueur_m": 899, "aire_ha": 39.0, "seuil_max_m": 700, "largeur_libre_m": 60}}, {"type": "Feature", "geometry": {"type": "LineString", "coordinates": [[-0.10353, 49.29539], [-0.09101, 49.29747]]}, "properties": {"nom": "Port Guillaume", "region": "Basse-Normandie", "longueur_m": 940, "aire_ha": 104.9, "seuil_max_m": 700, "largeur_libre_m": 60}}, {"type": "Feature", "geometry": {"type": "LineString", "coordinates": [[-0.03022, 48.65092], [-0.02307, 48.65552]]}, "properties": {"nom": "Étang de Vrigny", "region": "Basse-Normandie", "longueur_m": 734, "aire_ha": 27.7, "seuil_max_m": 700, "largeur_libre_m": 60}}, {"type": "Feature", "geometry": {"type": "LineString", "coordinates": [[0.84936, 48.52803], [0.84209, 48.53432]]}, "properties": {"nom": "Étang des Personnes", "region": "Basse-Normandie", "longueur_m": 881, "aire_ha": 25.3, "seuil_max_m": 700, "largeur_libre_m": 60}}, {"type": "Feature", "geometry": {"type": "LineString", "coordinates": [[-1.87662, 49.70677], [-1.86059, 49.71631]]}, "properties": {"nom": null, "region": "Basse-Normandie", "longueur_m": 1570, "aire_ha": 143.4, "seuil_max_m": 1500, "largeur_libre_m": 60}}, {"type": "Feature", "geometry": {"type": "LineString", "coordinates": [[-1.37604, 49.70689], [-1.39632, 49.70685]]}, "properties": {"nom": null, "region": "Basse-Normandie", "longueur_m": 1464, "aire_ha": 181.3, "seuil_max_m": 1340, "largeur_libre_m": 60}}, {"type": "Feature", "geometry": {"type": "LineString", "coordinates": [[-0.82699, 49.35915], [-0.89906, 49.3803]]}, "properties": {"nom": null, "region": "Basse-Normandie", "longueur_m": 5740, "aire_ha": 306.9, "seuil_max_m": 3000, "largeur_libre_m": 60}}, {"type": "Feature", "geometry": {"type": "LineString", "coordinates": [[-1.58315, 49.67095], [-1.57256, 49.67497]]}, "properties": {"nom": null, "region": "Basse-Normandie", "longueur_m": 886, "aire_ha": 52.2, "seuil_max_m": 700, "largeur_libre_m": 60}}, {"type": "Feature", "geometry": {"type": "LineString", "coordinates": [[-1.64693, 49.65775], [-1.67031, 49.65924]]}, "properties": {"nom": null, "region": "Basse-Normandie", "longueur_m": 1697, "aire_ha": 90.8, "seuil_max_m": 1500, "largeur_libre_m": 60}}, {"type": "Feature", "geometry": {"type": "LineString", "coordinates": [[-1.43297, 48.64706], [-1.50894, 48.6833]]}, "properties": {"nom": null, "region": "Basse-Normandie", "longueur_m": 6894, "aire_ha": 775.8, "seuil_max_m": 3000, "largeur_libre_m": 60}}, {"type": "Feature", "geometry": {"type": "LineString", "coordinates": [[-1.51534, 48.59484], [-1.51347, 48.60721]]}, "properties": {"nom": null, "region": "Basse-Normandie", "longueur_m": 1383, "aire_ha": 63.2, "seuil_max_m": 1340, "largeur_libre_m": 60}}, {"type": "Feature", "geometry": {"type": "LineString", "coordinates": [[-0.26722, 48.77415], [-0.2851, 48.78115]]}, "properties": {"nom": "Lac de Rabodanges", "region": "Basse-Normandie", "longueur_m": 1527, "aire_ha": 82.8, "seuil_max_m": 1500, "largeur_libre_m": 60}}, {"type": "Feature", "geometry": {"type": "LineString", "coordinates": [[0.20236, 49.27048], [0.19699, 49.28012]]}, "properties": {"nom": "Lac de Pont-L'Évêque", "region": "Basse-Normandie", "longueur_m": 1142, "aire_ha": 57.3, "seuil_max_m": 1000, "largeur_libre_m": 60}}, {"type": "Feature", "geometry": {"type": "LineString", "coordinates": [[-1.11321, 49.32651], [-1.11727, 49.34328]]}, "properties": {"nom": null, "region": "Basse-Normandie", "longueur_m": 1889, "aire_ha": 149.2, "seuil_max_m": 1500, "largeur_libre_m": 60}}, {"type": "Feature", "geometry": {"type": "LineString", "coordinates": [[0.82367, 48.33616], [0.83372, 48.34132]]}, "properties": {"nom": "Plan d'eau de la Borde", "region": "Basse-Normandie", "longueur_m": 940, "aire_ha": 22.0, "seuil_max_m": 700, "largeur_libre_m": 60}}, {"type": "Feature", "geometry": {"type": "LineString", "coordinates": [[-1.72636, 49.67838], [-1.74744, 49.67899]]}, "properties": {"nom": null, "region": "Basse-Normandie", "longueur_m": 1523, "aire_ha": 31.1, "seuil_max_m": 1500, "largeur_libre_m": 60}}, {"type": "Feature", "geometry": {"type": "LineString", "coordinates": [[0.80917, 48.55419], [0.81681, 48.56159]]}, "properties": {"nom": "Étang du Bouillon", "region": "Basse-Normandie", "longueur_m": 997, "aire_ha": 41.7, "seuil_max_m": 700, "largeur_libre_m": 60}}, {"type": "Feature", "geometry": {"type": "LineString", "coordinates": [[0.22766, 49.4307], [0.36358, 49.4384]]}, "properties": {"nom": null, "region": "Basse-Normandie", "longueur_m": 9899, "aire_ha": 782.4, "seuil_max_m": 3000, "largeur_libre_m": 60}}, {"type": "Feature", "geometry": {"type": "LineString", "coordinates": [[-1.38764, 49.27261], [-1.37296, 49.29161]]}, "properties": {"nom": "Tourbière de Sèves", "region": "Basse-Normandie", "longueur_m": 2368, "aire_ha": 345.2, "seuil_max_m": 2000, "largeur_libre_m": 60}}]}