{"type": "FeatureCollection", "metadata": {"region": "Aquitaine", "source": "OpenStreetMap via Geofabrik", "methode": "recollage des polygones contigus, erosion de W/2, plus longue corde inscrite", "largeur_libre_m": 60, "avertissement": "profondeur, obstacles et degagement d'approche NON pris en compte : borne haute de candidats"}, "features": [{"type": "Feature", "geometry": {"type": "LineString", "coordinates": [[-0.53662, 44.97743], [-0.61385, 45.03915]]}, "properties": {"nom": "La Dordogne", "region": "Aquitaine", "longueur_m": 9167, "aire_ha": 11547.2, "seuil_max_m": 3000, "largeur_libre_m": 60}}, {"type": "Feature", "geometry": {"type": "LineString", "coordinates": [[-1.35964, 43.49571], [-1.4178, 43.49779]]}, "properties": {"nom": "Cours de la Nive", "region": "Aquitaine", "longueur_m": 4711, "aire_ha": 2465.5, "seuil_max_m": 3000, "largeur_libre_m": 60}}, {"type": "Feature", "geometry": {"type": "LineString", "coordinates": [[-1.65346, 43.38074], [-1.66223, 43.38277]]}, "properties": {"nom": "Kustorrenea", "region": "Aquitaine", "longueur_m": 746, "aire_ha": 54.9, "seuil_max_m": 700, "largeur_libre_m": 60}}, {"type": "Feature", "geometry": {"type": "LineString", "coordinates": [[-0.57815, 44.87858], [-0.58722, 44.89146]]}, "properties": {"nom": "Le Lac", "region": "Aquitaine", "longueur_m": 1599, "aire_ha": 146.0, "seuil_max_m": 1500, "largeur_libre_m": 60}}, {"type": "Feature", "geometry": {"type": "LineString", "coordinates": [[-0.32657, 43.27097], [-0.33395, 43.27497]]}, "properties": {"nom": "Lac d'Aressy", "region": "Aquitaine", "longueur_m": 746, "aire_ha": 18.5, "seuil_max_m": 700, "largeur_libre_m": 60}}, {"type": "Feature", "geometry": {"type": "LineString", "coordinates": [[-1.14245, 45.03223], [-1.14173, 45.04206]]}, "properties": {"nom": "Étang de Cousseau", "region": "Aquitaine", "longueur_m": 1093, "aire_ha": 38.9, "seuil_max_m": 1000, "largeur_libre_m": 60}}, {"type": "Feature", "geometry": {"type": "LineString", "coordinates": [[-0.54627, 43.44174], [-0.5562, 43.44503]]}, "properties": {"nom": "Retenue de l'Aubin", "region": "Aquitaine", "longueur_m": 883, "aire_ha": 25.4, "seuil_max_m": 700, "largeur_libre_m": 60}}, {"type": "Feature", "geometry": {"type": "LineString", "coordinates": [[-0.69453, 45.00589], [-0.70644, 45.00593]]}, "properties": {"nom": "La Barde", "region": "Aquitaine", "longueur_m": 938, "aire_ha": 60.0, "seuil_max_m": 700, "largeur_libre_m": 60}}, {"type": "Feature", "geometry": {"type": "LineString", "coordinates": [[-0.60562, 44.92632], [-0.60146, 44.93203]]}, "properties": {"nom": null, "region": "Aquitaine", "longueur_m": 715, "aire_ha": 19.8, "seuil_max_m": 700, "largeur_libre_m": 60}}, {"type": "Feature", "geometry": {"type": "LineString", "coordinates": [[-0.59081, 44.92605], [-0.59998, 44.932]]}, "properties": {"nom": "Marais de Florimond", "region": "Aquitaine", "longueur_m": 980, "aire_ha": 44.3, "seuil_max_m": 700, "largeur_libre_m": 60}}, {"type": "Feature", "geometry": {"type": "LineString", "coordinates": [[-0.60352, 44.91325], [-0.60343, 44.92224]]}, "properties": {"nom": "Lac des Padouens", "region": "Aquitaine", "longueur_m": 999, "aire_ha": 23.9, "seuil_max_m": 700, "largeur_libre_m": 60}}, {"type": "Feature", "geometry": {"type": "LineString", "coordinates": [[-0.59527, 44.91168], [-0.60067, 44.92189]]}, "properties": {"nom": "Lac de Marotte", "region": "Aquitaine", "longueur_m": 1211, "aire_ha": 52.1, "seuil_max_m": 1000, "largeur_libre_m": 60}}, {"type": "Feature", "geometry": {"type": "LineString", "coordinates": [[-0.59503, 44.8896], [-0.60132, 44.89413]]}, "properties": {"nom": "Étang de la Hutte", "region": "Aquitaine", "longueur_m": 708, "aire_ha": 20.9, "seuil_max_m": 700, "largeur_libre_m": 60}}, {"type": "Feature", "geometry": {"type": "LineString", "coordinates": [[-0.24894, 44.93165], [-0.24864, 44.95101]]}, "properties": {"nom": "Lac des Dagueys", "region": "Aquitaine", "longueur_m": 2150, "aire_ha": 53.4, "seuil_max_m": 2000, "largeur_libre_m": 60}}, {"type": "Feature", "geometry": {"type": "LineString", "coordinates": [[-0.38206, 44.68395], [-0.39577, 44.68455]]}, "properties": {"nom": null, "region": "Aquitaine", "longueur_m": 1088, "aire_ha": 31.1, "seuil_max_m": 1000, "largeur_libre_m": 60}}, {"type": "Feature", "geometry": {"type": "LineString", "coordinates": [[-0.43672, 44.70848], [-0.43901, 44.71649]]}, "properties": {"nom": null, "region": "Aquitaine", "longueur_m": 908, "aire_ha": 28.9, "seuil_max_m": 700, "largeur_libre_m": 60}}, {"type": "Feature", "geometry": {"type": "LineString", "coordinates": [[-0.53062, 43.36696], [-0.54195, 43.36834]]}, "properties": {"nom": "L'Ousse", "region": "Aquitaine", "longueur_m": 932, "aire_ha": 677.8, "seuil_max_m": 700, "largeur_libre_m": 60}}, {"type": "Feature", "geometry": {"type": "LineString", "coordinates": [[-1.35391, 43.7027], [-1.36973, 43.71411]]}, "properties": {"nom": "Étang Blanc", "region": "Aquitaine", "longueur_m": 1798, "aire_ha": 174.4, "seuil_max_m": 1500, "largeur_libre_m": 60}}, {"type": "Feature", "geometry": {"type": "LineString", "coordinates": [[-1.36084, 43.71738], [-1.36751, 43.72272]]}, "properties": {"nom": "Étang de Hardy", "region": "Aquitaine", "longueur_m": 800, "aire_ha": 39.5, "seuil_max_m": 700, "largeur_libre_m": 60}}, {"type": "Feature", "geometry": {"type": "LineString", "coordinates": [[-1.42913, 43.6622], [-1.42923, 43.6823]]}, "properties": {"nom": "Lac d'Hossegor", "region": "Aquitaine", "longueur_m": 2233, "aire_ha": 104.0, "seuil_max_m": 2000, "largeur_libre_m": 60}}, {"type": "Feature", "geometry": {"type": "LineString", "coordinates": [[-0.15542, 45.00601], [-0.16541, 45.00884]]}, "properties": {"nom": "Lac des 5 chemins", "region": "Aquitaine", "longueur_m": 847, "aire_ha": 28.9, "seuil_max_m": 700, "largeur_libre_m": 60}}, {"type": "Feature", "geometry": {"type": "LineString", "coordinates": [[0.3493, 44.66456], [0.35354, 44.68159]]}, "properties": {"nom": "Lac de l'Escourrou", "region": "Aquitaine", "longueur_m": 1921, "aire_ha": 99.9, "seuil_max_m": 1500, "largeur_libre_m": 60}}, {"type": "Feature", "geometry": {"type": "LineString", "coordinates": [[-0.43974, 43.3085], [-0.44873, 43.31452]]}, "properties": {"nom": "Lac de Laroin", "region": "Aquitaine", "longueur_m": 990, "aire_ha": 27.8, "seuil_max_m": 700, "largeur_libre_m": 60}}, {"type": "Feature", "geometry": {"type": "LineString", "coordinates": [[-0.5478, 43.37078], [-0.55599, 43.37428]]}, "properties": {"nom": null, "region": "Aquitaine", "longueur_m": 770, "aire_ha": 14.7, "seuil_max_m": 700, "largeur_libre_m": 60}}, {"type": "Feature", "geometry": {"type": "LineString", "coordinates": [[-0.45868, 43.41989], [-0.4655, 43.43317]]}, "properties": {"nom": "Retenue de l'Ayguelongue", "region": "Aquitaine", "longueur_m": 1576, "aire_ha": 54.9, "seuil_max_m": 1500, "largeur_libre_m": 60}}, {"type": "Feature", "geometry": {"type": "LineString", "coordinates": [[-0.06574, 43.33197], [-0.06446, 43.34614]]}, "properties": {"nom": "Lac du Louet", "region": "Aquitaine", "longueur_m": 1578, "aire_ha": 39.4, "seuil_max_m": 1500, "largeur_libre_m": 60}}, {"type": "Feature", "geometry": {"type": "LineString", "coordinates": [[-0.33476, 43.38797], [-0.34353, 43.39272]]}, "properties": {"nom": "Lac de Serres-Castet", "region": "Aquitaine", "longueur_m": 885, "aire_ha": 24.4, "seuil_max_m": 700, "largeur_libre_m": 60}}, {"type": "Feature", "geometry": {"type": "LineString", "coordinates": [[-0.12026, 43.27025], [-0.14187, 43.29026]]}, "properties": {"nom": "Réservoir du Gabas", "region": "Aquitaine", "longueur_m": 2834, "aire_ha": 173.6, "seuil_max_m": 2000, "largeur_libre_m": 60}}, {"type": "Feature", "geometry": {"type": "LineString", "coordinates": [[-0.68435, 43.3345], [-0.68429, 43.34248]]}, "properties": {"nom": "Retenue du Laa", "region": "Aquitaine", "longueur_m": 887, "aire_ha": 18.0, "seuil_max_m": 700, "largeur_libre_m": 60}}, {"type": "Feature", "geometry": {"type": "LineString", "coordinates": [[-0.346, 43.4346], [-0.35659, 43.44334]]}, "properties": {"nom": "Retenue du Balaing", "region": "Aquitaine", "longueur_m": 1295, "aire_ha": 37.0, "seuil_max_m": 1000, "largeur_libre_m": 60}}, {"type": "Feature", "geometry": {"type": "LineString", "coordinates": [[-0.06169, 43.45439], [-0.07035, 43.46332]]}, "properties": {"nom": "Lac de Bassillon-Vauzé", "region": "Aquitaine", "longueur_m": 1215, "aire_ha": 33.5, "seuil_max_m": 1000, "largeur_libre_m": 60}}, {"type": "Feature", "geometry": {"type": "LineString", "coordinates": [[-0.09, 43.39324], [-0.09037, 43.40013]]}, "properties": {"nom": "Retenue du Petit Lées", "region": "Aquitaine", "longueur_m": 766, "aire_ha": 18.1, "seuil_max_m": 700, "largeur_libre_m": 60}}, {"type": "Feature", "geometry": {"type": "LineString", "coordinates": [[0.00284, 44.82519], [-0.00236, 44.83182]]}, "properties": {"nom": "Lac de la Cadie", "region": "Aquitaine", "longueur_m": 844, "aire_ha": 36.1, "seuil_max_m": 700, "largeur_libre_m": 60}}, {"type": "Feature", "geometry": {"type": "LineString", "coordinates": [[-0.34153, 44.65106], [-0.35261, 44.65468]]}, "properties": {"nom": null, "region": "Aquitaine", "longueur_m": 966, "aire_ha": 15.3, "seuil_max_m": 700, "largeur_libre_m": 60}}, {"type": "Feature", "geometry": {"type": "LineString", "coordinates": [[-1.14044, 44.89399], [-1.15095, 44.89477]]}, "properties": {"nom": "Étang de Lède Basse", "region": "Aquitaine", "longueur_m": 834, "aire_ha": 34.1, "seuil_max_m": 700, "largeur_libre_m": 60}}, {"type": "Feature", "geometry": {"type": "LineString", "coordinates": [[-1.14485, 44.88061], [-1.14335, 44.88737]]}, "properties": {"nom": "Étang du Joncru", "region": "Aquitaine", "longueur_m": 760, "aire_ha": 25.5, "seuil_max_m": 700, "largeur_libre_m": 60}}, {"type": "Feature", "geometry": {"type": "LineString", "coordinates": [[-1.11302, 45.21373], [-1.11571, 45.22271]]}, "properties": {"nom": "Les Layres", "region": "Aquitaine", "longueur_m": 1019, "aire_ha": 32.4, "seuil_max_m": 1000, "largeur_libre_m": 60}}, {"type": "Feature", "geometry": {"type": "LineString", "coordinates": [[-0.85922, 44.02975], [-0.84507, 44.04535]]}, "properties": {"nom": "Lac de Commanday", "region": "Aquitaine", "longueur_m": 2071, "aire_ha": 96.4, "seuil_max_m": 2000, "largeur_libre_m": 60}}, {"type": "Feature", "geometry": {"type": "LineString", "coordinates": [[0.49645, 44.07404], [0.51133, 44.07438]]}, "properties": {"nom": "Lac de Lambronne", "region": "Aquitaine", "longueur_m": 1193, "aire_ha": 31.7, "seuil_max_m": 1000, "largeur_libre_m": 60}}, {"type": "Feature", "geometry": {"type": "LineString", "coordinates": [[-0.86468, 44.0151], [-0.84733, 44.02891]]}, "properties": {"nom": "Lac d'Arjuzanx", "region": "Aquitaine", "longueur_m": 2071, "aire_ha": 159.8, "seuil_max_m": 2000, "largeur_libre_m": 60}}, {"type": "Feature", "geometry": {"type": "LineString", "coordinates": [[-0.87469, 44.0018], [-0.86906, 44.00678]]}, "properties": {"nom": "Lac de Morcenx", "region": "Aquitaine", "longueur_m": 714, "aire_ha": 22.3, "seuil_max_m": 700, "largeur_libre_m": 60}}, {"type": "Feature", "geometry": {"type": "LineString", "coordinates": [[-0.84954, 43.98634], [-0.86406, 43.98804]]}, "properties": {"nom": "Lac des Agréous", "region": "Aquitaine", "longueur_m": 1180, "aire_ha": 47.7, "seuil_max_m": 1000, "largeur_libre_m": 60}}, {"type": "Feature", "geometry": {"type": "LineString", "coordinates": [[-0.14179, 43.93845], [-0.15528, 43.94065]]}, "properties": {"nom": "Lac de Tailluret", "region": "Aquitaine", "longueur_m": 1110, "aire_ha": 39.7, "seuil_max_m": 1000, "largeur_libre_m": 60}}, {"type": "Feature", "geometry": {"type": "LineString", "coordinates": [[-0.87976, 43.97674], [-0.86968, 43.98787]]}, "properties": {"nom": "Lac des 4 Cantons", "region": "Aquitaine", "longueur_m": 1478, "aire_ha": 91.3, "seuil_max_m": 1340, "largeur_libre_m": 60}}, {"type": "Feature", "geometry": {"type": "LineString", "coordinates": [[0.04618, 43.97453], [0.03743, 43.97496]]}, "properties": {"nom": "Lac du Jouandet", "region": "Aquitaine", "longueur_m": 704, "aire_ha": 15.1, "seuil_max_m": 700, "largeur_libre_m": 60}}, {"type": "Feature", "geometry": {"type": "LineString", "coordinates": [[0.02898, 43.92263], [0.03006, 43.92917]]}, "properties": {"nom": null, "region": "Aquitaine", "longueur_m": 732, "aire_ha": 21.7, "seuil_max_m": 700, "largeur_libre_m": 60}}, {"type": "Feature", "geometry": {"type": "LineString", "coordinates": [[-0.19922, 43.84724], [-0.20296, 43.85786]]}, "properties": {"nom": "Réservoir de Charros", "region": "Aquitaine", "longueur_m": 1218, "aire_ha": 34.6, "seuil_max_m": 1000, "largeur_libre_m": 60}}, {"type": "Feature", "geometry": {"type": "LineString", "coordinates": [[-0.53357, 43.80147], [-0.5192, 43.80667]]}, "properties": {"nom": null, "region": "Aquitaine", "longueur_m": 1293, "aire_ha": 39.9, "seuil_max_m": 1000, "largeur_libre_m": 60}}, {"type": "Feature", "geometry": {"type": "LineString", "coordinates": [[-0.39458, 43.79798], [-0.38268, 43.8002]]}, "properties": {"nom": "Lac de Peyrot", "region": "Aquitaine", "longueur_m": 990, "aire_ha": 24.4, "seuil_max_m": 700, "largeur_libre_m": 60}}, {"type": "Feature", "geometry": {"type": "LineString", "coordinates": [[-0.36856, 43.73462], [-0.37045, 43.74385]]}, "properties": {"nom": "Lac du Bayle", "region": "Aquitaine", "longueur_m": 1036, "aire_ha": 24.7, "seuil_max_m": 1000, "largeur_libre_m": 60}}, {"type": "Feature", "geometry": {"type": "LineString", "coordinates": [[-1.37369, 43.69483], [-1.36188, 43.69622]]}, "properties": {"nom": "Étang Noir", "region": "Aquitaine", "longueur_m": 964, "aire_ha": 19.6, "seuil_max_m": 700, "largeur_libre_m": 60}}, {"type": "Feature", "geometry": {"type": "LineString", "coordinates": [[-0.31717, 43.69161], [-0.30661, 43.70627]]}, "properties": {"nom": "Lac du Lourden", "region": "Aquitaine", "longueur_m": 1838, "aire_ha": 61.4, "seuil_max_m": 1500, "largeur_libre_m": 60}}, {"type": "Feature", "geometry": {"type": "LineString", "coordinates": [[-0.28344, 43.67309], [-0.28605, 43.68248]]}, "properties": {"nom": "Lac du Broussau", "region": "Aquitaine", "longueur_m": 1065, "aire_ha": 35.5, "seuil_max_m": 1000, "largeur_libre_m": 60}}, {"type": "Feature", "geometry": {"type": "LineString", "coordinates": [[-1.40672, 43.59029], [-1.3857, 43.61146]]}, "properties": {"nom": "Le Marais d'Orx", "region": "Aquitaine", "longueur_m": 2902, "aire_ha": 338.7, "seuil_max_m": 2000, "largeur_libre_m": 60}}, {"type": "Feature", "geometry": {"type": "LineString", "coordinates": [[-0.56398, 43.63138], [-0.57512, 43.63878]]}, "properties": {"nom": "Lac d'Agès", "region": "Aquitaine", "longueur_m": 1218, "aire_ha": 40.3, "seuil_max_m": 1000, "largeur_libre_m": 60}}, {"type": "Feature", "geometry": {"type": "LineString", "coordinates": [[-0.28593, 43.61144], [-0.28528, 43.61891]]}, "properties": {"nom": null, "region": "Aquitaine", "longueur_m": 832, "aire_ha": 15.4, "seuil_max_m": 700, "largeur_libre_m": 60}}, {"type": "Feature", "geometry": {"type": "LineString", "coordinates": [[-1.41308, 43.56306], [-1.4234, 43.57133]]}, "properties": {"nom": "Étang d'Yrieux", "region": "Aquitaine", "longueur_m": 1242, "aire_ha": 60.1, "seuil_max_m": 1000, "largeur_libre_m": 60}}, {"type": "Feature", "geometry": {"type": "LineString", "coordinates": [[-0.26665, 43.53918], [-0.2656, 43.55127]]}, "properties": {"nom": "Lac du Gabassot", "region": "Aquitaine", "longueur_m": 1346, "aire_ha": 39.2, "seuil_max_m": 1340, "largeur_libre_m": 60}}, {"type": "Feature", "geometry": {"type": "LineString", "coordinates": [[-0.18506, 44.47329], [-0.17231, 44.47512]]}, "properties": {"nom": null, "region": "Aquitaine", "longueur_m": 1034, "aire_ha": 19.4, "seuil_max_m": 1000, "largeur_libre_m": 60}}, {"type": "Feature", "geometry": {"type": "LineString", "coordinates": [[-0.94132, 43.32738], [-0.94037, 43.33381]]}, "properties": {"nom": "Étang du Thiankoen", "region": "Aquitaine", "longueur_m": 719, "aire_ha": 13.8, "seuil_max_m": 700, "largeur_libre_m": 60}}, {"type": "Feature", "geometry": {"type": "LineString", "coordinates": [[0.68407, 45.65695], [0.67868, 45.66386]]}, "properties": {"nom": "Étang Grolhier", "region": "Aquitaine", "longueur_m": 875, "aire_ha": 21.9, "seuil_max_m": 700, "largeur_libre_m": 60}}, {"type": "Feature", "geometry": {"type": "LineString", "coordinates": [[1.16602, 45.40649], [1.16067, 45.41445]]}, "properties": {"nom": "Lac de Rouffiac en Périgord", "region": "Aquitaine", "longueur_m": 977, "aire_ha": 36.6, "seuil_max_m": 700, "largeur_libre_m": 60}}, {"type": "Feature", "geometry": {"type": "LineString", "coordinates": [[0.81475, 44.67023], [0.79699, 44.67188]]}, "properties": {"nom": "Lac du Brayssou", "region": "Aquitaine", "longueur_m": 1420, "aire_ha": 54.4, "seuil_max_m": 1340, "largeur_libre_m": 60}}, {"type": "Feature", "geometry": {"type": "LineString", "coordinates": [[-0.17513, 44.43239], [-0.16684, 44.44129]]}, "properties": {"nom": "Lac de La Prade", "region": "Aquitaine", "longueur_m": 1188, "aire_ha": 58.3, "seuil_max_m": 1000, "largeur_libre_m": 60}}, {"type": "Feature", "geometry": {"type": "LineString", "coordinates": [[0.50867, 44.6032], [0.50299, 44.60904]]}, "properties": {"nom": "Lac des Graoussettes", "region": "Aquitaine", "longueur_m": 790, "aire_ha": 30.0, "seuil_max_m": 700, "largeur_libre_m": 60}}, {"type": "Feature", "geometry": {"type": "LineString", "coordinates": [[0.47103, 44.5091], [0.4649, 44.51617]]}, "properties": {"nom": "Lac de Tombebeuf", "region": "Aquitaine", "longueur_m": 924, "aire_ha": 45.2, "seuil_max_m": 700, "largeur_libre_m": 60}}, {"type": "Feature", "geometry": {"type": "LineString", "coordinates": [[0.43714, 44.28815], [0.42876, 44.29097]]}, "properties": {"nom": "Lac de Ganet", "region": "Aquitaine", "longueur_m": 739, "aire_ha": 16.8, "seuil_max_m": 700, "largeur_libre_m": 60}}, {"type": "Feature", "geometry": {"type": "LineString", "coordinates": [[0.71187, 44.262], [0.72115, 44.26478]]}, "properties": {"nom": "Lac de Bajamont", "region": "Aquitaine", "longueur_m": 803, "aire_ha": 21.5, "seuil_max_m": 700, "largeur_libre_m": 60}}, {"type": "Feature", "geometry": {"type": "LineString", "coordinates": [[-0.29911, 43.57497], [-0.29813, 43.58624]]}, "properties": {"nom": "Lac de Miramont", "region": "Aquitaine", "longueur_m": 1255, "aire_ha": 40.9, "seuil_max_m": 1000, "largeur_libre_m": 60}}, {"type": "Feature", "geometry": {"type": "LineString", "coordinates": [[-0.28591, 42.81433], [-0.29707, 42.81529]]}, "properties": {"nom": "Embalse de Respomuso", "region": "Aquitaine", "longueur_m": 921, "aire_ha": 49.2, "seuil_max_m": 700, "largeur_libre_m": 60}}, {"type": "Feature", "geometry": {"type": "LineString", "coordinates": [[-0.33483, 42.85409], [-0.3291, 42.86215]]}, "properties": {"nom": "Lac d'Artouste", "region": "Aquitaine", "longueur_m": 1012, "aire_ha": 55.1, "seuil_max_m": 1000, "largeur_libre_m": 60}}, {"type": "Feature", "geometry": {"type": "LineString", "coordinates": [[-0.45829, 42.86648], [-0.44877, 42.8691]]}, "properties": {"nom": "Lac de Bious-Artigues", "region": "Aquitaine", "longueur_m": 832, "aire_ha": 32.0, "seuil_max_m": 700, "largeur_libre_m": 60}}, {"type": "Feature", "geometry": {"type": "LineString", "coordinates": [[-0.39426, 42.86896], [-0.40126, 42.88276]]}, "properties": {"nom": "Lac de Fabrèges", "region": "Aquitaine", "longueur_m": 1637, "aire_ha": 41.6, "seuil_max_m": 1500, "largeur_libre_m": 60}}, {"type": "Feature", "geometry": {"type": "LineString", "coordinates": [[0.89576, 45.5473], [0.89392, 45.55424]]}, "properties": {"nom": "Étang de Vivale", "region": "Aquitaine", "longueur_m": 784, "aire_ha": 13.4, "seuil_max_m": 700, "largeur_libre_m": 60}}, {"type": "Feature", "geometry": {"type": "LineString", "coordinates": [[-1.35021, 43.75697], [-1.30815, 43.78455]]}, "properties": {"nom": "Étang de Soustons", "region": "Aquitaine", "longueur_m": 4568, "aire_ha": 436.0, "seuil_max_m": 3000, "largeur_libre_m": 60}}, {"type": "Feature", "geometry": {"type": "LineString", "coordinates": [[-1.40173, 43.77556], [-1.41221, 43.77891]]}, "properties": {"nom": "Lac Marin", "region": "Aquitaine", "longueur_m": 922, "aire_ha": 62.8, "seuil_max_m": 700, "largeur_libre_m": 60}}, {"type": "Feature", "geometry": {"type": "LineString", "coordinates": [[-0.02975, 43.93214], [-0.05285, 43.93985]]}, "properties": {"nom": "Lac de l'Uby", "region": "Aquitaine", "longueur_m": 2043, "aire_ha": 71.7, "seuil_max_m": 2000, "largeur_libre_m": 60}}, {"type": "Feature", "geometry": {"type": "LineString", "coordinates": [[0.8224, 44.86045], [0.82145, 44.88482]]}, "properties": {"nom": "La Vézère", "region": "Aquitaine", "longueur_m": 2708, "aire_ha": 847.5, "seuil_max_m": 2000, "largeur_libre_m": 60}}, {"type": "Feature", "geometry": {"type": "LineString", "coordinates": [[-1.1811, 44.4331], [-1.16017, 44.52795]]}, "properties": {"nom": "Étang de Cazaux-Sanguinet", "region": "Aquitaine", "longueur_m": 10668, "aire_ha": 8859.0, "seuil_max_m": 3000, "largeur_libre_m": 60}}, {"type": "Feature", "geometry": {"type": "LineString", "coordinates": [[-0.84188, 44.68753], [-0.84023, 44.69478]]}, "properties": {"nom": null, "region": "Aquitaine", "longueur_m": 816, "aire_ha": 41.6, "seuil_max_m": 700, "largeur_libre_m": 60}}, {"type": "Feature", "geometry": {"type": "LineString", "coordinates": [[-1.26365, 44.7045], [-1.25387, 44.72274]]}, "properties": {"nom": "Zone de surf du Truc Vert", "region": "Aquitaine", "longueur_m": 2169, "aire_ha": 133.2, "seuil_max_m": 2000, "largeur_libre_m": 60}}, {"type": "Feature", "geometry": {"type": "LineString", "coordinates": [[0.6795, 44.42876], [0.69373, 44.42906]]}, "properties": {"nom": null, "region": "Aquitaine", "longueur_m": 1134, "aire_ha": 80.0, "seuil_max_m": 1000, "largeur_libre_m": 60}}, {"type": "Feature", "geometry": {"type": "LineString", "coordinates": [[0.62704, 44.16997], [0.62094, 44.17507]]}, "properties": {"nom": "Lac de Passeligne", "region": "Aquitaine", "longueur_m": 747, "aire_ha": 16.0, "seuil_max_m": 700, "largeur_libre_m": 60}}, {"type": "Feature", "geometry": {"type": "LineString", "coordinates": [[0.57189, 44.39608], [0.58705, 44.40204]]}, "properties": {"nom": null, "region": "Aquitaine", "longueur_m": 1378, "aire_ha": 213.3, "seuil_max_m": 1340, "largeur_libre_m": 60}}, {"type": "Feature", "geometry": {"type": "LineString", "coordinates": [[0.63024, 44.43424], [0.61977, 44.44059]]}, "properties": {"nom": null, "region": "Aquitaine", "longueur_m": 1091, "aire_ha": 45.3, "seuil_max_m": 1000, "largeur_libre_m": 60}}, {"type": "Feature", "geometry": {"type": "LineString", "coordinates": [[1.22137, 45.30867], [1.21322, 45.31222]]}, "properties": {"nom": "Étang de Born", "region": "Aquitaine", "longueur_m": 751, "aire_ha": 15.7, "seuil_max_m": 700, "largeur_libre_m": 60}}, {"type": "Feature", "geometry": {"type": "LineString", "coordinates": [[0.91998, 45.54969], [0.93238, 45.5533]]}, "properties": {"nom": "Plan d'eau de Mialet", "region": "Aquitaine", "longueur_m": 1048, "aire_ha": 56.8, "seuil_max_m": 1000, "largeur_libre_m": 60}}, {"type": "Feature", "geometry": {"type": "LineString", "coordinates": [[0.62024, 44.69965], [0.62956, 44.70601]]}, "properties": {"nom": "Retenue de la Nette", "region": "Aquitaine", "longueur_m": 1022, "aire_ha": 27.2, "seuil_max_m": 1000, "largeur_libre_m": 60}}, {"type": "Feature", "geometry": {"type": "LineString", "coordinates": [[-0.0444, 44.56061], [-0.04475, 44.56703]]}, "properties": {"nom": null, "region": "Aquitaine", "longueur_m": 714, "aire_ha": 23.7, "seuil_max_m": 700, "largeur_libre_m": 60}}, {"type": "Feature", "geometry": {"type": "LineString", "coordinates": [[-1.12404, 44.93535], [-1.11897, 45.00381]]}, "properties": {"nom": "Étang de Lacanau", "region": "Aquitaine", "longueur_m": 7614, "aire_ha": 1831.1, "seuil_max_m": 3000, "largeur_libre_m": 60}}, {"type": "Feature", "geometry": {"type": "LineString", "coordinates": [[-0.2679, 43.76784], [-0.2457, 43.7702]]}, "properties": {"nom": "Lac de la Gioule", "region": "Aquitaine", "longueur_m": 1807, "aire_ha": 68.8, "seuil_max_m": 1500, "largeur_libre_m": 60}}, {"type": "Feature", "geometry": {"type": "LineString", "coordinates": [[-0.28153, 43.63094], [-0.28062, 43.64132]]}, "properties": {"nom": "Lac de Latrille", "region": "Aquitaine", "longueur_m": 1156, "aire_ha": 33.5, "seuil_max_m": 1000, "largeur_libre_m": 60}}, {"type": "Feature", "geometry": {"type": "LineString", "coordinates": [[-1.27042, 43.54663], [-1.261, 43.55162]]}, "properties": {"nom": "Lac de Bédorède", "region": "Aquitaine", "longueur_m": 942, "aire_ha": 22.7, "seuil_max_m": 700, "largeur_libre_m": 60}}, {"type": "Feature", "geometry": {"type": "LineString", "coordinates": [[-0.61708, 44.49576], [-0.63006, 44.50057]]}, "properties": {"nom": "Lac de Bousquey", "region": "Aquitaine", "longueur_m": 1162, "aire_ha": 61.0, "seuil_max_m": 1000, "largeur_libre_m": 60}}, {"type": "Feature", "geometry": {"type": "LineString", "coordinates": [[-1.12418, 45.06172], [-1.11337, 45.20724]]}, "properties": {"nom": "Lac de Hourtin et de Carcans", "region": "Aquitaine", "longueur_m": 16184, "aire_ha": 5766.9, "seuil_max_m": 3000, "largeur_libre_m": 60}}, {"type": "Feature", "geometry": {"type": "LineString", "coordinates": [[0.16822, 44.17308], [0.17088, 44.17978]]}, "properties": {"nom": null, "region": "Aquitaine", "longueur_m": 774, "aire_ha": 29.0, "seuil_max_m": 700, "largeur_libre_m": 60}}, {"type": "Feature", "geometry": {"type": "LineString", "coordinates": [[0.78446, 44.67515], [0.78723, 44.68591]]}, "properties": {"nom": "Lac de la Gane", "region": "Aquitaine", "longueur_m": 1215, "aire_ha": 32.5, "seuil_max_m": 1000, "largeur_libre_m": 60}}, {"type": "Feature", "geometry": {"type": "LineString", "coordinates": [[-0.51902, 44.94104], [-0.51824, 44.95028]]}, "properties": {"nom": null, "region": "Aquitaine", "longueur_m": 1028, "aire_ha": 32.6, "seuil_max_m": 1000, "largeur_libre_m": 60}}, {"type": "Feature", "geometry": {"type": "LineString", "coordinates": [[0.30262, 44.2706], [0.29617, 44.27653]]}, "properties": {"nom": null, "region": "Aquitaine", "longueur_m": 837, "aire_ha": 39.0, "seuil_max_m": 700, "largeur_libre_m": 60}}, {"type": "Feature", "geometry": {"type": "LineString", "coordinates": [[-0.58815, 44.93409], [-0.59957, 44.93414]]}, "properties": {"nom": null, "region": "Aquitaine", "longueur_m": 900, "aire_ha": 24.9, "seuil_max_m": 700, "largeur_libre_m": 60}}, {"type": "Feature", "geometry": {"type": "LineString", "coordinates": [[-0.32767, 43.75338], [-0.33762, 43.75581]]}, "properties": {"nom": null, "region": "Aquitaine", "longueur_m": 845, "aire_ha": 28.8, "seuil_max_m": 700, "largeur_libre_m": 60}}, {"type": "Feature", "geometry": {"type": "LineString", "coordinates": [[0.28729, 44.2826], [0.29494, 44.28603]]}, "properties": {"nom": null, "region": "Aquitaine", "longueur_m": 720, "aire_ha": 36.4, "seuil_max_m": 700, "largeur_libre_m": 60}}, {"type": "Feature", "geometry": {"type": "LineString", "coordinates": [[1.04927, 44.8507], [1.03183, 44.85664]]}, "properties": {"nom": null, "region": "Aquitaine", "longueur_m": 1528, "aire_ha": 749.7, "seuil_max_m": 1500, "largeur_libre_m": 60}}, {"type": "Feature", "geometry": {"type": "LineString", "coordinates": [[-0.80232, 44.66279], [-0.80859, 44.66779]]}, "properties": {"nom": null, "region": "Aquitaine", "longueur_m": 745, "aire_ha": 31.3, "seuil_max_m": 700, "largeur_libre_m": 60}}, {"type": "Feature", "geometry": {"type": "LineString", "coordinates": [[0.78233, 44.39031], [0.80094, 44.39506]]}, "properties": {"nom": "Le Lot", "region": "Aquitaine", "longueur_m": 1573, "aire_ha": 453.3, "seuil_max_m": 1500, "largeur_libre_m": 60}}, {"type": "Feature", "geometry": {"type": "LineString", "coordinates": [[0.47393, 44.33233], [0.46542, 44.33603]]}, "properties": {"nom": null, "region": "Aquitaine", "longueur_m": 793, "aire_ha": 15.2, "seuil_max_m": 700, "largeur_libre_m": 60}}, {"type": "Feature", "geometry": {"type": "LineString", "coordinates": [[-1.22365, 44.21904], [-1.18781, 44.22896]]}, "properties": {"nom": "Lac d'Aureilhan", "region": "Aquitaine", "longueur_m": 3069, "aire_ha": 375.6, "seuil_max_m": 3000, "largeur_libre_m": 60}}, {"type": "Feature", "geometry": {"type": "LineString", "coordinates": [[-0.65361, 44.499], [-0.6422, 44.50553]]}, "properties": {"nom": "Lac de Lamothe", "region": "Aquitaine", "longueur_m": 1162, "aire_ha": 34.9, "seuil_max_m": 1000, "largeur_libre_m": 60}}, {"type": "Feature", "geometry": {"type": "LineString", "coordinates": [[-1.04775, 45.38084], [-1.03256, 45.38369]]}, "properties": {"nom": null, "region": "Aquitaine", "longueur_m": 1230, "aire_ha": 23.5, "seuil_max_m": 1000, "largeur_libre_m": 60}}, {"type": "Feature", "geometry": {"type": "LineString", "coordinates": [[-1.39043, 43.58248], [-1.40594, 43.58893]]}, "properties": {"nom": null, "region": "Aquitaine", "longueur_m": 1444, "aire_ha": 136.3, "seuil_max_m": 1340, "largeur_libre_m": 60}}, {"type": "Feature", "geometry": {"type": "LineString", "coordinates": [[0.55351, 44.4688], [0.56075, 44.4724]]}, "properties": {"nom": "Lac de Caussade", "region": "Aquitaine", "longueur_m": 701, "aire_ha": 19.0, "seuil_max_m": 700, "largeur_libre_m": 60}}, {"type": "Feature", "geometry": {"type": "LineString", "coordinates": [[-0.74322, 43.47256], [-0.75597, 43.47309]]}, "properties": {"nom": "Lac d'Orthez", "region": "Aquitaine", "longueur_m": 1034, "aire_ha": 35.7, "seuil_max_m": 1000, "largeur_libre_m": 60}}, {"type": "Feature", "geometry": {"type": "LineString", "coordinates": [[0.67269, 44.14125], [0.68094, 44.14584]]}, "properties": {"nom": null, "region": "Aquitaine", "longueur_m": 834, "aire_ha": 19.9, "seuil_max_m": 700, "largeur_libre_m": 60}}, {"type": "Feature", "geometry": {"type": "LineString", "coordinates": [[-0.97078, 43.76746], [-0.97882, 43.77007]]}, "properties": {"nom": null, "region": "Aquitaine", "longueur_m": 710, "aire_ha": 16.2, "seuil_max_m": 700, "largeur_libre_m": 60}}, {"type": "Feature", "geometry": {"type": "LineString", "coordinates": [[-1.33153, 43.88829], [-1.30689, 43.89864]]}, "properties": {"nom": "Étang de Léon", "region": "Aquitaine", "longueur_m": 2290, "aire_ha": 329.7, "seuil_max_m": 2000, "largeur_libre_m": 60}}, {"type": "Feature", "geometry": {"type": "LineString", "coordinates": [[-0.64365, 43.76279], [-0.6332, 43.76394]]}, "properties": {"nom": null, "region": "Aquitaine", "longueur_m": 852, "aire_ha": 44.4, "seuil_max_m": 700, "largeur_libre_m": 60}}, {"type": "Feature", "geometry": {"type": "LineString", "coordinates": [[-0.84724, 44.81658], [-0.84075, 44.82224]]}, "properties": {"nom": null, "region": "Aquitaine", "longueur_m": 812, "aire_ha": 16.2, "seuil_max_m": 700, "largeur_libre_m": 60}}, {"type": "Feature", "geometry": {"type": "LineString", "coordinates": [[0.47557, 44.30971], [0.46459, 44.31393]]}, "properties": {"nom": "Lac de Salabert", "region": "Aquitaine", "longueur_m": 994, "aire_ha": 23.7, "seuil_max_m": 700, "largeur_libre_m": 60}}]}