{"type": "FeatureCollection", "metadata": {"region": "Alsace", "source": "OpenStreetMap via Geofabrik", "methode": "recollage des polygones contigus, erosion de W/2, plus longue corde inscrite", "largeur_libre_m": 60, "avertissement": "profondeur, obstacles et degagement d'approche NON pris en compte : borne haute de candidats"}, "features": [{"type": "Feature", "geometry": {"type": "LineString", "coordinates": [[8.1246, 48.89026], [8.12829, 48.90443]]}, "properties": {"nom": "Gravière Epple", "region": "Alsace", "longueur_m": 1599, "aire_ha": 97.6, "seuil_max_m": 1500, "largeur_libre_m": 60}}, {"type": "Feature", "geometry": {"type": "LineString", "coordinates": [[7.73151, 48.39614], [7.76566, 48.45401]]}, "properties": {"nom": "Plan d'eau de Plobsheim", "region": "Alsace", "longueur_m": 6911, "aire_ha": 8528.0, "seuil_max_m": 3000, "largeur_libre_m": 60}}, {"type": "Feature", "geometry": {"type": "LineString", "coordinates": [[8.1404, 48.90195], [8.13093, 48.90771]]}, "properties": {"nom": "Gravière Willersinn", "region": "Alsace", "longueur_m": 945, "aire_ha": 46.6, "seuil_max_m": 700, "largeur_libre_m": 60}}, {"type": "Feature", "geometry": {"type": "LineString", "coordinates": [[8.19794, 48.96532], [8.18709, 48.96655]]}, "properties": {"nom": null, "region": "Alsace", "longueur_m": 806, "aire_ha": 29.2, "seuil_max_m": 700, "largeur_libre_m": 60}}, {"type": "Feature", "geometry": {"type": "LineString", "coordinates": [[7.98395, 48.75416], [7.99833, 48.75506]]}, "properties": {"nom": "Baggersee Greffern", "region": "Alsace", "longueur_m": 1062, "aire_ha": 52.8, "seuil_max_m": 1000, "largeur_libre_m": 60}}, {"type": "Feature", "geometry": {"type": "LineString", "coordinates": [[8.02985, 48.78185], [8.04951, 48.78828]]}, "properties": {"nom": "Kriegersee", "region": "Alsace", "longueur_m": 1612, "aire_ha": 79.9, "seuil_max_m": 1500, "largeur_libre_m": 60}}, {"type": "Feature", "geometry": {"type": "LineString", "coordinates": [[7.90687, 48.69179], [7.91397, 48.6969]]}, "properties": {"nom": "Gravière Veltz-Vix", "region": "Alsace", "longueur_m": 772, "aire_ha": 23.7, "seuil_max_m": 700, "largeur_libre_m": 60}}, {"type": "Feature", "geometry": {"type": "LineString", "coordinates": [[7.91575, 48.69802], [7.91442, 48.70729]]}, "properties": {"nom": "Sandwoerth", "region": "Alsace", "longueur_m": 1035, "aire_ha": 55.2, "seuil_max_m": 1000, "largeur_libre_m": 60}}, {"type": "Feature", "geometry": {"type": "LineString", "coordinates": [[7.72732, 48.55088], [7.72253, 48.55816]]}, "properties": {"nom": "Étang Gerig", "region": "Alsace", "longueur_m": 883, "aire_ha": 50.9, "seuil_max_m": 700, "largeur_libre_m": 60}}, {"type": "Feature", "geometry": {"type": "LineString", "coordinates": [[8.03428, 48.84069], [8.04291, 48.8452]]}, "properties": {"nom": null, "region": "Alsace", "longueur_m": 808, "aire_ha": 27.1, "seuil_max_m": 700, "largeur_libre_m": 60}}, {"type": "Feature", "geometry": {"type": "LineString", "coordinates": [[7.43382, 48.22415], [7.43796, 48.2343]]}, "properties": {"nom": null, "region": "Alsace", "longueur_m": 1169, "aire_ha": 34.0, "seuil_max_m": 1000, "largeur_libre_m": 60}}, {"type": "Feature", "geometry": {"type": "LineString", "coordinates": [[8.07083, 48.79807], [8.08191, 48.8104]]}, "properties": {"nom": null, "region": "Alsace", "longueur_m": 1594, "aire_ha": 88.9, "seuil_max_m": 1500, "largeur_libre_m": 60}}, {"type": "Feature", "geometry": {"type": "LineString", "coordinates": [[7.87605, 48.70747], [7.86405, 48.70923]]}, "properties": {"nom": null, "region": "Alsace", "longueur_m": 904, "aire_ha": 43.8, "seuil_max_m": 700, "largeur_libre_m": 60}}, {"type": "Feature", "geometry": {"type": "LineString", "coordinates": [[7.82388, 48.78587], [7.81435, 48.78761]]}, "properties": {"nom": null, "region": "Alsace", "longueur_m": 726, "aire_ha": 18.3, "seuil_max_m": 700, "largeur_libre_m": 60}}, {"type": "Feature", "geometry": {"type": "LineString", "coordinates": [[7.80348, 48.68645], [7.81583, 48.69166]]}, "properties": {"nom": null, "region": "Alsace", "longueur_m": 1077, "aire_ha": 50.8, "seuil_max_m": 1000, "largeur_libre_m": 60}}, {"type": "Feature", "geometry": {"type": "LineString", "coordinates": [[7.81976, 48.69304], [7.82817, 48.70057]]}, "properties": {"nom": null, "region": "Alsace", "longueur_m": 1041, "aire_ha": 58.9, "seuil_max_m": 1000, "largeur_libre_m": 60}}, {"type": "Feature", "geometry": {"type": "LineString", "coordinates": [[7.9752, 48.80943], [7.98371, 48.82018]]}, "properties": {"nom": null, "region": "Alsace", "longueur_m": 1349, "aire_ha": 68.6, "seuil_max_m": 1340, "largeur_libre_m": 60}}, {"type": "Feature", "geometry": {"type": "LineString", "coordinates": [[7.37393, 48.11302], [7.36728, 48.11856]]}, "properties": {"nom": "Gravière", "region": "Alsace", "longueur_m": 790, "aire_ha": 32.4, "seuil_max_m": 700, "largeur_libre_m": 60}}, {"type": "Feature", "geometry": {"type": "LineString", "coordinates": [[7.66762, 48.54279], [7.67196, 48.54915]]}, "properties": {"nom": null, "region": "Alsace", "longueur_m": 777, "aire_ha": 28.3, "seuil_max_m": 700, "largeur_libre_m": 60}}, {"type": "Feature", "geometry": {"type": "LineString", "coordinates": [[7.72351, 48.4959], [7.71899, 48.5019]]}, "properties": {"nom": "Ballastière", "region": "Alsace", "longueur_m": 745, "aire_ha": 28.1, "seuil_max_m": 700, "largeur_libre_m": 60}}, {"type": "Feature", "geometry": {"type": "LineString", "coordinates": [[7.77121, 48.42939], [7.76029, 48.43677]]}, "properties": {"nom": null, "region": "Alsace", "longueur_m": 1152, "aire_ha": 42.7, "seuil_max_m": 1000, "largeur_libre_m": 60}}, {"type": "Feature", "geometry": {"type": "LineString", "coordinates": [[7.77549, 48.42572], [7.76313, 48.42999]]}, "properties": {"nom": "Vältinsschollensee", "region": "Alsace", "longueur_m": 1030, "aire_ha": 43.4, "seuil_max_m": 1000, "largeur_libre_m": 60}}, {"type": "Feature", "geometry": {"type": "LineString", "coordinates": [[7.53705, 48.13327], [7.53587, 48.14119]]}, "properties": {"nom": null, "region": "Alsace", "longueur_m": 884, "aire_ha": 42.0, "seuil_max_m": 700, "largeur_libre_m": 60}}, {"type": "Feature", "geometry": {"type": "LineString", "coordinates": [[7.71752, 48.36387], [7.70815, 48.36799]]}, "properties": {"nom": null, "region": "Alsace", "longueur_m": 831, "aire_ha": 32.8, "seuil_max_m": 700, "largeur_libre_m": 60}}, {"type": "Feature", "geometry": {"type": "LineString", "coordinates": [[7.66944, 48.30185], [7.67969, 48.30288]]}, "properties": {"nom": null, "region": "Alsace", "longueur_m": 769, "aire_ha": 27.0, "seuil_max_m": 700, "largeur_libre_m": 60}}, {"type": "Feature", "geometry": {"type": "LineString", "coordinates": [[7.44299, 47.96391], [7.44799, 47.96968]]}, "properties": {"nom": null, "region": "Alsace", "longueur_m": 741, "aire_ha": 22.1, "seuil_max_m": 700, "largeur_libre_m": 60}}, {"type": "Feature", "geometry": {"type": "LineString", "coordinates": [[7.73742, 48.38881], [7.73925, 48.39614]]}, "properties": {"nom": "Baggersee Vogel-Bau", "region": "Alsace", "longueur_m": 826, "aire_ha": 27.8, "seuil_max_m": 700, "largeur_libre_m": 60}}, {"type": "Feature", "geometry": {"type": "LineString", "coordinates": [[7.86063, 48.64338], [7.85102, 48.64411]]}, "properties": {"nom": "Baggersee Honau", "region": "Alsace", "longueur_m": 713, "aire_ha": 35.6, "seuil_max_m": 700, "largeur_libre_m": 60}}, {"type": "Feature", "geometry": {"type": "LineString", "coordinates": [[8.13186, 48.83515], [8.12438, 48.84077]]}, "properties": {"nom": "Sämannsee", "region": "Alsace", "longueur_m": 832, "aire_ha": 42.8, "seuil_max_m": 700, "largeur_libre_m": 60}}, {"type": "Feature", "geometry": {"type": "LineString", "coordinates": [[7.32956, 47.86043], [7.33815, 47.86509]]}, "properties": {"nom": null, "region": "Alsace", "longueur_m": 825, "aire_ha": 21.8, "seuil_max_m": 700, "largeur_libre_m": 60}}, {"type": "Feature", "geometry": {"type": "LineString", "coordinates": [[8.11637, 48.81785], [8.11768, 48.83114]]}, "properties": {"nom": "Kernsee", "region": "Alsace", "longueur_m": 1482, "aire_ha": 71.7, "seuil_max_m": 1340, "largeur_libre_m": 60}}, {"type": "Feature", "geometry": {"type": "LineString", "coordinates": [[7.17787, 47.72548], [7.18764, 47.72617]]}, "properties": {"nom": null, "region": "Alsace", "longueur_m": 736, "aire_ha": 19.8, "seuil_max_m": 700, "largeur_libre_m": 60}}, {"type": "Feature", "geometry": {"type": "LineString", "coordinates": [[7.61365, 48.36455], [7.61864, 48.37023]]}, "properties": {"nom": null, "region": "Alsace", "longueur_m": 731, "aire_ha": 18.8, "seuil_max_m": 700, "largeur_libre_m": 60}}, {"type": "Feature", "geometry": {"type": "LineString", "coordinates": [[7.97733, 48.74005], [7.988, 48.74355]]}, "properties": {"nom": "Baggersee Sehring", "region": "Alsace", "longueur_m": 876, "aire_ha": 44.2, "seuil_max_m": 700, "largeur_libre_m": 60}}, {"type": "Feature", "geometry": {"type": "LineString", "coordinates": [[7.77828, 48.48986], [7.78658, 48.49339]]}, "properties": {"nom": "Dreibauerngrund", "region": "Alsace", "longueur_m": 728, "aire_ha": 23.7, "seuil_max_m": 700, "largeur_libre_m": 60}}, {"type": "Feature", "geometry": {"type": "LineString", "coordinates": [[7.77175, 48.47968], [7.77263, 48.48939]]}, "properties": {"nom": null, "region": "Alsace", "longueur_m": 1081, "aire_ha": 39.6, "seuil_max_m": 1000, "largeur_libre_m": 60}}, {"type": "Feature", "geometry": {"type": "LineString", "coordinates": [[7.23367, 47.7676], [7.24456, 47.76798]]}, "properties": {"nom": "Plan d'Eau de Reiningue", "region": "Alsace", "longueur_m": 817, "aire_ha": 24.3, "seuil_max_m": 700, "largeur_libre_m": 60}}, {"type": "Feature", "geometry": {"type": "LineString", "coordinates": [[7.60695, 48.47533], [7.59115, 48.4765]]}, "properties": {"nom": null, "region": "Alsace", "longueur_m": 1175, "aire_ha": 52.6, "seuil_max_m": 1000, "largeur_libre_m": 60}}, {"type": "Feature", "geometry": {"type": "LineString", "coordinates": [[7.51375, 47.6208], [7.50805, 47.62957]]}, "properties": {"nom": null, "region": "Alsace", "longueur_m": 1064, "aire_ha": 30.0, "seuil_max_m": 1000, "largeur_libre_m": 60}}, {"type": "Feature", "geometry": {"type": "LineString", "coordinates": [[7.13123, 47.75664], [7.10983, 47.7605]]}, "properties": {"nom": "plan d'eau de Michelbach", "region": "Alsace", "longueur_m": 1660, "aire_ha": 82.5, "seuil_max_m": 1500, "largeur_libre_m": 60}}, {"type": "Feature", "geometry": {"type": "LineString", "coordinates": [[7.67456, 48.94851], [7.68355, 48.9523]]}, "properties": {"nom": "Plan d'Eau de Wolfartsboffen", "region": "Alsace", "longueur_m": 782, "aire_ha": 16.3, "seuil_max_m": 700, "largeur_libre_m": 60}}, {"type": "Feature", "geometry": {"type": "LineString", "coordinates": [[7.72554, 48.50371], [7.71742, 48.50919]]}, "properties": {"nom": null, "region": "Alsace", "longueur_m": 854, "aire_ha": 29.8, "seuil_max_m": 700, "largeur_libre_m": 60}}, {"type": "Feature", "geometry": {"type": "LineString", "coordinates": [[7.59258, 48.4692], [7.58383, 48.47221]]}, "properties": {"nom": null, "region": "Alsace", "longueur_m": 728, "aire_ha": 18.1, "seuil_max_m": 700, "largeur_libre_m": 60}}, {"type": "Feature", "geometry": {"type": "LineString", "coordinates": [[7.58467, 48.08659], [7.58155, 48.09457]]}, "properties": {"nom": "Burkheimer Baggersee", "region": "Alsace", "longueur_m": 917, "aire_ha": 53.6, "seuil_max_m": 700, "largeur_libre_m": 60}}, {"type": "Feature", "geometry": {"type": "LineString", "coordinates": [[7.98918, 48.76448], [8.00206, 48.76528]]}, "properties": {"nom": "Gravière de Dalhunden", "region": "Alsace", "longueur_m": 951, "aire_ha": 36.5, "seuil_max_m": 700, "largeur_libre_m": 60}}, {"type": "Feature", "geometry": {"type": "LineString", "coordinates": [[7.71195, 48.4431], [7.71705, 48.44888]]}, "properties": {"nom": "Gravière", "region": "Alsace", "longueur_m": 745, "aire_ha": 20.0, "seuil_max_m": 700, "largeur_libre_m": 60}}, {"type": "Feature", "geometry": {"type": "LineString", "coordinates": [[8.01007, 48.78228], [8.0217, 48.78609]]}, "properties": {"nom": null, "region": "Alsace", "longueur_m": 954, "aire_ha": 60.5, "seuil_max_m": 700, "largeur_libre_m": 60}}, {"type": "Feature", "geometry": {"type": "LineString", "coordinates": [[7.54076, 48.42699], [7.55576, 48.42694]]}, "properties": {"nom": null, "region": "Alsace", "longueur_m": 1109, "aire_ha": 36.5, "seuil_max_m": 1000, "largeur_libre_m": 60}}, {"type": "Feature", "geometry": {"type": "LineString", "coordinates": [[7.45304, 47.6718], [7.46511, 47.67539]]}, "properties": {"nom": null, "region": "Alsace", "longueur_m": 990, "aire_ha": 27.5, "seuil_max_m": 700, "largeur_libre_m": 60}}, {"type": "Feature", "geometry": {"type": "LineString", "coordinates": [[7.39409, 47.78356], [7.39413, 47.79225]]}, "properties": {"nom": null, "region": "Alsace", "longueur_m": 966, "aire_ha": 30.5, "seuil_max_m": 700, "largeur_libre_m": 60}}, {"type": "Feature", "geometry": {"type": "LineString", "coordinates": [[7.89147, 48.65858], [7.90261, 48.66048]]}, "properties": {"nom": "Diersheimer Baggersee", "region": "Alsace", "longueur_m": 848, "aire_ha": 37.0, "seuil_max_m": 700, "largeur_libre_m": 60}}, {"type": "Feature", "geometry": {"type": "LineString", "coordinates": [[7.6209, 48.17096], [7.62615, 48.1763]]}, "properties": {"nom": null, "region": "Alsace", "longueur_m": 710, "aire_ha": 20.4, "seuil_max_m": 700, "largeur_libre_m": 60}}, {"type": "Feature", "geometry": {"type": "LineString", "coordinates": [[8.17353, 48.95872], [8.16586, 48.96897]]}, "properties": {"nom": "Bassin des Mouettes", "region": "Alsace", "longueur_m": 1270, "aire_ha": 110.6, "seuil_max_m": 1000, "largeur_libre_m": 60}}, {"type": "Feature", "geometry": {"type": "LineString", "coordinates": [[7.09072, 48.12358], [7.08906, 48.13056]]}, "properties": {"nom": "Lac Blanc", "region": "Alsace", "longueur_m": 786, "aire_ha": 26.3, "seuil_max_m": 700, "largeur_libre_m": 60}}, {"type": "Feature", "geometry": {"type": "LineString", "coordinates": [[7.85309, 48.73979], [7.85458, 48.74846]]}, "properties": {"nom": null, "region": "Alsace", "longueur_m": 970, "aire_ha": 24.1, "seuil_max_m": 700, "largeur_libre_m": 60}}, {"type": "Feature", "geometry": {"type": "LineString", "coordinates": [[8.02828, 48.79534], [8.03866, 48.79919]]}, "properties": {"nom": null, "region": "Alsace", "longueur_m": 874, "aire_ha": 48.5, "seuil_max_m": 700, "largeur_libre_m": 60}}, {"type": "Feature", "geometry": {"type": "LineString", "coordinates": [[7.44047, 47.97661], [7.45156, 47.97899]]}, "properties": {"nom": null, "region": "Alsace", "longueur_m": 869, "aire_ha": 22.0, "seuil_max_m": 700, "largeur_libre_m": 60}}, {"type": "Feature", "geometry": {"type": "LineString", "coordinates": [[7.5514, 47.85217], [7.54667, 47.86058]]}, "properties": {"nom": "Ochsengrund", "region": "Alsace", "longueur_m": 999, "aire_ha": 28.6, "seuil_max_m": 700, "largeur_libre_m": 60}}, {"type": "Feature", "geometry": {"type": "LineString", "coordinates": [[7.84409, 48.73534], [7.85162, 48.74626]]}, "properties": {"nom": null, "region": "Alsace", "longueur_m": 1334, "aire_ha": 67.3, "seuil_max_m": 1000, "largeur_libre_m": 60}}, {"type": "Feature", "geometry": {"type": "LineString", "coordinates": [[7.79302, 48.49582], [7.80775, 48.50136]]}, "properties": {"nom": "Goldscheuerer Baggersee", "region": "Alsace", "longueur_m": 1251, "aire_ha": 58.5, "seuil_max_m": 1000, "largeur_libre_m": 60}}, {"type": "Feature", "geometry": {"type": "LineString", "coordinates": [[6.9534, 47.94726], [6.95913, 47.96176]]}, "properties": {"nom": "Lac de Kruth-Wildenstein", "region": "Alsace", "longueur_m": 1667, "aire_ha": 68.8, "seuil_max_m": 1500, "largeur_libre_m": 60}}]}