{"type": "FeatureCollection", "metadata": {"region": "Champagne-Ardenne", "source": "OpenStreetMap via Geofabrik", "methode": "recollage des polygones contigus, erosion de W/2, plus longue corde inscrite", "largeur_libre_m": 60, "avertissement": "profondeur, obstacles et degagement d'approche NON pris en compte : borne haute de candidats"}, "features": [{"type": "Feature", "geometry": {"type": "LineString", "coordinates": [[4.37622, 48.31765], [4.46198, 48.34931]]}, "properties": {"nom": "Lac d'Auzon-Temple", "region": "Champagne-Ardenne", "longueur_m": 7265, "aire_ha": 2200.0, "seuil_max_m": 3000, "largeur_libre_m": 60}}, {"type": "Feature", "geometry": {"type": "LineString", "coordinates": [[3.38743, 48.46104], [3.39615, 48.46742]]}, "properties": {"nom": null, "region": "Champagne-Ardenne", "longueur_m": 958, "aire_ha": 412.5, "seuil_max_m": 700, "largeur_libre_m": 60}}, {"type": "Feature", "geometry": {"type": "LineString", "coordinates": [[4.67281, 49.91684], [4.67824, 49.92542]]}, "properties": {"nom": "Semois", "region": "Champagne-Ardenne", "longueur_m": 1032, "aire_ha": 1844.6, "seuil_max_m": 1000, "largeur_libre_m": 60}}, {"type": "Feature", "geometry": {"type": "LineString", "coordinates": [[5.37314, 47.8679], [5.41436, 47.86851]]}, "properties": {"nom": "Lac de la Liez", "region": "Champagne-Ardenne", "longueur_m": 3083, "aire_ha": 237.6, "seuil_max_m": 3000, "largeur_libre_m": 60}}, {"type": "Feature", "geometry": {"type": "LineString", "coordinates": [[5.26325, 47.86511], [5.25713, 47.88243]]}, "properties": {"nom": "Réservoir de la Mouche", "region": "Champagne-Ardenne", "longueur_m": 1978, "aire_ha": 74.1, "seuil_max_m": 1500, "largeur_libre_m": 60}}, {"type": "Feature", "geometry": {"type": "LineString", "coordinates": [[3.86499, 49.03822], [3.87402, 49.04079]]}, "properties": {"nom": "Étang d'Orléans", "region": "Champagne-Ardenne", "longueur_m": 719, "aire_ha": 15.4, "seuil_max_m": 700, "largeur_libre_m": 60}}, {"type": "Feature", "geometry": {"type": "LineString", "coordinates": [[4.59999, 49.91499], [4.60908, 49.92748]]}, "properties": {"nom": "Bassin de Whitaker", "region": "Champagne-Ardenne", "longueur_m": 1536, "aire_ha": 52.4, "seuil_max_m": 1500, "largeur_libre_m": 60}}, {"type": "Feature", "geometry": {"type": "LineString", "coordinates": [[4.62611, 49.90814], [4.62747, 49.92011]]}, "properties": {"nom": "Bassin des Marquisades", "region": "Champagne-Ardenne", "longueur_m": 1336, "aire_ha": 61.7, "seuil_max_m": 1000, "largeur_libre_m": 60}}, {"type": "Feature", "geometry": {"type": "LineString", "coordinates": [[4.62837, 49.86294], [4.58749, 49.87371]]}, "properties": {"nom": "Lac des Vieilles Forges", "region": "Champagne-Ardenne", "longueur_m": 3176, "aire_ha": 141.6, "seuil_max_m": 3000, "largeur_libre_m": 60}}, {"type": "Feature", "geometry": {"type": "LineString", "coordinates": [[4.79123, 49.52184], [4.76735, 49.53244]]}, "properties": {"nom": "Réservoir de Bairon", "region": "Champagne-Ardenne", "longueur_m": 2094, "aire_ha": 94.3, "seuil_max_m": 2000, "largeur_libre_m": 60}}, {"type": "Feature", "geometry": {"type": "LineString", "coordinates": [[4.82937, 49.08008], [4.8391, 49.08026]]}, "properties": {"nom": "Étang de Roye", "region": "Champagne-Ardenne", "longueur_m": 711, "aire_ha": 29.1, "seuil_max_m": 700, "largeur_libre_m": 60}}, {"type": "Feature", "geometry": {"type": "LineString", "coordinates": [[4.9527, 49.03516], [4.96212, 49.03666]]}, "properties": {"nom": "Étang de la Grande Rouillie", "region": "Champagne-Ardenne", "longueur_m": 709, "aire_ha": 15.4, "seuil_max_m": 700, "largeur_libre_m": 60}}, {"type": "Feature", "geometry": {"type": "LineString", "coordinates": [[4.85094, 48.9628], [4.86396, 48.96441]]}, "properties": {"nom": "Étang des Fosses", "region": "Champagne-Ardenne", "longueur_m": 971, "aire_ha": 32.6, "seuil_max_m": 700, "largeur_libre_m": 60}}, {"type": "Feature", "geometry": {"type": "LineString", "coordinates": [[4.97959, 48.95178], [4.99455, 48.95416]]}, "properties": {"nom": "Étang du Bas", "region": "Champagne-Ardenne", "longueur_m": 1127, "aire_ha": 61.2, "seuil_max_m": 1000, "largeur_libre_m": 60}}, {"type": "Feature", "geometry": {"type": "LineString", "coordinates": [[4.79669, 48.94266], [4.80936, 48.9447]]}, "properties": {"nom": "Étang de Noir Lieu", "region": "Champagne-Ardenne", "longueur_m": 955, "aire_ha": 35.2, "seuil_max_m": 700, "largeur_libre_m": 60}}, {"type": "Feature", "geometry": {"type": "LineString", "coordinates": [[4.81801, 48.87507], [4.80974, 48.87839]]}, "properties": {"nom": "Étang l'Harouchêne", "region": "Champagne-Ardenne", "longueur_m": 709, "aire_ha": 16.3, "seuil_max_m": 700, "largeur_libre_m": 60}}, {"type": "Feature", "geometry": {"type": "LineString", "coordinates": [[4.84116, 48.649], [4.83104, 48.65023]]}, "properties": {"nom": null, "region": "Champagne-Ardenne", "longueur_m": 758, "aire_ha": 10.5, "seuil_max_m": 700, "largeur_libre_m": 60}}, {"type": "Feature", "geometry": {"type": "LineString", "coordinates": [[4.69272, 48.57104], [4.68563, 48.57649]]}, "properties": {"nom": "Étang des Landres", "region": "Champagne-Ardenne", "longueur_m": 800, "aire_ha": 35.5, "seuil_max_m": 700, "largeur_libre_m": 60}}, {"type": "Feature", "geometry": {"type": "LineString", "coordinates": [[4.68785, 48.55162], [4.6881, 48.55948]]}, "properties": {"nom": "Étang de la Forêt", "region": "Champagne-Ardenne", "longueur_m": 873, "aire_ha": 38.7, "seuil_max_m": 700, "largeur_libre_m": 60}}, {"type": "Feature", "geometry": {"type": "LineString", "coordinates": [[4.94701, 48.48322], [4.94778, 48.48991]]}, "properties": {"nom": "Lac des Leschéres", "region": "Champagne-Ardenne", "longueur_m": 745, "aire_ha": 11.6, "seuil_max_m": 700, "largeur_libre_m": 60}}, {"type": "Feature", "geometry": {"type": "LineString", "coordinates": [[4.78507, 47.99343], [4.78735, 48.0054]]}, "properties": {"nom": null, "region": "Champagne-Ardenne", "longueur_m": 1341, "aire_ha": 46.4, "seuil_max_m": 1340, "largeur_libre_m": 60}}, {"type": "Feature", "geometry": {"type": "LineString", "coordinates": [[5.32144, 47.74279], [5.303, 47.7514]]}, "properties": {"nom": "Lac de la Vingeanne", "region": "Champagne-Ardenne", "longueur_m": 1681, "aire_ha": 133.7, "seuil_max_m": 1500, "largeur_libre_m": 60}}, {"type": "Feature", "geometry": {"type": "LineString", "coordinates": [[4.92771, 48.59152], [4.9403, 48.59175]]}, "properties": {"nom": "Le Grand Étang", "region": "Champagne-Ardenne", "longueur_m": 929, "aire_ha": 30.1, "seuil_max_m": 700, "largeur_libre_m": 60}}, {"type": "Feature", "geometry": {"type": "LineString", "coordinates": [[4.70238, 48.53129], [4.68999, 48.53571]]}, "properties": {"nom": null, "region": "Champagne-Ardenne", "longueur_m": 1038, "aire_ha": 29.1, "seuil_max_m": 1000, "largeur_libre_m": 60}}, {"type": "Feature", "geometry": {"type": "LineString", "coordinates": [[4.65192, 48.48021], [4.6637, 48.50269]]}, "properties": {"nom": "Étang de la Horre", "region": "Champagne-Ardenne", "longueur_m": 2646, "aire_ha": 196.7, "seuil_max_m": 2000, "largeur_libre_m": 60}}, {"type": "Feature", "geometry": {"type": "LineString", "coordinates": [[4.73034, 48.42056], [4.74322, 48.42082]]}, "properties": {"nom": "Étang de Blancheterre", "region": "Champagne-Ardenne", "longueur_m": 953, "aire_ha": 22.4, "seuil_max_m": 700, "largeur_libre_m": 60}}, {"type": "Feature", "geometry": {"type": "LineString", "coordinates": [[4.3176, 48.24413], [4.36669, 48.29873]]}, "properties": {"nom": "Lac d'Orient", "region": "Champagne-Ardenne", "longueur_m": 7078, "aire_ha": 2131.6, "seuil_max_m": 3000, "largeur_libre_m": 60}}, {"type": "Feature", "geometry": {"type": "LineString", "coordinates": [[3.72829, 48.5275], [3.7367, 48.53426]]}, "properties": {"nom": null, "region": "Champagne-Ardenne", "longueur_m": 975, "aire_ha": 30.9, "seuil_max_m": 700, "largeur_libre_m": 60}}, {"type": "Feature", "geometry": {"type": "LineString", "coordinates": [[3.49323, 48.50394], [3.48658, 48.50891]]}, "properties": {"nom": "Plan d'eau du Monteuil", "region": "Champagne-Ardenne", "longueur_m": 739, "aire_ha": 19.3, "seuil_max_m": 700, "largeur_libre_m": 60}}, {"type": "Feature", "geometry": {"type": "LineString", "coordinates": [[3.52504, 48.51147], [3.51014, 48.51205]]}, "properties": {"nom": null, "region": "Champagne-Ardenne", "longueur_m": 1102, "aire_ha": 23.8, "seuil_max_m": 1000, "largeur_libre_m": 60}}, {"type": "Feature", "geometry": {"type": "LineString", "coordinates": [[3.40554, 48.48324], [3.41706, 48.4876]]}, "properties": {"nom": null, "region": "Champagne-Ardenne", "longueur_m": 979, "aire_ha": 11.6, "seuil_max_m": 700, "largeur_libre_m": 60}}, {"type": "Feature", "geometry": {"type": "LineString", "coordinates": [[4.94505, 49.68849], [4.95297, 49.69245]]}, "properties": {"nom": null, "region": "Champagne-Ardenne", "longueur_m": 722, "aire_ha": 23.2, "seuil_max_m": 700, "largeur_libre_m": 60}}, {"type": "Feature", "geometry": {"type": "LineString", "coordinates": [[4.41111, 48.25325], [4.41001, 48.26173]]}, "properties": {"nom": "Étang du Parc aux Pourceaux", "region": "Champagne-Ardenne", "longueur_m": 947, "aire_ha": 28.9, "seuil_max_m": 700, "largeur_libre_m": 60}}, {"type": "Feature", "geometry": {"type": "LineString", "coordinates": [[4.77978, 48.84195], [4.79283, 48.84358]]}, "properties": {"nom": "Étang Neuf", "region": "Champagne-Ardenne", "longueur_m": 975, "aire_ha": 32.9, "seuil_max_m": 700, "largeur_libre_m": 60}}, {"type": "Feature", "geometry": {"type": "LineString", "coordinates": [[4.93467, 48.93765], [4.92376, 48.94257]]}, "properties": {"nom": "Étang de la Grande Rouillie", "region": "Champagne-Ardenne", "longueur_m": 969, "aire_ha": 40.7, "seuil_max_m": 700, "largeur_libre_m": 60}}, {"type": "Feature", "geometry": {"type": "LineString", "coordinates": [[4.97689, 48.94518], [4.97821, 48.95184]]}, "properties": {"nom": "Étang du Haut", "region": "Champagne-Ardenne", "longueur_m": 747, "aire_ha": 28.5, "seuil_max_m": 700, "largeur_libre_m": 60}}, {"type": "Feature", "geometry": {"type": "LineString", "coordinates": [[5.39593, 47.90935], [5.35589, 47.91445]]}, "properties": {"nom": "Lac de Charmes", "region": "Champagne-Ardenne", "longueur_m": 3045, "aire_ha": 153.7, "seuil_max_m": 3000, "largeur_libre_m": 60}}, {"type": "Feature", "geometry": {"type": "LineString", "coordinates": [[3.5505, 48.53096], [3.55654, 48.53639]]}, "properties": {"nom": null, "region": "Champagne-Ardenne", "longueur_m": 751, "aire_ha": 23.1, "seuil_max_m": 700, "largeur_libre_m": 60}}, {"type": "Feature", "geometry": {"type": "LineString", "coordinates": [[4.7938, 48.85196], [4.80412, 48.85288]]}, "properties": {"nom": "Étang de Marenge", "region": "Champagne-Ardenne", "longueur_m": 765, "aire_ha": 13.6, "seuil_max_m": 700, "largeur_libre_m": 60}}, {"type": "Feature", "geometry": {"type": "LineString", "coordinates": [[4.15608, 48.21093], [4.16556, 48.21539]]}, "properties": {"nom": null, "region": "Champagne-Ardenne", "longueur_m": 862, "aire_ha": 22.9, "seuil_max_m": 700, "largeur_libre_m": 60}}, {"type": "Feature", "geometry": {"type": "LineString", "coordinates": [[4.70613, 48.56162], [4.82489, 48.56813]]}, "properties": {"nom": "Lac du Der-Chantecoq", "region": "Champagne-Ardenne", "longueur_m": 8793, "aire_ha": 3751.7, "seuil_max_m": 3000, "largeur_libre_m": 60}}, {"type": "Feature", "geometry": {"type": "LineString", "coordinates": [[4.77513, 48.53654], [4.78821, 48.55492]]}, "properties": {"nom": "Lac du Der-Chantecoq", "region": "Champagne-Ardenne", "longueur_m": 2260, "aire_ha": 194.1, "seuil_max_m": 2000, "largeur_libre_m": 60}}, {"type": "Feature", "geometry": {"type": "LineString", "coordinates": [[4.7453, 48.60229], [4.72037, 48.60618]]}, "properties": {"nom": "Lac du Der-Chantecoq", "region": "Champagne-Ardenne", "longueur_m": 1889, "aire_ha": 154.8, "seuil_max_m": 1500, "largeur_libre_m": 60}}, {"type": "Feature", "geometry": {"type": "LineString", "coordinates": [[4.6866, 48.56157], [4.68562, 48.56933]]}, "properties": {"nom": "Étang du Grand Coulon", "region": "Champagne-Ardenne", "longueur_m": 866, "aire_ha": 29.3, "seuil_max_m": 700, "largeur_libre_m": 60}}]}