{"type": "FeatureCollection", "metadata": {"region": "Haute-Normandie", "source": "OpenStreetMap via Geofabrik", "methode": "recollage des polygones contigus, erosion de W/2, plus longue corde inscrite", "largeur_libre_m": 60, "avertissement": "profondeur, obstacles et degagement d'approche NON pris en compte : borne haute de candidats"}, "features": [{"type": "Feature", "geometry": {"type": "LineString", "coordinates": [[0.30127, 49.43054], [0.43625, 49.4573]]}, "properties": {"nom": "Grand lac de Bouafles", "region": "Haute-Normandie", "longueur_m": 10235, "aire_ha": 7449.7, "seuil_max_m": 3000, "largeur_libre_m": 60}}, {"type": "Feature", "geometry": {"type": "LineString", "coordinates": [[1.01665, 49.31495], [1.02736, 49.31923]]}, "properties": {"nom": "lac Patin", "region": "Haute-Normandie", "longueur_m": 913, "aire_ha": 22.1, "seuil_max_m": 700, "largeur_libre_m": 60}}, {"type": "Feature", "geometry": {"type": "LineString", "coordinates": [[1.1447, 49.31129], [1.13508, 49.31282]]}, "properties": {"nom": "Plan d'eau d'Igoville", "region": "Haute-Normandie", "longueur_m": 720, "aire_ha": 26.7, "seuil_max_m": 700, "largeur_libre_m": 60}}, {"type": "Feature", "geometry": {"type": "LineString", "coordinates": [[0.31869, 49.46046], [0.17558, 49.47691]]}, "properties": {"nom": "Grand Canal du Havre", "region": "Haute-Normandie", "longueur_m": 10537, "aire_ha": 1322.8, "seuil_max_m": 3000, "largeur_libre_m": 60}}, {"type": "Feature", "geometry": {"type": "LineString", "coordinates": [[0.79274, 49.44599], [0.80055, 49.45138]]}, "properties": {"nom": "Tourbière de la Harelle", "region": "Haute-Normandie", "longueur_m": 825, "aire_ha": 45.3, "seuil_max_m": 700, "largeur_libre_m": 60}}, {"type": "Feature", "geometry": {"type": "LineString", "coordinates": [[0.52568, 49.4212], [0.53267, 49.42873]]}, "properties": {"nom": "La Grand-Mare", "region": "Haute-Normandie", "longueur_m": 979, "aire_ha": 63.7, "seuil_max_m": 700, "largeur_libre_m": 60}}, {"type": "Feature", "geometry": {"type": "LineString", "coordinates": [[0.17775, 49.45471], [0.10616, 49.46542]]}, "properties": {"nom": "Bassin Hubert Raoul-Duval", "region": "Haute-Normandie", "longueur_m": 5327, "aire_ha": 355.0, "seuil_max_m": 3000, "largeur_libre_m": 60}}, {"type": "Feature", "geometry": {"type": "LineString", "coordinates": [[1.70622, 49.25869], [1.70396, 49.26714]]}, "properties": {"nom": null, "region": "Haute-Normandie", "longueur_m": 954, "aire_ha": 35.3, "seuil_max_m": 700, "largeur_libre_m": 60}}, {"type": "Feature", "geometry": {"type": "LineString", "coordinates": [[1.24346, 49.29676], [1.21062, 49.29853]]}, "properties": {"nom": "Lac des Deux Amants", "region": "Haute-Normandie", "longueur_m": 2398, "aire_ha": 360.4, "seuil_max_m": 2000, "largeur_libre_m": 60}}, {"type": "Feature", "geometry": {"type": "LineString", "coordinates": [[0.87687, 49.46647], [0.88396, 49.4732]]}, "properties": {"nom": null, "region": "Haute-Normandie", "longueur_m": 908, "aire_ha": 47.2, "seuil_max_m": 700, "largeur_libre_m": 60}}, {"type": "Feature", "geometry": {"type": "LineString", "coordinates": [[1.24367, 49.26015], [1.257, 49.26427]]}, "properties": {"nom": null, "region": "Haute-Normandie", "longueur_m": 1073, "aire_ha": 58.1, "seuil_max_m": 1000, "largeur_libre_m": 60}}, {"type": "Feature", "geometry": {"type": "LineString", "coordinates": [[0.6333, 49.30771], [0.62418, 49.31225]]}, "properties": {"nom": null, "region": "Haute-Normandie", "longueur_m": 834, "aire_ha": 24.9, "seuil_max_m": 700, "largeur_libre_m": 60}}, {"type": "Feature", "geometry": {"type": "LineString", "coordinates": [[1.51426, 50.00525], [1.5059, 50.01321]]}, "properties": {"nom": "Étang d'Incheville", "region": "Haute-Normandie", "longueur_m": 1070, "aire_ha": 26.5, "seuil_max_m": 1000, "largeur_libre_m": 60}}, {"type": "Feature", "geometry": {"type": "LineString", "coordinates": [[1.53857, 49.99446], [1.52633, 49.99882]]}, "properties": {"nom": null, "region": "Haute-Normandie", "longueur_m": 1003, "aire_ha": 43.6, "seuil_max_m": 1000, "largeur_libre_m": 60}}, {"type": "Feature", "geometry": {"type": "LineString", "coordinates": [[0.47881, 49.36149], [0.48886, 49.36556]]}, "properties": {"nom": "Les Étangs de Pont-Audemer", "region": "Haute-Normandie", "longueur_m": 859, "aire_ha": 47.4, "seuil_max_m": 700, "largeur_libre_m": 60}}, {"type": "Feature", "geometry": {"type": "LineString", "coordinates": [[1.08888, 49.32544], [1.07157, 49.32635]]}, "properties": {"nom": "Base de Loisirs de Bédanne", "region": "Haute-Normandie", "longueur_m": 1262, "aire_ha": 54.9, "seuil_max_m": 1000, "largeur_libre_m": 60}}, {"type": "Feature", "geometry": {"type": "LineString", "coordinates": [[0.87556, 49.42945], [0.87308, 49.43618]]}, "properties": {"nom": null, "region": "Haute-Normandie", "longueur_m": 770, "aire_ha": 18.7, "seuil_max_m": 700, "largeur_libre_m": 60}}, {"type": "Feature", "geometry": {"type": "LineString", "coordinates": [[0.87913, 49.42532], [0.89176, 49.43237]]}, "properties": {"nom": null, "region": "Haute-Normandie", "longueur_m": 1206, "aire_ha": 71.7, "seuil_max_m": 1000, "largeur_libre_m": 60}}, {"type": "Feature", "geometry": {"type": "LineString", "coordinates": [[0.88902, 49.43409], [0.87672, 49.43646]]}, "properties": {"nom": null, "region": "Haute-Normandie", "longueur_m": 931, "aire_ha": 37.1, "seuil_max_m": 700, "largeur_libre_m": 60}}, {"type": "Feature", "geometry": {"type": "LineString", "coordinates": [[0.87639, 49.43842], [0.86959, 49.44769]]}, "properties": {"nom": null, "region": "Haute-Normandie", "longueur_m": 1144, "aire_ha": 91.0, "seuil_max_m": 1000, "largeur_libre_m": 60}}, {"type": "Feature", "geometry": {"type": "LineString", "coordinates": [[1.15519, 49.86978], [1.14593, 49.87228]]}, "properties": {"nom": null, "region": "Haute-Normandie", "longueur_m": 722, "aire_ha": 21.5, "seuil_max_m": 700, "largeur_libre_m": 60}}, {"type": "Feature", "geometry": {"type": "LineString", "coordinates": [[0.84818, 49.40429], [0.83898, 49.4106]]}, "properties": {"nom": null, "region": "Haute-Normandie", "longueur_m": 970, "aire_ha": 41.7, "seuil_max_m": 700, "largeur_libre_m": 60}}, {"type": "Feature", "geometry": {"type": "LineString", "coordinates": [[0.83528, 49.40406], [0.82085, 49.41772]]}, "properties": {"nom": null, "region": "Haute-Normandie", "longueur_m": 1846, "aire_ha": 101.1, "seuil_max_m": 1500, "largeur_libre_m": 60}}, {"type": "Feature", "geometry": {"type": "LineString", "coordinates": [[1.24217, 49.26], [1.24102, 49.27006]]}, "properties": {"nom": null, "region": "Haute-Normandie", "longueur_m": 1122, "aire_ha": 51.1, "seuil_max_m": 1000, "largeur_libre_m": 60}}]}