{"type": "FeatureCollection", "metadata": {"region": "Pays de la Loire", "source": "OpenStreetMap via Geofabrik", "methode": "recollage des polygones contigus, erosion de W/2, plus longue corde inscrite", "largeur_libre_m": 60, "avertissement": "profondeur, obstacles et degagement d'approche NON pris en compte : borne haute de candidats"}, "features": [{"type": "Feature", "geometry": {"type": "LineString", "coordinates": [[-1.89525, 47.28046], [-2.12424, 47.30337]]}, "properties": {"nom": "Estuaire de la Loire", "region": "Pays de la Loire", "longueur_m": 17492, "aire_ha": 16345.4, "seuil_max_m": 3000, "largeur_libre_m": 60}}, {"type": "Feature", "geometry": {"type": "LineString", "coordinates": [[-2.26414, 47.27775], [-2.25149, 47.28019]]}, "properties": {"nom": "Étang du Bois-Joalland", "region": "Pays de la Loire", "longueur_m": 994, "aire_ha": 44.4, "seuil_max_m": 700, "largeur_libre_m": 60}}, {"type": "Feature", "geometry": {"type": "LineString", "coordinates": [[-2.1983, 47.2793], [-2.19771, 47.28956]]}, "properties": {"nom": "Bassin de Penhoët", "region": "Pays de la Loire", "longueur_m": 1141, "aire_ha": 35.3, "seuil_max_m": 1000, "largeur_libre_m": 60}}, {"type": "Feature", "geometry": {"type": "LineString", "coordinates": [[-0.78763, 47.00666], [-0.82319, 47.01329]]}, "properties": {"nom": "Lac du Verdon", "region": "Pays de la Loire", "longueur_m": 2800, "aire_ha": 215.2, "seuil_max_m": 2000, "largeur_libre_m": 60}}, {"type": "Feature", "geometry": {"type": "LineString", "coordinates": [[-0.84718, 47.02531], [-0.84167, 47.03264]]}, "properties": {"nom": "Lac de Ribou", "region": "Pays de la Loire", "longueur_m": 916, "aire_ha": 96.0, "seuil_max_m": 700, "largeur_libre_m": 60}}, {"type": "Feature", "geometry": {"type": "LineString", "coordinates": [[-0.47845, 47.42792], [-0.49633, 47.42929]]}, "properties": {"nom": "Fosse de Sorges", "region": "Pays de la Loire", "longueur_m": 1357, "aire_ha": 27.7, "seuil_max_m": 1340, "largeur_libre_m": 60}}, {"type": "Feature", "geometry": {"type": "LineString", "coordinates": [[0.13106, 47.75315], [0.12975, 47.76306]]}, "properties": {"nom": "Lac de Mansigné", "region": "Pays de la Loire", "longueur_m": 1106, "aire_ha": 26.4, "seuil_max_m": 1000, "largeur_libre_m": 60}}, {"type": "Feature", "geometry": {"type": "LineString", "coordinates": [[-1.43323, 47.53629], [-1.43586, 47.54283]]}, "properties": {"nom": "Étang de Vioreau", "region": "Pays de la Loire", "longueur_m": 753, "aire_ha": 30.7, "seuil_max_m": 700, "largeur_libre_m": 60}}, {"type": "Feature", "geometry": {"type": "LineString", "coordinates": [[-1.77914, 46.65963], [-1.76153, 46.661]]}, "properties": {"nom": "Retenue du Jaunay", "region": "Pays de la Loire", "longueur_m": 1355, "aire_ha": 107.3, "seuil_max_m": 1340, "largeur_libre_m": 60}}, {"type": "Feature", "geometry": {"type": "LineString", "coordinates": [[-2.1875, 47.40213], [-2.19543, 47.40593]]}, "properties": {"nom": "La Pierre du Bran", "region": "Pays de la Loire", "longueur_m": 732, "aire_ha": 32.9, "seuil_max_m": 700, "largeur_libre_m": 60}}, {"type": "Feature", "geometry": {"type": "LineString", "coordinates": [[-1.06714, 46.63225], [-1.06613, 46.63882]]}, "properties": {"nom": "Retenue de l'Angle Guignard", "region": "Pays de la Loire", "longueur_m": 735, "aire_ha": 49.8, "seuil_max_m": 700, "largeur_libre_m": 60}}, {"type": "Feature", "geometry": {"type": "LineString", "coordinates": [[-1.79102, 46.70511], [-1.80045, 46.70794]]}, "properties": {"nom": "Lac du Gué Gorand", "region": "Pays de la Loire", "longueur_m": 786, "aire_ha": 17.2, "seuil_max_m": 700, "largeur_libre_m": 60}}, {"type": "Feature", "geometry": {"type": "LineString", "coordinates": [[-1.09773, 48.1445], [-1.12551, 48.14846]]}, "properties": {"nom": "Plan d'eau de la Haute Vilaine", "region": "Pays de la Loire", "longueur_m": 2112, "aire_ha": 138.3, "seuil_max_m": 2000, "largeur_libre_m": 60}}, {"type": "Feature", "geometry": {"type": "LineString", "coordinates": [[-1.20635, 46.27145], [-1.21151, 46.28241]]}, "properties": {"nom": null, "region": "Pays de la Loire", "longueur_m": 1281, "aire_ha": 29.6, "seuil_max_m": 1000, "largeur_libre_m": 60}}, {"type": "Feature", "geometry": {"type": "LineString", "coordinates": [[-0.70655, 46.47691], [-0.72095, 46.47908]]}, "properties": {"nom": null, "region": "Pays de la Loire", "longueur_m": 1131, "aire_ha": 76.9, "seuil_max_m": 1000, "largeur_libre_m": 60}}, {"type": "Feature", "geometry": {"type": "LineString", "coordinates": [[-1.76043, 47.67026], [-1.76835, 47.67408]]}, "properties": {"nom": "Étang de la Renoulière", "region": "Pays de la Loire", "longueur_m": 731, "aire_ha": 20.7, "seuil_max_m": 700, "largeur_libre_m": 60}}, {"type": "Feature", "geometry": {"type": "LineString", "coordinates": [[-2.09428, 47.50769], [-2.08445, 47.51119]]}, "properties": {"nom": "Étang du Gué aux Biches", "region": "Pays de la Loire", "longueur_m": 836, "aire_ha": 18.6, "seuil_max_m": 700, "largeur_libre_m": 60}}, {"type": "Feature", "geometry": {"type": "LineString", "coordinates": [[-1.30747, 47.53633], [-1.28511, 47.53796]]}, "properties": {"nom": "Étang de la Poitevinière", "region": "Pays de la Loire", "longueur_m": 1692, "aire_ha": 64.1, "seuil_max_m": 1500, "largeur_libre_m": 60}}, {"type": "Feature", "geometry": {"type": "LineString", "coordinates": [[-1.34873, 47.52606], [-1.32731, 47.52686]]}, "properties": {"nom": "Étang de la Provostière", "region": "Pays de la Loire", "longueur_m": 1615, "aire_ha": 60.4, "seuil_max_m": 1500, "largeur_libre_m": 60}}, {"type": "Feature", "geometry": {"type": "LineString", "coordinates": [[-2.41778, 47.46291], [-2.42502, 47.46944]]}, "properties": {"nom": "Étang du Pont de Fer", "region": "Pays de la Loire", "longueur_m": 907, "aire_ha": 34.8, "seuil_max_m": 700, "largeur_libre_m": 60}}, {"type": "Feature", "geometry": {"type": "LineString", "coordinates": [[-1.41087, 46.69472], [-1.40397, 46.70412]]}, "properties": {"nom": "Lac de Moulin Papon", "region": "Pays de la Loire", "longueur_m": 1169, "aire_ha": 89.9, "seuil_max_m": 1000, "largeur_libre_m": 60}}, {"type": "Feature", "geometry": {"type": "LineString", "coordinates": [[-1.0102, 48.22791], [-1.0011, 48.23725]]}, "properties": {"nom": "Étang neuf", "region": "Pays de la Loire", "longueur_m": 1238, "aire_ha": 34.6, "seuil_max_m": 1000, "largeur_libre_m": 60}}, {"type": "Feature", "geometry": {"type": "LineString", "coordinates": [[-0.5292, 48.22375], [-0.51956, 48.22542]]}, "properties": {"nom": "Étang de la Grande Métairie", "region": "Pays de la Loire", "longueur_m": 740, "aire_ha": 36.2, "seuil_max_m": 700, "largeur_libre_m": 60}}, {"type": "Feature", "geometry": {"type": "LineString", "coordinates": [[-0.43555, 48.20304], [-0.42273, 48.20341]]}, "properties": {"nom": "Étang de Gué de Selle", "region": "Pays de la Loire", "longueur_m": 953, "aire_ha": 38.5, "seuil_max_m": 700, "largeur_libre_m": 60}}, {"type": "Feature", "geometry": {"type": "LineString", "coordinates": [[-0.97555, 48.1107], [-0.98762, 48.11801]]}, "properties": {"nom": "Étang de la Forge", "region": "Pays de la Loire", "longueur_m": 1211, "aire_ha": 32.6, "seuil_max_m": 1000, "largeur_libre_m": 60}}, {"type": "Feature", "geometry": {"type": "LineString", "coordinates": [[-0.9978, 48.10418], [-0.98766, 48.10637]]}, "properties": {"nom": "Étang du Moulin Neuf", "region": "Pays de la Loire", "longueur_m": 793, "aire_ha": 20.1, "seuil_max_m": 700, "largeur_libre_m": 60}}, {"type": "Feature", "geometry": {"type": "LineString", "coordinates": [[-0.9236, 48.00285], [-0.91099, 48.00659]]}, "properties": {"nom": "Étang du Château", "region": "Pays de la Loire", "longueur_m": 1028, "aire_ha": 23.5, "seuil_max_m": 1000, "largeur_libre_m": 60}}, {"type": "Feature", "geometry": {"type": "LineString", "coordinates": [[-1.17371, 47.66037], [-1.16266, 47.66156]]}, "properties": {"nom": "Étang de Maubusson", "region": "Pays de la Loire", "longueur_m": 839, "aire_ha": 23.2, "seuil_max_m": 700, "largeur_libre_m": 60}}, {"type": "Feature", "geometry": {"type": "LineString", "coordinates": [[-1.15168, 47.59871], [-1.16087, 47.60274]]}, "properties": {"nom": "Étang du Pin", "region": "Pays de la Loire", "longueur_m": 823, "aire_ha": 23.9, "seuil_max_m": 700, "largeur_libre_m": 60}}, {"type": "Feature", "geometry": {"type": "LineString", "coordinates": [[-0.39956, 47.0974], [-0.39123, 47.1036]]}, "properties": {"nom": "Étang de Passavant", "region": "Pays de la Loire", "longueur_m": 935, "aire_ha": 17.2, "seuil_max_m": 700, "largeur_libre_m": 60}}, {"type": "Feature", "geometry": {"type": "LineString", "coordinates": [[-0.48662, 47.06447], [-0.47728, 47.07309]]}, "properties": {"nom": "Étang de Beaurepaire", "region": "Pays de la Loire", "longueur_m": 1192, "aire_ha": 36.9, "seuil_max_m": 1000, "largeur_libre_m": 60}}, {"type": "Feature", "geometry": {"type": "LineString", "coordinates": [[-0.71052, 47.07111], [-0.70349, 47.07639]]}, "properties": {"nom": "Étang de Péronne", "region": "Pays de la Loire", "longueur_m": 793, "aire_ha": 33.1, "seuil_max_m": 700, "largeur_libre_m": 60}}, {"type": "Feature", "geometry": {"type": "LineString", "coordinates": [[-1.69421, 46.74812], [-1.68164, 46.74909]]}, "properties": {"nom": null, "region": "Pays de la Loire", "longueur_m": 966, "aire_ha": 79.2, "seuil_max_m": 700, "largeur_libre_m": 60}}, {"type": "Feature", "geometry": {"type": "LineString", "coordinates": [[-1.67568, 46.75341], [-1.66674, 46.76976]]}, "properties": {"nom": null, "region": "Pays de la Loire", "longueur_m": 1940, "aire_ha": 47.7, "seuil_max_m": 1500, "largeur_libre_m": 60}}, {"type": "Feature", "geometry": {"type": "LineString", "coordinates": [[-0.81475, 47.06869], [-0.80805, 47.07374]]}, "properties": {"nom": "Étang des Noues", "region": "Pays de la Loire", "longueur_m": 757, "aire_ha": 32.5, "seuil_max_m": 700, "largeur_libre_m": 60}}, {"type": "Feature", "geometry": {"type": "LineString", "coordinates": [[-2.09904, 47.58127], [-2.10389, 47.58951]]}, "properties": {"nom": "La Vilaine", "region": "Pays de la Loire", "longueur_m": 986, "aire_ha": 348.3, "seuil_max_m": 700, "largeur_libre_m": 60}}, {"type": "Feature", "geometry": {"type": "LineString", "coordinates": [[-1.93673, 46.69758], [-1.93391, 46.71066]]}, "properties": {"nom": null, "region": "Pays de la Loire", "longueur_m": 1469, "aire_ha": 83.2, "seuil_max_m": 1340, "largeur_libre_m": 60}}, {"type": "Feature", "geometry": {"type": "LineString", "coordinates": [[-1.51962, 47.71081], [-1.53135, 47.71334]]}, "properties": {"nom": "Étang de la Hunaudière", "region": "Pays de la Loire", "longueur_m": 924, "aire_ha": 16.9, "seuil_max_m": 700, "largeur_libre_m": 60}}, {"type": "Feature", "geometry": {"type": "LineString", "coordinates": [[-1.6991, 47.08337], [-1.62112, 47.11094]]}, "properties": {"nom": "Lac de Grand-Lieu", "region": "Pays de la Loire", "longueur_m": 6661, "aire_ha": 2195.7, "seuil_max_m": 3000, "largeur_libre_m": 60}}, {"type": "Feature", "geometry": {"type": "LineString", "coordinates": [[-1.13156, 46.30517], [-1.12249, 46.31929]]}, "properties": {"nom": null, "region": "Pays de la Loire", "longueur_m": 1716, "aire_ha": 205.3, "seuil_max_m": 1500, "largeur_libre_m": 60}}, {"type": "Feature", "geometry": {"type": "LineString", "coordinates": [[-1.51511, 47.34904], [-1.49358, 47.3718]]}, "properties": {"nom": "L'Erdre", "region": "Pays de la Loire", "longueur_m": 3005, "aire_ha": 727.0, "seuil_max_m": 3000, "largeur_libre_m": 60}}, {"type": "Feature", "geometry": {"type": "LineString", "coordinates": [[-1.19367, 46.9181], [-1.20712, 46.91857]]}, "properties": {"nom": "Lac de la Bultière", "region": "Pays de la Loire", "longueur_m": 1025, "aire_ha": 59.1, "seuil_max_m": 1000, "largeur_libre_m": 60}}, {"type": "Feature", "geometry": {"type": "LineString", "coordinates": [[-1.82356, 46.52896], [-1.8501, 46.58366]]}, "properties": {"nom": "La Ch'noue", "region": "Pays de la Loire", "longueur_m": 6406, "aire_ha": 407.6, "seuil_max_m": 3000, "largeur_libre_m": 60}}, {"type": "Feature", "geometry": {"type": "LineString", "coordinates": [[0.49365, 47.71261], [0.48305, 47.71468]]}, "properties": {"nom": "Lac des Varennes", "region": "Pays de la Loire", "longueur_m": 827, "aire_ha": 46.5, "seuil_max_m": 700, "largeur_libre_m": 60}}, {"type": "Feature", "geometry": {"type": "LineString", "coordinates": [[-2.10289, 47.51132], [-2.115, 47.51165]]}, "properties": {"nom": "Lac de la Roche", "region": "Pays de la Loire", "longueur_m": 912, "aire_ha": 33.0, "seuil_max_m": 700, "largeur_libre_m": 60}}, {"type": "Feature", "geometry": {"type": "LineString", "coordinates": [[-0.04062, 47.86508], [-0.03099, 47.86533]]}, "properties": {"nom": "Étang de Gilbert", "region": "Pays de la Loire", "longueur_m": 721, "aire_ha": 11.7, "seuil_max_m": 700, "largeur_libre_m": 60}}, {"type": "Feature", "geometry": {"type": "LineString", "coordinates": [[-0.0563, 47.86551], [-0.06502, 47.86901]]}, "properties": {"nom": "Étang de la Bonde", "region": "Pays de la Loire", "longueur_m": 759, "aire_ha": 15.6, "seuil_max_m": 700, "largeur_libre_m": 60}}, {"type": "Feature", "geometry": {"type": "LineString", "coordinates": [[-1.1407, 47.83395], [-1.14951, 47.83659]]}, "properties": {"nom": "Étang de la Guiardière", "region": "Pays de la Loire", "longueur_m": 721, "aire_ha": 14.2, "seuil_max_m": 700, "largeur_libre_m": 60}}, {"type": "Feature", "geometry": {"type": "LineString", "coordinates": [[0.51797, 48.11631], [0.51125, 48.12152]]}, "properties": {"nom": null, "region": "Pays de la Loire", "longueur_m": 765, "aire_ha": 16.1, "seuil_max_m": 700, "largeur_libre_m": 60}}, {"type": "Feature", "geometry": {"type": "LineString", "coordinates": [[-0.09379, 47.27736], [-0.09851, 47.28388]]}, "properties": {"nom": null, "region": "Pays de la Loire", "longueur_m": 807, "aire_ha": 21.0, "seuil_max_m": 700, "largeur_libre_m": 60}}, {"type": "Feature", "geometry": {"type": "LineString", "coordinates": [[-1.16234, 47.7297], [-1.17386, 47.73178]]}, "properties": {"nom": "Étang de Tressé", "region": "Pays de la Loire", "longueur_m": 894, "aire_ha": 30.5, "seuil_max_m": 700, "largeur_libre_m": 60}}, {"type": "Feature", "geometry": {"type": "LineString", "coordinates": [[-1.10976, 46.84869], [-1.11654, 46.85334]]}, "properties": {"nom": "Lac de la Tricherie", "region": "Pays de la Loire", "longueur_m": 730, "aire_ha": 15.8, "seuil_max_m": 700, "largeur_libre_m": 60}}, {"type": "Feature", "geometry": {"type": "LineString", "coordinates": [[-1.08619, 47.15769], [-1.09523, 47.16044]]}, "properties": {"nom": "Étang de la Thévinière", "region": "Pays de la Loire", "longueur_m": 750, "aire_ha": 15.5, "seuil_max_m": 700, "largeur_libre_m": 60}}, {"type": "Feature", "geometry": {"type": "LineString", "coordinates": [[-1.19418, 47.72218], [-1.18128, 47.72404]]}, "properties": {"nom": "Étang du Fourneau", "region": "Pays de la Loire", "longueur_m": 989, "aire_ha": 27.2, "seuil_max_m": 700, "largeur_libre_m": 60}}, {"type": "Feature", "geometry": {"type": "LineString", "coordinates": [[-1.19094, 46.42292], [-1.18303, 46.43046]]}, "properties": {"nom": "Plan d'eau des Guifettes", "region": "Pays de la Loire", "longueur_m": 1034, "aire_ha": 41.1, "seuil_max_m": 1000, "largeur_libre_m": 60}}, {"type": "Feature", "geometry": {"type": "LineString", "coordinates": [[0.63317, 48.16619], [0.64214, 48.17135]]}, "properties": {"nom": null, "region": "Pays de la Loire", "longueur_m": 880, "aire_ha": 38.8, "seuil_max_m": 700, "largeur_libre_m": 60}}, {"type": "Feature", "geometry": {"type": "LineString", "coordinates": [[-0.12492, 47.43083], [-0.11924, 47.43599]]}, "properties": {"nom": "Étang des Hayes", "region": "Pays de la Loire", "longueur_m": 716, "aire_ha": 20.1, "seuil_max_m": 700, "largeur_libre_m": 60}}, {"type": "Feature", "geometry": {"type": "LineString", "coordinates": [[0.11015, 47.91015], [0.10701, 47.91702]]}, "properties": {"nom": null, "region": "Pays de la Loire", "longueur_m": 799, "aire_ha": 23.4, "seuil_max_m": 700, "largeur_libre_m": 60}}, {"type": "Feature", "geometry": {"type": "LineString", "coordinates": [[-0.53875, 48.29047], [-0.52207, 48.29274]]}, "properties": {"nom": "Étang de Beaucoudray", "region": "Pays de la Loire", "longueur_m": 1263, "aire_ha": 47.0, "seuil_max_m": 1000, "largeur_libre_m": 60}}, {"type": "Feature", "geometry": {"type": "LineString", "coordinates": [[-1.05747, 47.8656], [-1.07673, 47.86836]]}, "properties": {"nom": "Étang de la Rincerie", "region": "Pays de la Loire", "longueur_m": 1472, "aire_ha": 43.0, "seuil_max_m": 1340, "largeur_libre_m": 60}}, {"type": "Feature", "geometry": {"type": "LineString", "coordinates": [[-0.9569, 46.69172], [-0.95807, 46.69952]]}, "properties": {"nom": "Retenue de Rochereau", "region": "Pays de la Loire", "longueur_m": 871, "aire_ha": 43.1, "seuil_max_m": 700, "largeur_libre_m": 60}}, {"type": "Feature", "geometry": {"type": "LineString", "coordinates": [[-0.96241, 46.70684], [-0.95252, 46.71176]]}, "properties": {"nom": null, "region": "Pays de la Loire", "longueur_m": 932, "aire_ha": 51.0, "seuil_max_m": 700, "largeur_libre_m": 60}}, {"type": "Feature", "geometry": {"type": "LineString", "coordinates": [[-1.13527, 46.66125], [-1.14694, 46.66167]]}, "properties": {"nom": "Lac de la Vouraie", "region": "Pays de la Loire", "longueur_m": 894, "aire_ha": 72.6, "seuil_max_m": 700, "largeur_libre_m": 60}}, {"type": "Feature", "geometry": {"type": "LineString", "coordinates": [[-1.23188, 46.56021], [-1.23942, 46.56735]]}, "properties": {"nom": "Lac du Marillet", "region": "Pays de la Loire", "longueur_m": 981, "aire_ha": 69.9, "seuil_max_m": 700, "largeur_libre_m": 60}}, {"type": "Feature", "geometry": {"type": "LineString", "coordinates": [[-2.06377, 47.60368], [-2.0463, 47.60911]]}, "properties": {"nom": "Étang Aumée", "region": "Pays de la Loire", "longueur_m": 1445, "aire_ha": 54.9, "seuil_max_m": 1340, "largeur_libre_m": 60}}, {"type": "Feature", "geometry": {"type": "LineString", "coordinates": [[-0.87012, 47.40888], [-0.88206, 47.41063]]}, "properties": {"nom": null, "region": "Pays de la Loire", "longueur_m": 921, "aire_ha": 29.8, "seuil_max_m": 700, "largeur_libre_m": 60}}, {"type": "Feature", "geometry": {"type": "LineString", "coordinates": [[-0.97187, 47.49657], [-0.96176, 47.49691]]}, "properties": {"nom": "Étang de la Clémencière", "region": "Pays de la Loire", "longueur_m": 762, "aire_ha": 16.1, "seuil_max_m": 700, "largeur_libre_m": 60}}, {"type": "Feature", "geometry": {"type": "LineString", "coordinates": [[-0.95372, 46.70119], [-0.94837, 46.70753]]}, "properties": {"nom": null, "region": "Pays de la Loire", "longueur_m": 814, "aire_ha": 12.3, "seuil_max_m": 700, "largeur_libre_m": 60}}, {"type": "Feature", "geometry": {"type": "LineString", "coordinates": [[-1.07432, 46.80696], [-1.08542, 46.80777]]}, "properties": {"nom": "L'Étang du Parc", "region": "Pays de la Loire", "longueur_m": 852, "aire_ha": 26.4, "seuil_max_m": 700, "largeur_libre_m": 60}}, {"type": "Feature", "geometry": {"type": "LineString", "coordinates": [[0.48262, 47.69659], [0.48901, 47.7017]]}, "properties": {"nom": null, "region": "Pays de la Loire", "longueur_m": 743, "aire_ha": 25.2, "seuil_max_m": 700, "largeur_libre_m": 60}}, {"type": "Feature", "geometry": {"type": "LineString", "coordinates": [[-1.23711, 47.69513], [-1.22939, 47.70419]]}, "properties": {"nom": "Étang de la Blisière", "region": "Pays de la Loire", "longueur_m": 1161, "aire_ha": 57.9, "seuil_max_m": 1000, "largeur_libre_m": 60}}, {"type": "Feature", "geometry": {"type": "LineString", "coordinates": [[0.04306, 47.33858], [0.04867, 47.34367]]}, "properties": {"nom": "Étang des Hautes Belles", "region": "Pays de la Loire", "longueur_m": 707, "aire_ha": 17.9, "seuil_max_m": 700, "largeur_libre_m": 60}}, {"type": "Feature", "geometry": {"type": "LineString", "coordinates": [[0.22339, 47.46424], [0.18764, 47.47118]]}, "properties": {"nom": "Lac des Mousseaux", "region": "Pays de la Loire", "longueur_m": 2801, "aire_ha": 178.1, "seuil_max_m": 2000, "largeur_libre_m": 60}}, {"type": "Feature", "geometry": {"type": "LineString", "coordinates": [[-0.98426, 47.54572], [-0.99869, 47.54574]]}, "properties": {"nom": null, "region": "Pays de la Loire", "longueur_m": 1085, "aire_ha": 22.3, "seuil_max_m": 1000, "largeur_libre_m": 60}}, {"type": "Feature", "geometry": {"type": "LineString", "coordinates": [[-0.12958, 48.20449], [-0.13003, 48.212]]}, "properties": {"nom": "Grand Étang", "region": "Pays de la Loire", "longueur_m": 836, "aire_ha": 32.8, "seuil_max_m": 700, "largeur_libre_m": 60}}, {"type": "Feature", "geometry": {"type": "LineString", "coordinates": [[0.06634, 47.691], [0.07706, 47.69282]]}, "properties": {"nom": null, "region": "Pays de la Loire", "longueur_m": 829, "aire_ha": 22.7, "seuil_max_m": 700, "largeur_libre_m": 60}}, {"type": "Feature", "geometry": {"type": "LineString", "coordinates": [[-1.76147, 46.47963], [-1.78299, 46.49425]]}, "properties": {"nom": null, "region": "Pays de la Loire", "longueur_m": 2316, "aire_ha": 260.3, "seuil_max_m": 2000, "largeur_libre_m": 60}}, {"type": "Feature", "geometry": {"type": "LineString", "coordinates": [[-0.59296, 47.45249], [-0.57807, 47.46356]]}, "properties": {"nom": "Lac de Maine", "region": "Pays de la Loire", "longueur_m": 1664, "aire_ha": 104.7, "seuil_max_m": 1500, "largeur_libre_m": 60}}, {"type": "Feature", "geometry": {"type": "LineString", "coordinates": [[-2.05778, 46.94963], [-2.05323, 46.95592]]}, "properties": {"nom": null, "region": "Pays de la Loire", "longueur_m": 779, "aire_ha": 29.9, "seuil_max_m": 700, "largeur_libre_m": 60}}, {"type": "Feature", "geometry": {"type": "LineString", "coordinates": [[-1.40576, 47.525], [-1.443, 47.5249]]}, "properties": {"nom": "Grand Réservoir de Vioreau", "region": "Pays de la Loire", "longueur_m": 2802, "aire_ha": 153.6, "seuil_max_m": 2000, "largeur_libre_m": 60}}, {"type": "Feature", "geometry": {"type": "LineString", "coordinates": [[-0.05448, 47.69706], [-0.04097, 47.69887]]}, "properties": {"nom": "Lac de loisirs", "region": "Pays de la Loire", "longueur_m": 1033, "aire_ha": 31.8, "seuil_max_m": 1000, "largeur_libre_m": 60}}, {"type": "Feature", "geometry": {"type": "LineString", "coordinates": [[-1.09253, 47.57414], [-1.10489, 47.57593]]}, "properties": {"nom": null, "region": "Pays de la Loire", "longueur_m": 950, "aire_ha": 42.6, "seuil_max_m": 700, "largeur_libre_m": 60}}]}