{"type": "FeatureCollection", "metadata": {"region": "PACA", "source": "OpenStreetMap via Geofabrik", "methode": "recollage des polygones contigus, erosion de W/2, plus longue corde inscrite", "largeur_libre_m": 60, "avertissement": "profondeur, obstacles et degagement d'approche NON pris en compte : borne haute de candidats"}, "features": [{"type": "Feature", "geometry": {"type": "LineString", "coordinates": [[4.7217, 44.14291], [4.71402, 44.18355]]}, "properties": {"nom": "L'Aygues", "region": "PACA", "longueur_m": 4556, "aire_ha": 2595.2, "seuil_max_m": 3000, "largeur_libre_m": 60}}, {"type": "Feature", "geometry": {"type": "LineString", "coordinates": [[7.18132, 43.81401], [7.18065, 43.82337]]}, "properties": {"nom": "Lac du Broc", "region": "PACA", "longueur_m": 1042, "aire_ha": 29.3, "seuil_max_m": 1000, "largeur_libre_m": 60}}, {"type": "Feature", "geometry": {"type": "LineString", "coordinates": [[4.32443, 43.51388], [4.3291, 43.52578]]}, "properties": {"nom": "Étang d'Amalbert", "region": "PACA", "longueur_m": 1375, "aire_ha": 54.1, "seuil_max_m": 1340, "largeur_libre_m": 60}}, {"type": "Feature", "geometry": {"type": "LineString", "coordinates": [[4.78491, 43.35075], [4.80492, 43.36797]]}, "properties": {"nom": "Grau de Piémanson", "region": "PACA", "longueur_m": 2509, "aire_ha": 86.5, "seuil_max_m": 2000, "largeur_libre_m": 60}}, {"type": "Feature", "geometry": {"type": "LineString", "coordinates": [[4.86088, 43.35377], [4.87595, 43.35409]]}, "properties": {"nom": "Étang de Napoléon", "region": "PACA", "longueur_m": 1223, "aire_ha": 63.1, "seuil_max_m": 1000, "largeur_libre_m": 60}}, {"type": "Feature", "geometry": {"type": "LineString", "coordinates": [[4.61637, 43.41575], [4.58472, 43.44888]]}, "properties": {"nom": "Étang du Galabert", "region": "PACA", "longueur_m": 4487, "aire_ha": 505.4, "seuil_max_m": 3000, "largeur_libre_m": 60}}, {"type": "Feature", "geometry": {"type": "LineString", "coordinates": [[4.29411, 43.51676], [4.28465, 43.52467]]}, "properties": {"nom": "Clos de Talar", "region": "PACA", "longueur_m": 1166, "aire_ha": 54.0, "seuil_max_m": 1000, "largeur_libre_m": 60}}, {"type": "Feature", "geometry": {"type": "LineString", "coordinates": [[4.29878, 43.52068], [4.28176, 43.52902]]}, "properties": {"nom": "Clos du Pont aux Ânes", "region": "PACA", "longueur_m": 1659, "aire_ha": 68.2, "seuil_max_m": 1500, "largeur_libre_m": 60}}, {"type": "Feature", "geometry": {"type": "LineString", "coordinates": [[4.34347, 43.48867], [4.35032, 43.49403]]}, "properties": {"nom": null, "region": "PACA", "longueur_m": 813, "aire_ha": 32.6, "seuil_max_m": 700, "largeur_libre_m": 60}}, {"type": "Feature", "geometry": {"type": "LineString", "coordinates": [[4.63477, 43.41421], [4.61643, 43.44597]]}, "properties": {"nom": "Étang du Fangassier", "region": "PACA", "longueur_m": 3831, "aire_ha": 526.4, "seuil_max_m": 3000, "largeur_libre_m": 60}}, {"type": "Feature", "geometry": {"type": "LineString", "coordinates": [[4.65463, 43.40904], [4.62029, 43.4163]]}, "properties": {"nom": null, "region": "PACA", "longueur_m": 2898, "aire_ha": 78.0, "seuil_max_m": 2000, "largeur_libre_m": 60}}, {"type": "Feature", "geometry": {"type": "LineString", "coordinates": [[4.61286, 43.41504], [4.59361, 43.42966]]}, "properties": {"nom": null, "region": "PACA", "longueur_m": 2252, "aire_ha": 218.5, "seuil_max_m": 2000, "largeur_libre_m": 60}}, {"type": "Feature", "geometry": {"type": "LineString", "coordinates": [[4.58744, 43.45353], [4.61994, 43.45304]]}, "properties": {"nom": "Étang de la Vignolle", "region": "PACA", "longueur_m": 2633, "aire_ha": 233.0, "seuil_max_m": 2000, "largeur_libre_m": 60}}, {"type": "Feature", "geometry": {"type": "LineString", "coordinates": [[4.65789, 43.40917], [4.64566, 43.42538]]}, "properties": {"nom": null, "region": "PACA", "longueur_m": 2057, "aire_ha": 223.4, "seuil_max_m": 2000, "largeur_libre_m": 60}}, {"type": "Feature", "geometry": {"type": "LineString", "coordinates": [[4.64341, 43.42167], [4.64155, 43.42878]]}, "properties": {"nom": null, "region": "PACA", "longueur_m": 804, "aire_ha": 19.6, "seuil_max_m": 700, "largeur_libre_m": 60}}, {"type": "Feature", "geometry": {"type": "LineString", "coordinates": [[4.64741, 43.42658], [4.6272, 43.44364]]}, "properties": {"nom": null, "region": "PACA", "longueur_m": 2505, "aire_ha": 106.4, "seuil_max_m": 2000, "largeur_libre_m": 60}}, {"type": "Feature", "geometry": {"type": "LineString", "coordinates": [[4.73884, 43.51488], [4.70686, 43.55729]]}, "properties": {"nom": "Baisse Neuve", "region": "PACA", "longueur_m": 5377, "aire_ha": 3762.3, "seuil_max_m": 3000, "largeur_libre_m": 60}}, {"type": "Feature", "geometry": {"type": "LineString", "coordinates": [[5.14286, 43.403], [5.0147, 43.55535]]}, "properties": {"nom": "Étang de Berre", "region": "PACA", "longueur_m": 19858, "aire_ha": 16354.2, "seuil_max_m": 3000, "largeur_libre_m": 60}}, {"type": "Feature", "geometry": {"type": "LineString", "coordinates": [[4.77494, 43.3752], [4.79925, 43.38155]]}, "properties": {"nom": "Étang de la Dame", "region": "PACA", "longueur_m": 2094, "aire_ha": 102.6, "seuil_max_m": 2000, "largeur_libre_m": 60}}, {"type": "Feature", "geometry": {"type": "LineString", "coordinates": [[4.78955, 43.37191], [4.80767, 43.3723]]}, "properties": {"nom": "Baisse de Cinq Cents Francs", "region": "PACA", "longueur_m": 1470, "aire_ha": 115.1, "seuil_max_m": 1340, "largeur_libre_m": 60}}, {"type": "Feature", "geometry": {"type": "LineString", "coordinates": [[4.7495, 43.36233], [4.73631, 43.37048]]}, "properties": {"nom": "Les Pointes", "region": "PACA", "longueur_m": 1402, "aire_ha": 100.4, "seuil_max_m": 1340, "largeur_libre_m": 60}}, {"type": "Feature", "geometry": {"type": "LineString", "coordinates": [[4.68958, 43.38192], [4.70289, 43.38794]]}, "properties": {"nom": null, "region": "PACA", "longueur_m": 1269, "aire_ha": 61.2, "seuil_max_m": 1000, "largeur_libre_m": 60}}, {"type": "Feature", "geometry": {"type": "LineString", "coordinates": [[4.70436, 43.37792], [4.69644, 43.38231]]}, "properties": {"nom": null, "region": "PACA", "longueur_m": 806, "aire_ha": 33.7, "seuil_max_m": 700, "largeur_libre_m": 60}}, {"type": "Feature", "geometry": {"type": "LineString", "coordinates": [[4.69586, 43.37955], [4.68554, 43.38091]]}, "properties": {"nom": null, "region": "PACA", "longueur_m": 851, "aire_ha": 30.0, "seuil_max_m": 700, "largeur_libre_m": 60}}, {"type": "Feature", "geometry": {"type": "LineString", "coordinates": [[4.25632, 43.48036], [4.23885, 43.48471]]}, "properties": {"nom": "Clos des Salants", "region": "PACA", "longueur_m": 1495, "aire_ha": 115.7, "seuil_max_m": 1340, "largeur_libre_m": 60}}, {"type": "Feature", "geometry": {"type": "LineString", "coordinates": [[4.23539, 43.48462], [4.23917, 43.49054]]}, "properties": {"nom": null, "region": "PACA", "longueur_m": 726, "aire_ha": 15.3, "seuil_max_m": 700, "largeur_libre_m": 60}}, {"type": "Feature", "geometry": {"type": "LineString", "coordinates": [[4.25678, 43.47591], [4.27916, 43.48092]]}, "properties": {"nom": "Clos des Goélands", "region": "PACA", "longueur_m": 1895, "aire_ha": 241.7, "seuil_max_m": 1500, "largeur_libre_m": 60}}, {"type": "Feature", "geometry": {"type": "LineString", "coordinates": [[4.23299, 43.46905], [4.2531, 43.47114]]}, "properties": {"nom": "Clos du Jonc Marin", "region": "PACA", "longueur_m": 1645, "aire_ha": 128.8, "seuil_max_m": 1500, "largeur_libre_m": 60}}, {"type": "Feature", "geometry": {"type": "LineString", "coordinates": [[4.23262, 43.4634], [4.25861, 43.46922]]}, "properties": {"nom": "Clos de la Comète", "region": "PACA", "longueur_m": 2201, "aire_ha": 169.5, "seuil_max_m": 2000, "largeur_libre_m": 60}}, {"type": "Feature", "geometry": {"type": "LineString", "coordinates": [[4.25755, 43.47205], [4.27723, 43.47257]]}, "properties": {"nom": "Clos de Vovo", "region": "PACA", "longueur_m": 1595, "aire_ha": 92.0, "seuil_max_m": 1500, "largeur_libre_m": 60}}, {"type": "Feature", "geometry": {"type": "LineString", "coordinates": [[4.28825, 43.47483], [4.28514, 43.48223]]}, "properties": {"nom": null, "region": "PACA", "longueur_m": 860, "aire_ha": 32.8, "seuil_max_m": 700, "largeur_libre_m": 60}}, {"type": "Feature", "geometry": {"type": "LineString", "coordinates": [[4.25417, 43.46235], [4.27175, 43.46703]]}, "properties": {"nom": "Étang des 2 Pins", "region": "PACA", "longueur_m": 1516, "aire_ha": 164.7, "seuil_max_m": 1500, "largeur_libre_m": 60}}, {"type": "Feature", "geometry": {"type": "LineString", "coordinates": [[4.25698, 43.48257], [4.27695, 43.48464]]}, "properties": {"nom": "Clos du Sanglier", "region": "PACA", "longueur_m": 1633, "aire_ha": 91.4, "seuil_max_m": 1500, "largeur_libre_m": 60}}, {"type": "Feature", "geometry": {"type": "LineString", "coordinates": [[4.31328, 43.4601], [4.28216, 43.46658]]}, "properties": {"nom": null, "region": "PACA", "longueur_m": 2621, "aire_ha": 266.7, "seuil_max_m": 2000, "largeur_libre_m": 60}}, {"type": "Feature", "geometry": {"type": "LineString", "coordinates": [[4.30939, 43.47506], [4.28729, 43.48154]]}, "properties": {"nom": "Clos de l'Arameau", "region": "PACA", "longueur_m": 1929, "aire_ha": 201.4, "seuil_max_m": 1500, "largeur_libre_m": 60}}, {"type": "Feature", "geometry": {"type": "LineString", "coordinates": [[4.28052, 43.48074], [4.28385, 43.48925]]}, "properties": {"nom": "Clos de la Nourrice", "region": "PACA", "longueur_m": 984, "aire_ha": 60.6, "seuil_max_m": 700, "largeur_libre_m": 60}}, {"type": "Feature", "geometry": {"type": "LineString", "coordinates": [[4.31474, 43.49449], [4.30743, 43.51574]]}, "properties": {"nom": "Étang de Boniface", "region": "PACA", "longueur_m": 2434, "aire_ha": 163.5, "seuil_max_m": 2000, "largeur_libre_m": 60}}, {"type": "Feature", "geometry": {"type": "LineString", "coordinates": [[4.28762, 43.48856], [4.29871, 43.51209]]}, "properties": {"nom": "Étang de Brasol", "region": "PACA", "longueur_m": 2764, "aire_ha": 380.2, "seuil_max_m": 2000, "largeur_libre_m": 60}}, {"type": "Feature", "geometry": {"type": "LineString", "coordinates": [[4.27262, 43.49031], [4.26347, 43.50094]]}, "properties": {"nom": null, "region": "PACA", "longueur_m": 1395, "aire_ha": 53.8, "seuil_max_m": 1340, "largeur_libre_m": 60}}, {"type": "Feature", "geometry": {"type": "LineString", "coordinates": [[4.29072, 43.48728], [4.31875, 43.49354]]}, "properties": {"nom": "Étang de Rolland", "region": "PACA", "longueur_m": 2372, "aire_ha": 308.1, "seuil_max_m": 2000, "largeur_libre_m": 60}}, {"type": "Feature", "geometry": {"type": "LineString", "coordinates": [[4.23568, 43.49744], [4.22815, 43.50309]]}, "properties": {"nom": null, "region": "PACA", "longueur_m": 875, "aire_ha": 26.8, "seuil_max_m": 700, "largeur_libre_m": 60}}, {"type": "Feature", "geometry": {"type": "LineString", "coordinates": [[4.23054, 43.4806], [4.21751, 43.49148]]}, "properties": {"nom": "Plaine de Saint-Jean", "region": "PACA", "longueur_m": 1604, "aire_ha": 176.4, "seuil_max_m": 1500, "largeur_libre_m": 60}}, {"type": "Feature", "geometry": {"type": "LineString", "coordinates": [[4.27084, 43.51602], [4.28435, 43.52293]]}, "properties": {"nom": "Le Fenassier", "region": "PACA", "longueur_m": 1336, "aire_ha": 100.3, "seuil_max_m": 1000, "largeur_libre_m": 60}}, {"type": "Feature", "geometry": {"type": "LineString", "coordinates": [[4.26497, 43.51182], [4.2771, 43.51261]]}, "properties": {"nom": "Clos de la Panne", "region": "PACA", "longueur_m": 985, "aire_ha": 51.3, "seuil_max_m": 700, "largeur_libre_m": 60}}, {"type": "Feature", "geometry": {"type": "LineString", "coordinates": [[4.31824, 43.52793], [4.30769, 43.5331]]}, "properties": {"nom": null, "region": "PACA", "longueur_m": 1029, "aire_ha": 36.1, "seuil_max_m": 1000, "largeur_libre_m": 60}}, {"type": "Feature", "geometry": {"type": "LineString", "coordinates": [[4.30135, 43.51964], [4.30726, 43.52681]]}, "properties": {"nom": "Clos des Agneaux", "region": "PACA", "longueur_m": 929, "aire_ha": 66.7, "seuil_max_m": 700, "largeur_libre_m": 60}}, {"type": "Feature", "geometry": {"type": "LineString", "coordinates": [[4.63242, 43.4451], [4.62276, 43.44714]]}, "properties": {"nom": null, "region": "PACA", "longueur_m": 814, "aire_ha": 15.6, "seuil_max_m": 700, "largeur_libre_m": 60}}, {"type": "Feature", "geometry": {"type": "LineString", "coordinates": [[4.60712, 43.4436], [4.58453, 43.45355]]}, "properties": {"nom": null, "region": "PACA", "longueur_m": 2138, "aire_ha": 55.7, "seuil_max_m": 2000, "largeur_libre_m": 60}}, {"type": "Feature", "geometry": {"type": "LineString", "coordinates": [[4.66631, 43.4025], [4.65833, 43.40797]]}, "properties": {"nom": null, "region": "PACA", "longueur_m": 887, "aire_ha": 33.0, "seuil_max_m": 700, "largeur_libre_m": 60}}, {"type": "Feature", "geometry": {"type": "LineString", "coordinates": [[4.59595, 43.42187], [4.58225, 43.43621]]}, "properties": {"nom": null, "region": "PACA", "longueur_m": 1942, "aire_ha": 65.8, "seuil_max_m": 1500, "largeur_libre_m": 60}}, {"type": "Feature", "geometry": {"type": "LineString", "coordinates": [[4.66121, 43.37961], [4.66843, 43.38736]]}, "properties": {"nom": null, "region": "PACA", "longueur_m": 1042, "aire_ha": 52.1, "seuil_max_m": 1000, "largeur_libre_m": 60}}, {"type": "Feature", "geometry": {"type": "LineString", "coordinates": [[4.65027, 43.38085], [4.64636, 43.39579]]}, "properties": {"nom": null, "region": "PACA", "longueur_m": 1690, "aire_ha": 114.7, "seuil_max_m": 1500, "largeur_libre_m": 60}}, {"type": "Feature", "geometry": {"type": "LineString", "coordinates": [[4.65521, 43.39489], [4.66255, 43.40122]]}, "properties": {"nom": null, "region": "PACA", "longueur_m": 921, "aire_ha": 19.8, "seuil_max_m": 700, "largeur_libre_m": 60}}, {"type": "Feature", "geometry": {"type": "LineString", "coordinates": [[4.64275, 43.39541], [4.65912, 43.40197]]}, "properties": {"nom": null, "region": "PACA", "longueur_m": 1513, "aire_ha": 49.8, "seuil_max_m": 1500, "largeur_libre_m": 60}}, {"type": "Feature", "geometry": {"type": "LineString", "coordinates": [[4.68488, 43.37265], [4.68453, 43.38069]]}, "properties": {"nom": null, "region": "PACA", "longueur_m": 894, "aire_ha": 42.0, "seuil_max_m": 700, "largeur_libre_m": 60}}, {"type": "Feature", "geometry": {"type": "LineString", "coordinates": [[4.75153, 43.36378], [4.7527, 43.37526]]}, "properties": {"nom": "Grau d'enfer", "region": "PACA", "longueur_m": 1279, "aire_ha": 64.3, "seuil_max_m": 1000, "largeur_libre_m": 60}}, {"type": "Feature", "geometry": {"type": "LineString", "coordinates": [[4.73564, 43.37106], [4.74168, 43.37831]]}, "properties": {"nom": null, "region": "PACA", "longueur_m": 943, "aire_ha": 45.8, "seuil_max_m": 700, "largeur_libre_m": 60}}, {"type": "Feature", "geometry": {"type": "LineString", "coordinates": [[4.71418, 43.35029], [4.71062, 43.36935]]}, "properties": {"nom": "Baisses de Saint-Genest", "region": "PACA", "longueur_m": 2139, "aire_ha": 141.2, "seuil_max_m": 2000, "largeur_libre_m": 60}}, {"type": "Feature", "geometry": {"type": "LineString", "coordinates": [[4.69407, 43.34945], [4.66254, 43.35885]]}, "properties": {"nom": "Étang de la Galére", "region": "PACA", "longueur_m": 2763, "aire_ha": 232.7, "seuil_max_m": 2000, "largeur_libre_m": 60}}, {"type": "Feature", "geometry": {"type": "LineString", "coordinates": [[4.66496, 43.37113], [4.6724, 43.37534]]}, "properties": {"nom": null, "region": "PACA", "longueur_m": 764, "aire_ha": 14.7, "seuil_max_m": 700, "largeur_libre_m": 60}}, {"type": "Feature", "geometry": {"type": "LineString", "coordinates": [[4.66132, 43.36917], [4.66705, 43.37532]]}, "properties": {"nom": null, "region": "PACA", "longueur_m": 826, "aire_ha": 27.1, "seuil_max_m": 700, "largeur_libre_m": 60}}, {"type": "Feature", "geometry": {"type": "LineString", "coordinates": [[4.65652, 43.34919], [4.65916, 43.37538]]}, "properties": {"nom": "Étang de la Dame", "region": "PACA", "longueur_m": 2919, "aire_ha": 309.9, "seuil_max_m": 2000, "largeur_libre_m": 60}}, {"type": "Feature", "geometry": {"type": "LineString", "coordinates": [[4.65187, 43.38144], [4.66833, 43.40127]]}, "properties": {"nom": "Vieux Rhône", "region": "PACA", "longueur_m": 2577, "aire_ha": 183.8, "seuil_max_m": 2000, "largeur_libre_m": 60}}, {"type": "Feature", "geometry": {"type": "LineString", "coordinates": [[4.64748, 43.35077], [4.62139, 43.35853]]}, "properties": {"nom": "Étang Sainte-Anne", "region": "PACA", "longueur_m": 2285, "aire_ha": 205.6, "seuil_max_m": 2000, "largeur_libre_m": 60}}, {"type": "Feature", "geometry": {"type": "LineString", "coordinates": [[4.90671, 43.59851], [4.9194, 43.60935]]}, "properties": {"nom": "Étang d'Entressen", "region": "PACA", "longueur_m": 1582, "aire_ha": 98.9, "seuil_max_m": 1500, "largeur_libre_m": 60}}, {"type": "Feature", "geometry": {"type": "LineString", "coordinates": [[4.7851, 43.58565], [4.79619, 43.59516]]}, "properties": {"nom": "Étang des Aulnes", "region": "PACA", "longueur_m": 1386, "aire_ha": 99.8, "seuil_max_m": 1340, "largeur_libre_m": 60}}, {"type": "Feature", "geometry": {"type": "LineString", "coordinates": [[4.7331, 44.15688], [4.72603, 44.16166]]}, "properties": {"nom": "Le Plan d'eau Li Piboulo", "region": "PACA", "longueur_m": 776, "aire_ha": 23.3, "seuil_max_m": 700, "largeur_libre_m": 60}}, {"type": "Feature", "geometry": {"type": "LineString", "coordinates": [[6.2282, 44.99954], [6.27445, 45.00336]]}, "properties": {"nom": "Glacier de la Girose", "region": "PACA", "longueur_m": 3669, "aire_ha": 715.7, "seuil_max_m": 3000, "largeur_libre_m": 60}}, {"type": "Feature", "geometry": {"type": "LineString", "coordinates": [[6.39803, 44.90856], [6.40714, 44.90999]]}, "properties": {"nom": "Glacier de la Momie", "region": "PACA", "longueur_m": 737, "aire_ha": 18.1, "seuil_max_m": 700, "largeur_libre_m": 60}}, {"type": "Feature", "geometry": {"type": "LineString", "coordinates": [[6.31497, 45.00441], [6.3261, 45.0203]]}, "properties": {"nom": "Glacier du Tabuchet", "region": "PACA", "longueur_m": 1971, "aire_ha": 170.6, "seuil_max_m": 1500, "largeur_libre_m": 60}}, {"type": "Feature", "geometry": {"type": "LineString", "coordinates": [[6.28748, 45.00295], [6.31394, 45.01155]]}, "properties": {"nom": "Glacier de la Meije", "region": "PACA", "longueur_m": 2293, "aire_ha": 153.2, "seuil_max_m": 2000, "largeur_libre_m": 60}}, {"type": "Feature", "geometry": {"type": "LineString", "coordinates": [[6.27235, 44.98703], [6.28071, 44.99899]]}, "properties": {"nom": "Glacier de la Meije", "region": "PACA", "longueur_m": 1482, "aire_ha": 122.4, "seuil_max_m": 1340, "largeur_libre_m": 60}}, {"type": "Feature", "geometry": {"type": "LineString", "coordinates": [[6.2786, 45.00316], [6.28948, 45.01403]]}, "properties": {"nom": "Glacier du Râteau", "region": "PACA", "longueur_m": 1481, "aire_ha": 87.4, "seuil_max_m": 1340, "largeur_libre_m": 60}}, {"type": "Feature", "geometry": {"type": "LineString", "coordinates": [[6.32437, 45.00091], [6.34111, 45.0088]]}, "properties": {"nom": "Glacier du Lautaret", "region": "PACA", "longueur_m": 1583, "aire_ha": 101.2, "seuil_max_m": 1500, "largeur_libre_m": 60}}, {"type": "Feature", "geometry": {"type": "LineString", "coordinates": [[6.33978, 44.95015], [6.32629, 44.95261]]}, "properties": {"nom": "Glacier de la Plate des Agneaux", "region": "PACA", "longueur_m": 1099, "aire_ha": 53.8, "seuil_max_m": 1000, "largeur_libre_m": 60}}, {"type": "Feature", "geometry": {"type": "LineString", "coordinates": [[6.32334, 44.97281], [6.33483, 44.97654]]}, "properties": {"nom": "Glacier du Clot des Cavales", "region": "PACA", "longueur_m": 996, "aire_ha": 34.3, "seuil_max_m": 700, "largeur_libre_m": 60}}, {"type": "Feature", "geometry": {"type": "LineString", "coordinates": [[6.38157, 44.95433], [6.3851, 44.96228]]}, "properties": {"nom": "Glacier des Agneaux", "region": "PACA", "longueur_m": 926, "aire_ha": 33.9, "seuil_max_m": 700, "largeur_libre_m": 60}}, {"type": "Feature", "geometry": {"type": "LineString", "coordinates": [[6.42875, 44.95213], [6.44444, 44.95586]]}, "properties": {"nom": "Glacier du Casset", "region": "PACA", "longueur_m": 1305, "aire_ha": 85.2, "seuil_max_m": 1000, "largeur_libre_m": 60}}, {"type": "Feature", "geometry": {"type": "LineString", "coordinates": [[6.45598, 44.92538], [6.43851, 44.93893]]}, "properties": {"nom": "Glacier de Séguret Foran", "region": "PACA", "longueur_m": 2041, "aire_ha": 184.6, "seuil_max_m": 2000, "largeur_libre_m": 60}}, {"type": "Feature", "geometry": {"type": "LineString", "coordinates": [[6.40681, 44.89243], [6.40669, 44.90232]]}, "properties": {"nom": "Glacier du Pelvoux", "region": "PACA", "longueur_m": 1099, "aire_ha": 84.7, "seuil_max_m": 1000, "largeur_libre_m": 60}}, {"type": "Feature", "geometry": {"type": "LineString", "coordinates": [[6.36573, 44.87846], [6.36314, 44.88672]]}, "properties": {"nom": "Glacier de l'Ailefroide", "region": "PACA", "longueur_m": 941, "aire_ha": 51.1, "seuil_max_m": 700, "largeur_libre_m": 60}}, {"type": "Feature", "geometry": {"type": "LineString", "coordinates": [[4.66194, 43.37622], [4.67299, 43.3848]]}, "properties": {"nom": null, "region": "PACA", "longueur_m": 1309, "aire_ha": 62.2, "seuil_max_m": 1000, "largeur_libre_m": 60}}, {"type": "Feature", "geometry": {"type": "LineString", "coordinates": [[4.66934, 43.37606], [4.68281, 43.38453]]}, "properties": {"nom": null, "region": "PACA", "longueur_m": 1442, "aire_ha": 80.7, "seuil_max_m": 1340, "largeur_libre_m": 60}}, {"type": "Feature", "geometry": {"type": "LineString", "coordinates": [[7.4434, 44.1223], [7.43401, 44.12304]]}, "properties": {"nom": "Lac de l'Agnel", "region": "PACA", "longueur_m": 757, "aire_ha": 21.8, "seuil_max_m": 700, "largeur_libre_m": 60}}, {"type": "Feature", "geometry": {"type": "LineString", "coordinates": [[4.96702, 43.45423], [4.97071, 43.47486]]}, "properties": {"nom": "Étang de Lavalduc", "region": "PACA", "longueur_m": 2312, "aire_ha": 325.9, "seuil_max_m": 2000, "largeur_libre_m": 60}}, {"type": "Feature", "geometry": {"type": "LineString", "coordinates": [[4.97325, 43.43589], [4.97179, 43.44921]]}, "properties": {"nom": "Étang d'Engrenier", "region": "PACA", "longueur_m": 1485, "aire_ha": 102.4, "seuil_max_m": 1340, "largeur_libre_m": 60}}, {"type": "Feature", "geometry": {"type": "LineString", "coordinates": [[4.95421, 43.44503], [4.9431, 43.45192]]}, "properties": {"nom": "Étang de l'Estomac", "region": "PACA", "longueur_m": 1181, "aire_ha": 72.9, "seuil_max_m": 1000, "largeur_libre_m": 60}}, {"type": "Feature", "geometry": {"type": "LineString", "coordinates": [[4.95174, 43.43357], [4.96163, 43.44299]]}, "properties": {"nom": null, "region": "PACA", "longueur_m": 1318, "aire_ha": 97.7, "seuil_max_m": 1000, "largeur_libre_m": 60}}, {"type": "Feature", "geometry": {"type": "LineString", "coordinates": [[4.98963, 43.44236], [5.00262, 43.44689]]}, "properties": {"nom": "Étang du Pourra", "region": "PACA", "longueur_m": 1166, "aire_ha": 77.4, "seuil_max_m": 1000, "largeur_libre_m": 60}}, {"type": "Feature", "geometry": {"type": "LineString", "coordinates": [[7.43769, 44.08885], [7.4394, 44.09642]]}, "properties": {"nom": "Lac Du Basto", "region": "PACA", "longueur_m": 852, "aire_ha": 24.1, "seuil_max_m": 700, "largeur_libre_m": 60}}, {"type": "Feature", "geometry": {"type": "LineString", "coordinates": [[4.74746, 44.08763], [4.76112, 44.08845]]}, "properties": {"nom": null, "region": "PACA", "longueur_m": 1098, "aire_ha": 50.1, "seuil_max_m": 1000, "largeur_libre_m": 60}}, {"type": "Feature", "geometry": {"type": "LineString", "coordinates": [[6.32505, 45.10465], [6.31557, 45.10943]]}, "properties": {"nom": "Glacier Lombard", "region": "PACA", "longueur_m": 915, "aire_ha": 41.1, "seuil_max_m": 700, "largeur_libre_m": 60}}, {"type": "Feature", "geometry": {"type": "LineString", "coordinates": [[4.84338, 44.02555], [4.83056, 44.03753]]}, "properties": {"nom": null, "region": "PACA", "longueur_m": 1682, "aire_ha": 50.5, "seuil_max_m": 1500, "largeur_libre_m": 60}}, {"type": "Feature", "geometry": {"type": "LineString", "coordinates": [[4.67942, 43.6155], [4.68096, 43.63073]]}, "properties": {"nom": "Étang de Meyranne", "region": "PACA", "longueur_m": 1697, "aire_ha": 107.4, "seuil_max_m": 1500, "largeur_libre_m": 60}}, {"type": "Feature", "geometry": {"type": "LineString", "coordinates": [[6.29237, 43.14179], [6.2966, 43.14895]]}, "properties": {"nom": "Retenue du Trapan", "region": "PACA", "longueur_m": 868, "aire_ha": 25.1, "seuil_max_m": 700, "largeur_libre_m": 60}}, {"type": "Feature", "geometry": {"type": "LineString", "coordinates": [[4.71387, 43.90035], [4.75615, 43.93645]]}, "properties": {"nom": "La Durance", "region": "PACA", "longueur_m": 5256, "aire_ha": 2555.3, "seuil_max_m": 3000, "largeur_libre_m": 60}}, {"type": "Feature", "geometry": {"type": "LineString", "coordinates": [[4.84045, 43.98496], [4.82589, 43.98576]]}, "properties": {"nom": "Plan d'eau des Libertés", "region": "PACA", "longueur_m": 1171, "aire_ha": 30.9, "seuil_max_m": 1000, "largeur_libre_m": 60}}, {"type": "Feature", "geometry": {"type": "LineString", "coordinates": [[6.0164, 44.08675], [6.02364, 44.09737]]}, "properties": {"nom": "Canal EDF", "region": "PACA", "longueur_m": 1315, "aire_ha": 170.3, "seuil_max_m": 1000, "largeur_libre_m": 60}}, {"type": "Feature", "geometry": {"type": "LineString", "coordinates": [[5.1009, 43.77597], [5.09074, 43.77774]]}, "properties": {"nom": null, "region": "PACA", "longueur_m": 841, "aire_ha": 29.3, "seuil_max_m": 700, "largeur_libre_m": 60}}, {"type": "Feature", "geometry": {"type": "LineString", "coordinates": [[6.30674, 44.50394], [6.4495, 44.54427]]}, "properties": {"nom": "Lac de Serre-Ponçon", "region": "PACA", "longueur_m": 12197, "aire_ha": 3105.6, "seuil_max_m": 3000, "largeur_libre_m": 60}}, {"type": "Feature", "geometry": {"type": "LineString", "coordinates": [[4.73066, 44.15309], [4.7222, 44.16017]]}, "properties": {"nom": null, "region": "PACA", "longueur_m": 1037, "aire_ha": 46.2, "seuil_max_m": 1000, "largeur_libre_m": 60}}, {"type": "Feature", "geometry": {"type": "LineString", "coordinates": [[5.85123, 44.34608], [5.86414, 44.34623]]}, "properties": {"nom": "Lac artificiel EDF", "region": "PACA", "longueur_m": 1030, "aire_ha": 30.9, "seuil_max_m": 1000, "largeur_libre_m": 60}}, {"type": "Feature", "geometry": {"type": "LineString", "coordinates": [[6.14693, 43.73277], [6.22812, 43.80724]]}, "properties": {"nom": "Lac de Sainte-Croix", "region": "PACA", "longueur_m": 10547, "aire_ha": 2129.5, "seuil_max_m": 3000, "largeur_libre_m": 60}}, {"type": "Feature", "geometry": {"type": "LineString", "coordinates": [[6.00932, 44.51619], [6.00634, 44.52246]]}, "properties": {"nom": "Lac de Pelleautier", "region": "PACA", "longueur_m": 735, "aire_ha": 22.6, "seuil_max_m": 700, "largeur_libre_m": 60}}, {"type": "Feature", "geometry": {"type": "LineString", "coordinates": [[6.46728, 44.54762], [6.47798, 44.54974]]}, "properties": {"nom": "Plan d'Eau d'Embrun", "region": "PACA", "longueur_m": 882, "aire_ha": 25.9, "seuil_max_m": 700, "largeur_libre_m": 60}}, {"type": "Feature", "geometry": {"type": "LineString", "coordinates": [[5.95004, 44.80541], [5.90981, 44.81764]]}, "properties": {"nom": "Lac du Sautet", "region": "PACA", "longueur_m": 3459, "aire_ha": 392.7, "seuil_max_m": 3000, "largeur_libre_m": 60}}, {"type": "Feature", "geometry": {"type": "LineString", "coordinates": [[6.23612, 44.46431], [6.27065, 44.46719]]}, "properties": {"nom": "La Durance", "region": "PACA", "longueur_m": 2766, "aire_ha": 140.5, "seuil_max_m": 2000, "largeur_libre_m": 60}}, {"type": "Feature", "geometry": {"type": "LineString", "coordinates": [[5.74812, 43.72372], [5.75334, 43.73413]]}, "properties": {"nom": "Le Verdon", "region": "PACA", "longueur_m": 1231, "aire_ha": 295.4, "seuil_max_m": 1000, "largeur_libre_m": 60}}, {"type": "Feature", "geometry": {"type": "LineString", "coordinates": [[5.72237, 43.6978], [5.73341, 43.71668]]}, "properties": {"nom": "La Durance", "region": "PACA", "longueur_m": 2279, "aire_ha": 835.5, "seuil_max_m": 2000, "largeur_libre_m": 60}}, {"type": "Feature", "geometry": {"type": "LineString", "coordinates": [[4.81274, 43.3851], [4.8537, 43.38912]]}, "properties": {"nom": "Canal Saint-Louis", "region": "PACA", "longueur_m": 3350, "aire_ha": 65.3, "seuil_max_m": 3000, "largeur_libre_m": 60}}, {"type": "Feature", "geometry": {"type": "LineString", "coordinates": [[5.33391, 43.46116], [5.32763, 43.46965]]}, "properties": {"nom": "Bassin du Réaltor", "region": "PACA", "longueur_m": 1072, "aire_ha": 50.1, "seuil_max_m": 1000, "largeur_libre_m": 60}}, {"type": "Feature", "geometry": {"type": "LineString", "coordinates": [[4.99486, 43.5155], [4.98701, 43.53472]]}, "properties": {"nom": "Étang de l'Olivier", "region": "PACA", "longueur_m": 2229, "aire_ha": 206.5, "seuil_max_m": 2000, "largeur_libre_m": 60}}, {"type": "Feature", "geometry": {"type": "LineString", "coordinates": [[4.32771, 43.55444], [4.3205, 43.55932]]}, "properties": {"nom": null, "region": "PACA", "longueur_m": 796, "aire_ha": 21.3, "seuil_max_m": 700, "largeur_libre_m": 60}}, {"type": "Feature", "geometry": {"type": "LineString", "coordinates": [[4.32964, 43.49027], [4.34253, 43.52303]]}, "properties": {"nom": "Étang des Jumeaux", "region": "PACA", "longueur_m": 3788, "aire_ha": 333.8, "seuil_max_m": 3000, "largeur_libre_m": 60}}, {"type": "Feature", "geometry": {"type": "LineString", "coordinates": [[4.33861, 43.49146], [4.34376, 43.50235]]}, "properties": {"nom": null, "region": "PACA", "longueur_m": 1280, "aire_ha": 73.8, "seuil_max_m": 1000, "largeur_libre_m": 60}}, {"type": "Feature", "geometry": {"type": "LineString", "coordinates": [[4.34551, 43.47406], [4.33663, 43.48929]]}, "properties": {"nom": "Étang du Cabri", "region": "PACA", "longueur_m": 1839, "aire_ha": 125.3, "seuil_max_m": 1500, "largeur_libre_m": 60}}, {"type": "Feature", "geometry": {"type": "LineString", "coordinates": [[4.37636, 43.4561], [4.36835, 43.46985]]}, "properties": {"nom": "Étang d'Icard", "region": "PACA", "longueur_m": 1660, "aire_ha": 101.3, "seuil_max_m": 1500, "largeur_libre_m": 60}}, {"type": "Feature", "geometry": {"type": "LineString", "coordinates": [[4.34256, 43.46062], [4.34422, 43.47046]]}, "properties": {"nom": null, "region": "PACA", "longueur_m": 1102, "aire_ha": 44.8, "seuil_max_m": 1000, "largeur_libre_m": 60}}, {"type": "Feature", "geometry": {"type": "LineString", "coordinates": [[4.43638, 43.46324], [4.43996, 43.46968]]}, "properties": {"nom": null, "region": "PACA", "longueur_m": 772, "aire_ha": 28.8, "seuil_max_m": 700, "largeur_libre_m": 60}}, {"type": "Feature", "geometry": {"type": "LineString", "coordinates": [[4.19991, 43.4795], [4.18703, 43.49025]]}, "properties": {"nom": "Bras mort de Saint-Roman", "region": "PACA", "longueur_m": 1585, "aire_ha": 213.6, "seuil_max_m": 1500, "largeur_libre_m": 60}}, {"type": "Feature", "geometry": {"type": "LineString", "coordinates": [[4.63995, 43.52942], [4.48601, 43.54944]]}, "properties": {"nom": "Étang de Vaccarès", "region": "PACA", "longueur_m": 12644, "aire_ha": 10787.6, "seuil_max_m": 3000, "largeur_libre_m": 60}}, {"type": "Feature", "geometry": {"type": "LineString", "coordinates": [[4.55675, 43.456], [4.54792, 43.45646]]}, "properties": {"nom": "Courréjou du Tampan", "region": "PACA", "longueur_m": 717, "aire_ha": 19.2, "seuil_max_m": 700, "largeur_libre_m": 60}}, {"type": "Feature", "geometry": {"type": "LineString", "coordinates": [[4.50547, 43.46027], [4.5424, 43.45975]]}, "properties": {"nom": "Étang des Bataiyolles", "region": "PACA", "longueur_m": 2991, "aire_ha": 152.0, "seuil_max_m": 2000, "largeur_libre_m": 60}}, {"type": "Feature", "geometry": {"type": "LineString", "coordinates": [[4.82237, 43.48761], [4.81479, 43.50082]]}, "properties": {"nom": "Étang du Landre", "region": "PACA", "longueur_m": 1592, "aire_ha": 92.5, "seuil_max_m": 1500, "largeur_libre_m": 60}}, {"type": "Feature", "geometry": {"type": "LineString", "coordinates": [[4.64744, 43.36411], [4.63305, 43.38906]]}, "properties": {"nom": "Étang du Vaisseau", "region": "PACA", "longueur_m": 3009, "aire_ha": 470.6, "seuil_max_m": 3000, "largeur_libre_m": 60}}, {"type": "Feature", "geometry": {"type": "LineString", "coordinates": [[4.82275, 43.35579], [4.81385, 43.35886]]}, "properties": {"nom": "Baisse de la Sableuse", "region": "PACA", "longueur_m": 799, "aire_ha": 32.0, "seuil_max_m": 700, "largeur_libre_m": 60}}, {"type": "Feature", "geometry": {"type": "LineString", "coordinates": [[4.79021, 43.51739], [4.78154, 43.52399]]}, "properties": {"nom": null, "region": "PACA", "longueur_m": 1015, "aire_ha": 42.8, "seuil_max_m": 1000, "largeur_libre_m": 60}}, {"type": "Feature", "geometry": {"type": "LineString", "coordinates": [[4.79963, 43.51017], [4.78595, 43.51488]]}, "properties": {"nom": null, "region": "PACA", "longueur_m": 1224, "aire_ha": 66.9, "seuil_max_m": 1000, "largeur_libre_m": 60}}, {"type": "Feature", "geometry": {"type": "LineString", "coordinates": [[4.77768, 43.52786], [4.76622, 43.53421]]}, "properties": {"nom": null, "region": "PACA", "longueur_m": 1165, "aire_ha": 41.7, "seuil_max_m": 1000, "largeur_libre_m": 60}}, {"type": "Feature", "geometry": {"type": "LineString", "coordinates": [[4.62694, 43.47144], [4.64128, 43.47791]]}, "properties": {"nom": "Baisse des Flammants", "region": "PACA", "longueur_m": 1365, "aire_ha": 57.2, "seuil_max_m": 1340, "largeur_libre_m": 60}}, {"type": "Feature", "geometry": {"type": "LineString", "coordinates": [[4.62023, 43.47021], [4.62473, 43.49626]]}, "properties": {"nom": "Étang du Fournelet", "region": "PACA", "longueur_m": 2918, "aire_ha": 425.9, "seuil_max_m": 2000, "largeur_libre_m": 60}}, {"type": "Feature", "geometry": {"type": "LineString", "coordinates": [[4.63683, 43.46956], [4.64673, 43.47216]]}, "properties": {"nom": "Baisse des Aigrettes", "region": "PACA", "longueur_m": 852, "aire_ha": 31.8, "seuil_max_m": 700, "largeur_libre_m": 60}}, {"type": "Feature", "geometry": {"type": "LineString", "coordinates": [[4.63525, 43.46359], [4.62483, 43.46818]]}, "properties": {"nom": "Étang d'Ulmet", "region": "PACA", "longueur_m": 987, "aire_ha": 36.8, "seuil_max_m": 700, "largeur_libre_m": 60}}, {"type": "Feature", "geometry": {"type": "LineString", "coordinates": [[4.66632, 43.49351], [4.65891, 43.50332]]}, "properties": {"nom": "Baisse de Saint-Seren", "region": "PACA", "longueur_m": 1244, "aire_ha": 60.4, "seuil_max_m": 1000, "largeur_libre_m": 60}}, {"type": "Feature", "geometry": {"type": "LineString", "coordinates": [[4.69577, 43.52347], [4.70174, 43.52918]]}, "properties": {"nom": "Les Enganes", "region": "PACA", "longueur_m": 798, "aire_ha": 38.1, "seuil_max_m": 700, "largeur_libre_m": 60}}, {"type": "Feature", "geometry": {"type": "LineString", "coordinates": [[4.6907, 43.41659], [4.67766, 43.42107]]}, "properties": {"nom": null, "region": "PACA", "longueur_m": 1168, "aire_ha": 53.2, "seuil_max_m": 1000, "largeur_libre_m": 60}}, {"type": "Feature", "geometry": {"type": "LineString", "coordinates": [[5.15612, 43.74066], [5.14807, 43.74469]]}, "properties": {"nom": null, "region": "PACA", "longueur_m": 788, "aire_ha": 21.1, "seuil_max_m": 700, "largeur_libre_m": 60}}, {"type": "Feature", "geometry": {"type": "LineString", "coordinates": [[6.44379, 43.22886], [6.42729, 43.23266]]}, "properties": {"nom": "Lac de la Verne", "region": "PACA", "longueur_m": 1407, "aire_ha": 54.1, "seuil_max_m": 1340, "largeur_libre_m": 60}}, {"type": "Feature", "geometry": {"type": "LineString", "coordinates": [[4.98798, 43.4639], [4.98545, 43.47378]]}, "properties": {"nom": "Étang de Citis", "region": "PACA", "longueur_m": 1118, "aire_ha": 66.3, "seuil_max_m": 1000, "largeur_libre_m": 60}}, {"type": "Feature", "geometry": {"type": "LineString", "coordinates": [[4.4157, 43.48032], [4.41068, 43.49916]]}, "properties": {"nom": "Étang de Ginès", "region": "PACA", "longueur_m": 2133, "aire_ha": 196.9, "seuil_max_m": 2000, "largeur_libre_m": 60}}, {"type": "Feature", "geometry": {"type": "LineString", "coordinates": [[6.32873, 44.7992], [6.33559, 44.80325]]}, "properties": {"nom": "Glacier de Chabournéou", "region": "PACA", "longueur_m": 704, "aire_ha": 23.9, "seuil_max_m": 700, "largeur_libre_m": 60}}, {"type": "Feature", "geometry": {"type": "LineString", "coordinates": [[6.02173, 44.42038], [6.02801, 44.42953]]}, "properties": {"nom": null, "region": "PACA", "longueur_m": 1133, "aire_ha": 91.7, "seuil_max_m": 1000, "largeur_libre_m": 60}}, {"type": "Feature", "geometry": {"type": "LineString", "coordinates": [[6.08282, 43.73414], [6.08345, 43.74569]]}, "properties": {"nom": "Lac de Montpezat", "region": "PACA", "longueur_m": 1285, "aire_ha": 164.8, "seuil_max_m": 1000, "largeur_libre_m": 60}}, {"type": "Feature", "geometry": {"type": "LineString", "coordinates": [[5.9468, 43.73155], [5.93536, 43.75222]]}, "properties": {"nom": "Lac d'Esparron", "region": "PACA", "longueur_m": 2475, "aire_ha": 316.9, "seuil_max_m": 2000, "largeur_libre_m": 60}}, {"type": "Feature", "geometry": {"type": "LineString", "coordinates": [[5.95169, 44.17562], [5.95367, 44.19142]]}, "properties": {"nom": "Durance", "region": "PACA", "longueur_m": 1762, "aire_ha": 227.8, "seuil_max_m": 1500, "largeur_libre_m": 60}}, {"type": "Feature", "geometry": {"type": "LineString", "coordinates": [[6.19523, 43.44853], [6.21397, 43.45315]]}, "properties": {"nom": "Lac Sainte Suzanne", "region": "PACA", "longueur_m": 1602, "aire_ha": 88.4, "seuil_max_m": 1500, "largeur_libre_m": 60}}, {"type": "Feature", "geometry": {"type": "LineString", "coordinates": [[5.57508, 43.6538], [5.56008, 43.65649]]}, "properties": {"nom": null, "region": "PACA", "longueur_m": 1247, "aire_ha": 61.8, "seuil_max_m": 1000, "largeur_libre_m": 60}}, {"type": "Feature", "geometry": {"type": "LineString", "coordinates": [[7.03584, 43.94328], [7.02493, 43.94452]]}, "properties": {"nom": null, "region": "PACA", "longueur_m": 887, "aire_ha": 159.7, "seuil_max_m": 700, "largeur_libre_m": 60}}, {"type": "Feature", "geometry": {"type": "LineString", "coordinates": [[6.3957, 44.88857], [6.38813, 44.89285]]}, "properties": {"nom": "Glacier de Sialouze", "region": "PACA", "longueur_m": 764, "aire_ha": 44.4, "seuil_max_m": 700, "largeur_libre_m": 60}}, {"type": "Feature", "geometry": {"type": "LineString", "coordinates": [[4.98967, 43.86572], [4.98361, 43.87032]]}, "properties": {"nom": null, "region": "PACA", "longueur_m": 707, "aire_ha": 27.6, "seuil_max_m": 700, "largeur_libre_m": 60}}, {"type": "Feature", "geometry": {"type": "LineString", "coordinates": [[6.35857, 44.94391], [6.36362, 44.95112]]}, "properties": {"nom": "Glacier de Tombe Murée", "region": "PACA", "longueur_m": 894, "aire_ha": 51.0, "seuil_max_m": 700, "largeur_libre_m": 60}}, {"type": "Feature", "geometry": {"type": "LineString", "coordinates": [[6.42298, 44.95801], [6.39106, 44.96019]]}, "properties": {"nom": "Glacier d'Arsine", "region": "PACA", "longueur_m": 2529, "aire_ha": 193.4, "seuil_max_m": 2000, "largeur_libre_m": 60}}, {"type": "Feature", "geometry": {"type": "LineString", "coordinates": [[4.54475, 43.4835], [4.54828, 43.49239]]}, "properties": {"nom": "Baisse Du Troisième Bois", "region": "PACA", "longueur_m": 1028, "aire_ha": 59.4, "seuil_max_m": 1000, "largeur_libre_m": 60}}, {"type": "Feature", "geometry": {"type": "LineString", "coordinates": [[4.51252, 43.46919], [4.52155, 43.47158]]}, "properties": {"nom": "Baisse de Mergues", "region": "PACA", "longueur_m": 778, "aire_ha": 21.8, "seuil_max_m": 700, "largeur_libre_m": 60}}, {"type": "Feature", "geometry": {"type": "LineString", "coordinates": [[4.50695, 43.46539], [4.51734, 43.46564]]}, "properties": {"nom": "Baisse de Pilaron", "region": "PACA", "longueur_m": 841, "aire_ha": 22.3, "seuil_max_m": 700, "largeur_libre_m": 60}}, {"type": "Feature", "geometry": {"type": "LineString", "coordinates": [[4.76361, 43.36313], [4.78266, 43.36811]]}, "properties": {"nom": "Clos des Termes", "region": "PACA", "longueur_m": 1641, "aire_ha": 71.5, "seuil_max_m": 1500, "largeur_libre_m": 60}}, {"type": "Feature", "geometry": {"type": "LineString", "coordinates": [[4.78069, 43.38188], [4.75069, 43.39221]]}, "properties": {"nom": "Salin du Mas du Village", "region": "PACA", "longueur_m": 2689, "aire_ha": 347.4, "seuil_max_m": 2000, "largeur_libre_m": 60}}, {"type": "Feature", "geometry": {"type": "LineString", "coordinates": [[4.82294, 43.34677], [4.80427, 43.35607]]}, "properties": {"nom": "Étang de la Grande Palun", "region": "PACA", "longueur_m": 1833, "aire_ha": 161.9, "seuil_max_m": 1500, "largeur_libre_m": 60}}, {"type": "Feature", "geometry": {"type": "LineString", "coordinates": [[4.81888, 43.36275], [4.80955, 43.36398]]}, "properties": {"nom": "Baisse Claire", "region": "PACA", "longueur_m": 769, "aire_ha": 21.5, "seuil_max_m": 700, "largeur_libre_m": 60}}, {"type": "Feature", "geometry": {"type": "LineString", "coordinates": [[4.77773, 43.3712], [4.75441, 43.37617]]}, "properties": {"nom": "Jeu de Maille", "region": "PACA", "longueur_m": 1970, "aire_ha": 133.3, "seuil_max_m": 1500, "largeur_libre_m": 60}}, {"type": "Feature", "geometry": {"type": "LineString", "coordinates": [[5.36056, 43.31277], [5.33864, 43.3391]]}, "properties": {"nom": "Avant-port Nord", "region": "PACA", "longueur_m": 3425, "aire_ha": 327.2, "seuil_max_m": 3000, "largeur_libre_m": 60}}, {"type": "Feature", "geometry": {"type": "LineString", "coordinates": [[5.59529, 43.65534], [5.58191, 43.6572]]}, "properties": {"nom": "Plan d'eau de Plantain", "region": "PACA", "longueur_m": 1100, "aire_ha": 48.8, "seuil_max_m": 1000, "largeur_libre_m": 60}}, {"type": "Feature", "geometry": {"type": "LineString", "coordinates": [[5.73997, 43.70142], [5.74282, 43.71616]]}, "properties": {"nom": "Bassin d'Éclusées de Cadarache", "region": "PACA", "longueur_m": 1654, "aire_ha": 140.7, "seuil_max_m": 1500, "largeur_libre_m": 60}}, {"type": "Feature", "geometry": {"type": "LineString", "coordinates": [[6.35274, 44.86045], [6.37726, 44.86062]]}, "properties": {"nom": "Glacier du Sélé", "region": "PACA", "longueur_m": 1937, "aire_ha": 142.4, "seuil_max_m": 1500, "largeur_libre_m": 60}}, {"type": "Feature", "geometry": {"type": "LineString", "coordinates": [[6.3222, 44.99847], [6.30639, 45.00074]]}, "properties": {"nom": "Glacier des Etançons", "region": "PACA", "longueur_m": 1271, "aire_ha": 62.3, "seuil_max_m": 1000, "largeur_libre_m": 60}}, {"type": "Feature", "geometry": {"type": "LineString", "coordinates": [[6.29817, 44.99766], [6.29015, 45.00048]]}, "properties": {"nom": "Glacier des Etançons", "region": "PACA", "longueur_m": 705, "aire_ha": 38.2, "seuil_max_m": 700, "largeur_libre_m": 60}}, {"type": "Feature", "geometry": {"type": "LineString", "coordinates": [[6.31657, 44.96389], [6.32726, 44.96558]]}, "properties": {"nom": "Glacier de la Grande Ruine", "region": "PACA", "longueur_m": 864, "aire_ha": 46.2, "seuil_max_m": 700, "largeur_libre_m": 60}}, {"type": "Feature", "geometry": {"type": "LineString", "coordinates": [[6.20893, 43.12405], [6.21808, 43.12448]]}, "properties": {"nom": null, "region": "PACA", "longueur_m": 746, "aire_ha": 10.4, "seuil_max_m": 700, "largeur_libre_m": 60}}, {"type": "Feature", "geometry": {"type": "LineString", "coordinates": [[4.83796, 43.37574], [4.85001, 43.37788]]}, "properties": {"nom": null, "region": "PACA", "longueur_m": 1005, "aire_ha": 52.9, "seuil_max_m": 1000, "largeur_libre_m": 60}}, {"type": "Feature", "geometry": {"type": "LineString", "coordinates": [[4.73962, 44.31346], [4.73134, 44.35716]]}, "properties": {"nom": null, "region": "PACA", "longueur_m": 4900, "aire_ha": 292.4, "seuil_max_m": 3000, "largeur_libre_m": 60}}, {"type": "Feature", "geometry": {"type": "LineString", "coordinates": [[4.79357, 43.3601], [4.77402, 43.36193]]}, "properties": {"nom": "They de Sainte-Ursule", "region": "PACA", "longueur_m": 1599, "aire_ha": 134.0, "seuil_max_m": 1500, "largeur_libre_m": 60}}, {"type": "Feature", "geometry": {"type": "LineString", "coordinates": [[4.59614, 43.36085], [4.6133, 43.3875]]}, "properties": {"nom": "Étang de Beauduc", "region": "PACA", "longueur_m": 3272, "aire_ha": 1064.9, "seuil_max_m": 3000, "largeur_libre_m": 60}}, {"type": "Feature", "geometry": {"type": "LineString", "coordinates": [[4.62665, 43.39138], [4.60911, 43.40618]]}, "properties": {"nom": null, "region": "PACA", "longueur_m": 2174, "aire_ha": 189.5, "seuil_max_m": 2000, "largeur_libre_m": 60}}, {"type": "Feature", "geometry": {"type": "LineString", "coordinates": [[4.5097, 43.49456], [4.52141, 43.49484]]}, "properties": {"nom": null, "region": "PACA", "longueur_m": 947, "aire_ha": 18.7, "seuil_max_m": 700, "largeur_libre_m": 60}}, {"type": "Feature", "geometry": {"type": "LineString", "coordinates": [[4.67172, 43.40158], [4.69026, 43.41324]]}, "properties": {"nom": null, "region": "PACA", "longueur_m": 1984, "aire_ha": 61.8, "seuil_max_m": 1500, "largeur_libre_m": 60}}, {"type": "Feature", "geometry": {"type": "LineString", "coordinates": [[4.67004, 43.42064], [4.65744, 43.42688]]}, "properties": {"nom": null, "region": "PACA", "longueur_m": 1235, "aire_ha": 36.4, "seuil_max_m": 1000, "largeur_libre_m": 60}}, {"type": "Feature", "geometry": {"type": "LineString", "coordinates": [[4.67988, 44.24096], [4.68663, 44.2456]]}, "properties": {"nom": null, "region": "PACA", "longueur_m": 746, "aire_ha": 31.6, "seuil_max_m": 700, "largeur_libre_m": 60}}, {"type": "Feature", "geometry": {"type": "LineString", "coordinates": [[4.67987, 44.21483], [4.67951, 44.22303]]}, "properties": {"nom": "Lac Bleu", "region": "PACA", "longueur_m": 911, "aire_ha": 63.6, "seuil_max_m": 700, "largeur_libre_m": 60}}, {"type": "Feature", "geometry": {"type": "LineString", "coordinates": [[4.41908, 43.45068], [4.40691, 43.46887]]}, "properties": {"nom": "Étang des Launes", "region": "PACA", "longueur_m": 2249, "aire_ha": 149.8, "seuil_max_m": 2000, "largeur_libre_m": 60}}, {"type": "Feature", "geometry": {"type": "LineString", "coordinates": [[6.7668, 43.98867], [6.78493, 44.00056]]}, "properties": {"nom": null, "region": "PACA", "longueur_m": 1965, "aire_ha": 361.4, "seuil_max_m": 1500, "largeur_libre_m": 60}}, {"type": "Feature", "geometry": {"type": "LineString", "coordinates": [[7.19028, 43.75066], [7.19629, 43.75736]]}, "properties": {"nom": "L'Estéron", "region": "PACA", "longueur_m": 888, "aire_ha": 237.5, "seuil_max_m": 700, "largeur_libre_m": 60}}, {"type": "Feature", "geometry": {"type": "LineString", "coordinates": [[4.68215, 43.4854], [4.68339, 43.49768]]}, "properties": {"nom": null, "region": "PACA", "longueur_m": 1369, "aire_ha": 53.4, "seuil_max_m": 1340, "largeur_libre_m": 60}}, {"type": "Feature", "geometry": {"type": "LineString", "coordinates": [[6.26922, 44.87313], [6.29475, 44.88387]]}, "properties": {"nom": "Glacier du Chardon", "region": "PACA", "longueur_m": 2343, "aire_ha": 82.1, "seuil_max_m": 2000, "largeur_libre_m": 60}}, {"type": "Feature", "geometry": {"type": "LineString", "coordinates": [[6.31467, 44.86618], [6.30799, 44.87332]]}, "properties": {"nom": "Glacier du Says", "region": "PACA", "longueur_m": 953, "aire_ha": 63.0, "seuil_max_m": 700, "largeur_libre_m": 60}}, {"type": "Feature", "geometry": {"type": "LineString", "coordinates": [[6.29927, 44.87392], [6.30362, 44.88226]]}, "properties": {"nom": "Glacier du Petit Chardon", "region": "PACA", "longueur_m": 988, "aire_ha": 35.6, "seuil_max_m": 700, "largeur_libre_m": 60}}, {"type": "Feature", "geometry": {"type": "LineString", "coordinates": [[6.25516, 44.86673], [6.26814, 44.87974]]}, "properties": {"nom": "Glacier des Rouies", "region": "PACA", "longueur_m": 1771, "aire_ha": 131.0, "seuil_max_m": 1500, "largeur_libre_m": 60}}, {"type": "Feature", "geometry": {"type": "LineString", "coordinates": [[4.77738, 43.52572], [4.76601, 43.53273]]}, "properties": {"nom": null, "region": "PACA", "longueur_m": 1205, "aire_ha": 102.3, "seuil_max_m": 1000, "largeur_libre_m": 60}}, {"type": "Feature", "geometry": {"type": "LineString", "coordinates": [[6.35665, 44.87107], [6.35361, 44.87752]]}, "properties": {"nom": null, "region": "PACA", "longueur_m": 756, "aire_ha": 44.9, "seuil_max_m": 700, "largeur_libre_m": 60}}, {"type": "Feature", "geometry": {"type": "LineString", "coordinates": [[4.80472, 43.49177], [4.79749, 43.49789]]}, "properties": {"nom": null, "region": "PACA", "longueur_m": 897, "aire_ha": 20.0, "seuil_max_m": 700, "largeur_libre_m": 60}}, {"type": "Feature", "geometry": {"type": "LineString", "coordinates": [[6.23536, 44.85387], [6.2493, 44.85346]]}, "properties": {"nom": "Glacier de la Muande", "region": "PACA", "longueur_m": 1102, "aire_ha": 41.5, "seuil_max_m": 1000, "largeur_libre_m": 60}}, {"type": "Feature", "geometry": {"type": "LineString", "coordinates": [[4.80128, 43.49921], [4.80162, 43.5102]]}, "properties": {"nom": null, "region": "PACA", "longueur_m": 1222, "aire_ha": 74.9, "seuil_max_m": 1000, "largeur_libre_m": 60}}, {"type": "Feature", "geometry": {"type": "LineString", "coordinates": [[6.34774, 44.88767], [6.3547, 44.89273]]}, "properties": {"nom": "Glacier de Coste Rouge", "region": "PACA", "longueur_m": 786, "aire_ha": 24.5, "seuil_max_m": 700, "largeur_libre_m": 60}}, {"type": "Feature", "geometry": {"type": "LineString", "coordinates": [[6.34072, 44.91964], [6.35525, 44.92194]]}, "properties": {"nom": "Glacier du Vallon de la Pilatte", "region": "PACA", "longueur_m": 1175, "aire_ha": 86.9, "seuil_max_m": 1000, "largeur_libre_m": 60}}, {"type": "Feature", "geometry": {"type": "LineString", "coordinates": [[6.35356, 44.92597], [6.39818, 44.94699]]}, "properties": {"nom": "Glacier Blanc", "region": "PACA", "longueur_m": 4223, "aire_ha": 439.9, "seuil_max_m": 3000, "largeur_libre_m": 60}}, {"type": "Feature", "geometry": {"type": "LineString", "coordinates": [[4.6486, 43.48047], [4.64651, 43.48665]]}, "properties": {"nom": null, "region": "PACA", "longueur_m": 708, "aire_ha": 14.6, "seuil_max_m": 700, "largeur_libre_m": 60}}, {"type": "Feature", "geometry": {"type": "LineString", "coordinates": [[4.65524, 43.48115], [4.64859, 43.49266]]}, "properties": {"nom": "Baisse Salée", "region": "PACA", "longueur_m": 1388, "aire_ha": 37.2, "seuil_max_m": 1340, "largeur_libre_m": 60}}, {"type": "Feature", "geometry": {"type": "LineString", "coordinates": [[6.21085, 44.86042], [6.21728, 44.86687]]}, "properties": {"nom": "Glacier des Sellettes", "region": "PACA", "longueur_m": 879, "aire_ha": 70.0, "seuil_max_m": 700, "largeur_libre_m": 60}}, {"type": "Feature", "geometry": {"type": "LineString", "coordinates": [[6.20154, 44.86021], [6.20491, 44.86961]]}, "properties": {"nom": "Glacier des Sellettes", "region": "PACA", "longueur_m": 1078, "aire_ha": 55.4, "seuil_max_m": 1000, "largeur_libre_m": 60}}, {"type": "Feature", "geometry": {"type": "LineString", "coordinates": [[4.73648, 43.39836], [4.74055, 43.41095]]}, "properties": {"nom": "Salin des Vanneaux", "region": "PACA", "longueur_m": 1438, "aire_ha": 115.4, "seuil_max_m": 1340, "largeur_libre_m": 60}}, {"type": "Feature", "geometry": {"type": "LineString", "coordinates": [[4.68128, 43.38529], [4.67591, 43.39617]]}, "properties": {"nom": null, "region": "PACA", "longueur_m": 1286, "aire_ha": 62.9, "seuil_max_m": 1000, "largeur_libre_m": 60}}, {"type": "Feature", "geometry": {"type": "LineString", "coordinates": [[4.69396, 43.38517], [4.69184, 43.39651]]}, "properties": {"nom": "Marais de Faraman", "region": "PACA", "longueur_m": 1272, "aire_ha": 138.0, "seuil_max_m": 1000, "largeur_libre_m": 60}}, {"type": "Feature", "geometry": {"type": "LineString", "coordinates": [[4.70755, 43.38037], [4.70448, 43.38951]]}, "properties": {"nom": null, "region": "PACA", "longueur_m": 1046, "aire_ha": 22.6, "seuil_max_m": 1000, "largeur_libre_m": 60}}, {"type": "Feature", "geometry": {"type": "LineString", "coordinates": [[4.71017, 43.38134], [4.70731, 43.39231]]}, "properties": {"nom": null, "region": "PACA", "longueur_m": 1241, "aire_ha": 42.4, "seuil_max_m": 1000, "largeur_libre_m": 60}}, {"type": "Feature", "geometry": {"type": "LineString", "coordinates": [[4.70222, 43.39043], [4.69282, 43.39687]]}, "properties": {"nom": null, "region": "PACA", "longueur_m": 1045, "aire_ha": 37.5, "seuil_max_m": 1000, "largeur_libre_m": 60}}, {"type": "Feature", "geometry": {"type": "LineString", "coordinates": [[4.72904, 43.37371], [4.7224, 43.38254]]}, "properties": {"nom": "Salin de Giraud", "region": "PACA", "longueur_m": 1119, "aire_ha": 62.5, "seuil_max_m": 1000, "largeur_libre_m": 60}}, {"type": "Feature", "geometry": {"type": "LineString", "coordinates": [[4.71774, 43.38425], [4.72736, 43.38446]]}, "properties": {"nom": "Salin de Giraud", "region": "PACA", "longueur_m": 780, "aire_ha": 17.2, "seuil_max_m": 700, "largeur_libre_m": 60}}, {"type": "Feature", "geometry": {"type": "LineString", "coordinates": [[4.73698, 43.37981], [4.72913, 43.38417]]}, "properties": {"nom": null, "region": "PACA", "longueur_m": 799, "aire_ha": 25.0, "seuil_max_m": 700, "largeur_libre_m": 60}}, {"type": "Feature", "geometry": {"type": "LineString", "coordinates": [[4.73903, 43.37966], [4.73363, 43.38783]]}, "properties": {"nom": null, "region": "PACA", "longueur_m": 1009, "aire_ha": 22.0, "seuil_max_m": 1000, "largeur_libre_m": 60}}, {"type": "Feature", "geometry": {"type": "LineString", "coordinates": [[6.32227, 44.83016], [6.33366, 44.8311]]}, "properties": {"nom": "Glacier des Aupillous", "region": "PACA", "longueur_m": 906, "aire_ha": 39.6, "seuil_max_m": 700, "largeur_libre_m": 60}}, {"type": "Feature", "geometry": {"type": "LineString", "coordinates": [[6.31124, 44.84428], [6.32347, 44.84483]]}, "properties": {"nom": "Glacier Inférieur de la Condamine", "region": "PACA", "longueur_m": 968, "aire_ha": 58.7, "seuil_max_m": 700, "largeur_libre_m": 60}}, {"type": "Feature", "geometry": {"type": "LineString", "coordinates": [[6.33123, 44.85477], [6.35375, 44.85577]]}, "properties": {"nom": "Glacier de la Pilatte", "region": "PACA", "longueur_m": 1783, "aire_ha": 215.2, "seuil_max_m": 1500, "largeur_libre_m": 60}}, {"type": "Feature", "geometry": {"type": "LineString", "coordinates": [[7.33878, 43.70818], [7.34865, 43.71394]]}, "properties": {"nom": "Rade de Beaulieu", "region": "PACA", "longueur_m": 1022, "aire_ha": 46.2, "seuil_max_m": 1000, "largeur_libre_m": 60}}, {"type": "Feature", "geometry": {"type": "LineString", "coordinates": [[7.35166, 43.71595], [7.36573, 43.72112]]}, "properties": {"nom": "Baie d'Èze", "region": "PACA", "longueur_m": 1271, "aire_ha": 49.1, "seuil_max_m": 1000, "largeur_libre_m": 60}}, {"type": "Feature", "geometry": {"type": "LineString", "coordinates": [[7.37525, 43.71839], [7.39008, 43.72185]]}, "properties": {"nom": "Baie de Saint-Laurent", "region": "PACA", "longueur_m": 1255, "aire_ha": 42.3, "seuil_max_m": 1000, "largeur_libre_m": 60}}, {"type": "Feature", "geometry": {"type": "LineString", "coordinates": [[4.77588, 43.37654], [4.78992, 43.38632]]}, "properties": {"nom": null, "region": "PACA", "longueur_m": 1574, "aire_ha": 37.3, "seuil_max_m": 1500, "largeur_libre_m": 60}}, {"type": "Feature", "geometry": {"type": "LineString", "coordinates": [[4.51669, 43.52081], [4.50787, 43.52127]]}, "properties": {"nom": null, "region": "PACA", "longueur_m": 715, "aire_ha": 52.4, "seuil_max_m": 700, "largeur_libre_m": 60}}, {"type": "Feature", "geometry": {"type": "LineString", "coordinates": [[4.64129, 43.53896], [4.65099, 43.54731]]}, "properties": {"nom": "Marais de Romieu", "region": "PACA", "longueur_m": 1214, "aire_ha": 59.2, "seuil_max_m": 1000, "largeur_libre_m": 60}}, {"type": "Feature", "geometry": {"type": "LineString", "coordinates": [[5.36326, 43.29426], [5.37359, 43.29443]]}, "properties": {"nom": "Bassin du Vieux Port", "region": "PACA", "longueur_m": 839, "aire_ha": 24.5, "seuil_max_m": 700, "largeur_libre_m": 60}}, {"type": "Feature", "geometry": {"type": "LineString", "coordinates": [[4.57287, 43.58539], [4.56419, 43.58877]]}, "properties": {"nom": null, "region": "PACA", "longueur_m": 795, "aire_ha": 27.5, "seuil_max_m": 700, "largeur_libre_m": 60}}, {"type": "Feature", "geometry": {"type": "LineString", "coordinates": [[4.52841, 43.63073], [4.51935, 43.6369]]}, "properties": {"nom": null, "region": "PACA", "longueur_m": 1002, "aire_ha": 58.2, "seuil_max_m": 1000, "largeur_libre_m": 60}}, {"type": "Feature", "geometry": {"type": "LineString", "coordinates": [[4.75048, 43.38272], [4.7591, 43.38391]]}, "properties": {"nom": "Salin de l'esquineau", "region": "PACA", "longueur_m": 712, "aire_ha": 26.7, "seuil_max_m": 700, "largeur_libre_m": 60}}, {"type": "Feature", "geometry": {"type": "LineString", "coordinates": [[4.44334, 43.52078], [4.43681, 43.52687]]}, "properties": {"nom": "baisses de saxi", "region": "PACA", "longueur_m": 858, "aire_ha": 33.0, "seuil_max_m": 700, "largeur_libre_m": 60}}, {"type": "Feature", "geometry": {"type": "LineString", "coordinates": [[4.4391, 43.49649], [4.42108, 43.52745]]}, "properties": {"nom": "Étang de Consécanière", "region": "PACA", "longueur_m": 3738, "aire_ha": 346.9, "seuil_max_m": 3000, "largeur_libre_m": 60}}, {"type": "Feature", "geometry": {"type": "LineString", "coordinates": [[4.4344, 43.48242], [4.42728, 43.48779]]}, "properties": {"nom": "Étang Le Taute", "region": "PACA", "longueur_m": 829, "aire_ha": 99.5, "seuil_max_m": 700, "largeur_libre_m": 60}}, {"type": "Feature", "geometry": {"type": "LineString", "coordinates": [[4.44269, 43.49949], [4.44835, 43.50634]]}, "properties": {"nom": null, "region": "PACA", "longueur_m": 888, "aire_ha": 41.8, "seuil_max_m": 700, "largeur_libre_m": 60}}, {"type": "Feature", "geometry": {"type": "LineString", "coordinates": [[4.43539, 43.52557], [4.42857, 43.53453]]}, "properties": {"nom": null, "region": "PACA", "longueur_m": 1139, "aire_ha": 23.6, "seuil_max_m": 1000, "largeur_libre_m": 60}}, {"type": "Feature", "geometry": {"type": "LineString", "coordinates": [[4.44269, 43.54531], [4.43394, 43.55551]]}, "properties": {"nom": null, "region": "PACA", "longueur_m": 1337, "aire_ha": 149.4, "seuil_max_m": 1000, "largeur_libre_m": 60}}, {"type": "Feature", "geometry": {"type": "LineString", "coordinates": [[4.46847, 43.54109], [4.45284, 43.54641]]}, "properties": {"nom": null, "region": "PACA", "longueur_m": 1394, "aire_ha": 105.8, "seuil_max_m": 1340, "largeur_libre_m": 60}}, {"type": "Feature", "geometry": {"type": "LineString", "coordinates": [[4.46431, 43.53749], [4.47328, 43.53875]]}, "properties": {"nom": null, "region": "PACA", "longueur_m": 739, "aire_ha": 25.9, "seuil_max_m": 700, "largeur_libre_m": 60}}, {"type": "Feature", "geometry": {"type": "LineString", "coordinates": [[4.52557, 43.57861], [4.5144, 43.59783]]}, "properties": {"nom": null, "region": "PACA", "longueur_m": 2319, "aire_ha": 346.2, "seuil_max_m": 2000, "largeur_libre_m": 60}}, {"type": "Feature", "geometry": {"type": "LineString", "coordinates": [[4.47064, 43.54224], [4.45767, 43.54862]]}, "properties": {"nom": null, "region": "PACA", "longueur_m": 1266, "aire_ha": 83.5, "seuil_max_m": 1000, "largeur_libre_m": 60}}, {"type": "Feature", "geometry": {"type": "LineString", "coordinates": [[4.41004, 43.45299], [4.40694, 43.4592]]}, "properties": {"nom": "Baisse de la Cindre", "region": "PACA", "longueur_m": 735, "aire_ha": 18.8, "seuil_max_m": 700, "largeur_libre_m": 60}}, {"type": "Feature", "geometry": {"type": "LineString", "coordinates": [[4.65718, 43.40519], [4.61536, 43.41066]]}, "properties": {"nom": "Étang du Grand Rascaillan", "region": "PACA", "longueur_m": 3443, "aire_ha": 401.8, "seuil_max_m": 3000, "largeur_libre_m": 60}}, {"type": "Feature", "geometry": {"type": "LineString", "coordinates": [[4.73455, 43.37295], [4.73655, 43.37913]]}, "properties": {"nom": null, "region": "PACA", "longueur_m": 706, "aire_ha": 17.4, "seuil_max_m": 700, "largeur_libre_m": 60}}, {"type": "Feature", "geometry": {"type": "LineString", "coordinates": [[4.72474, 43.3715], [4.73505, 43.37212]]}, "properties": {"nom": null, "region": "PACA", "longueur_m": 839, "aire_ha": 22.1, "seuil_max_m": 700, "largeur_libre_m": 60}}, {"type": "Feature", "geometry": {"type": "LineString", "coordinates": [[4.72712, 43.36658], [4.71377, 43.36782]]}, "properties": {"nom": null, "region": "PACA", "longueur_m": 1091, "aire_ha": 38.9, "seuil_max_m": 1000, "largeur_libre_m": 60}}, {"type": "Feature", "geometry": {"type": "LineString", "coordinates": [[4.71749, 43.36282], [4.73267, 43.36746]]}, "properties": {"nom": null, "region": "PACA", "longueur_m": 1335, "aire_ha": 62.2, "seuil_max_m": 1000, "largeur_libre_m": 60}}, {"type": "Feature", "geometry": {"type": "LineString", "coordinates": [[4.7188, 43.36133], [4.73831, 43.36482]]}, "properties": {"nom": null, "region": "PACA", "longueur_m": 1629, "aire_ha": 79.9, "seuil_max_m": 1500, "largeur_libre_m": 60}}, {"type": "Feature", "geometry": {"type": "LineString", "coordinates": [[4.72293, 43.35521], [4.74106, 43.35919]]}, "properties": {"nom": null, "region": "PACA", "longueur_m": 1536, "aire_ha": 59.9, "seuil_max_m": 1500, "largeur_libre_m": 60}}, {"type": "Feature", "geometry": {"type": "LineString", "coordinates": [[4.75361, 43.36316], [4.77251, 43.36893]]}, "properties": {"nom": "Jeu de la Machine", "region": "PACA", "longueur_m": 1662, "aire_ha": 106.9, "seuil_max_m": 1500, "largeur_libre_m": 60}}, {"type": "Feature", "geometry": {"type": "LineString", "coordinates": [[4.72349, 43.37263], [4.71208, 43.37459]]}, "properties": {"nom": "Le Grand Réservoir", "region": "PACA", "longueur_m": 951, "aire_ha": 41.4, "seuil_max_m": 700, "largeur_libre_m": 60}}, {"type": "Feature", "geometry": {"type": "LineString", "coordinates": [[4.72447, 43.36979], [4.71494, 43.3703]]}, "properties": {"nom": null, "region": "PACA", "longueur_m": 775, "aire_ha": 24.6, "seuil_max_m": 700, "largeur_libre_m": 60}}, {"type": "Feature", "geometry": {"type": "LineString", "coordinates": [[4.25892, 43.49063], [4.24032, 43.49874]]}, "properties": {"nom": null, "region": "PACA", "longueur_m": 1754, "aire_ha": 179.1, "seuil_max_m": 1500, "largeur_libre_m": 60}}, {"type": "Feature", "geometry": {"type": "LineString", "coordinates": [[4.69834, 43.68567], [4.69287, 43.6908]]}, "properties": {"nom": "Étang de la Gravière", "region": "PACA", "longueur_m": 720, "aire_ha": 39.5, "seuil_max_m": 700, "largeur_libre_m": 60}}, {"type": "Feature", "geometry": {"type": "LineString", "coordinates": [[4.67957, 43.68523], [4.68943, 43.68917]]}, "properties": {"nom": "Étang de la Gravière", "region": "PACA", "longueur_m": 908, "aire_ha": 40.6, "seuil_max_m": 700, "largeur_libre_m": 60}}, {"type": "Feature", "geometry": {"type": "LineString", "coordinates": [[4.62854, 43.39224], [4.64196, 43.39762]]}, "properties": {"nom": "Gaze des Piquets", "region": "PACA", "longueur_m": 1242, "aire_ha": 70.9, "seuil_max_m": 1000, "largeur_libre_m": 60}}, {"type": "Feature", "geometry": {"type": "LineString", "coordinates": [[4.62104, 43.37696], [4.62551, 43.38496]]}, "properties": {"nom": null, "region": "PACA", "longueur_m": 960, "aire_ha": 99.4, "seuil_max_m": 700, "largeur_libre_m": 60}}, {"type": "Feature", "geometry": {"type": "LineString", "coordinates": [[4.67572, 43.3861], [4.6725, 43.3984]]}, "properties": {"nom": null, "region": "PACA", "longueur_m": 1391, "aire_ha": 47.5, "seuil_max_m": 1340, "largeur_libre_m": 60}}, {"type": "Feature", "geometry": {"type": "LineString", "coordinates": [[4.69755, 43.35142], [4.66266, 43.36873]]}, "properties": {"nom": "Étang du Jonquier", "region": "PACA", "longueur_m": 3422, "aire_ha": 455.4, "seuil_max_m": 3000, "largeur_libre_m": 60}}, {"type": "Feature", "geometry": {"type": "LineString", "coordinates": [[6.13935, 43.04443], [6.13468, 43.0566]]}, "properties": {"nom": "Étang des Pesquiers", "region": "PACA", "longueur_m": 1406, "aire_ha": 82.5, "seuil_max_m": 1340, "largeur_libre_m": 60}}, {"type": "Feature", "geometry": {"type": "LineString", "coordinates": [[6.14112, 43.05609], [6.1424, 43.06254]]}, "properties": {"nom": "Étang des Pesquiers", "region": "PACA", "longueur_m": 724, "aire_ha": 9.9, "seuil_max_m": 700, "largeur_libre_m": 60}}, {"type": "Feature", "geometry": {"type": "LineString", "coordinates": [[6.13977, 43.05637], [6.13206, 43.06589]]}, "properties": {"nom": "Étang des Pesquiers", "region": "PACA", "longueur_m": 1230, "aire_ha": 70.9, "seuil_max_m": 1000, "largeur_libre_m": 60}}, {"type": "Feature", "geometry": {"type": "LineString", "coordinates": [[5.53687, 43.54082], [5.54933, 43.54768]]}, "properties": {"nom": "Lac de Bimont", "region": "PACA", "longueur_m": 1264, "aire_ha": 94.5, "seuil_max_m": 1000, "largeur_libre_m": 60}}, {"type": "Feature", "geometry": {"type": "LineString", "coordinates": [[6.80711, 43.58422], [6.82373, 43.60534]]}, "properties": {"nom": "Lac de Saint-Cassien", "region": "PACA", "longueur_m": 2704, "aire_ha": 347.9, "seuil_max_m": 2000, "largeur_libre_m": 60}}, {"type": "Feature", "geometry": {"type": "LineString", "coordinates": [[6.36524, 44.91554], [6.39735, 44.91938]]}, "properties": {"nom": "Glacier Noir", "region": "PACA", "longueur_m": 2570, "aire_ha": 118.2, "seuil_max_m": 2000, "largeur_libre_m": 60}}, {"type": "Feature", "geometry": {"type": "LineString", "coordinates": [[6.3602, 44.89315], [6.39405, 44.9057]]}, "properties": {"nom": "Glacier Noir", "region": "PACA", "longueur_m": 3014, "aire_ha": 240.7, "seuil_max_m": 3000, "largeur_libre_m": 60}}, {"type": "Feature", "geometry": {"type": "LineString", "coordinates": [[6.49003, 44.28779], [6.50352, 44.2894]]}, "properties": {"nom": "Glacier de la Blanche", "region": "PACA", "longueur_m": 1092, "aire_ha": 51.4, "seuil_max_m": 1000, "largeur_libre_m": 60}}, {"type": "Feature", "geometry": {"type": "LineString", "coordinates": [[6.7103, 44.22913], [6.70724, 44.23718]]}, "properties": {"nom": "Lac d'Allos", "region": "PACA", "longueur_m": 927, "aire_ha": 50.0, "seuil_max_m": 700, "largeur_libre_m": 60}}, {"type": "Feature", "geometry": {"type": "LineString", "coordinates": [[4.78097, 43.37044], [4.80271, 43.37707]]}, "properties": {"nom": null, "region": "PACA", "longueur_m": 1911, "aire_ha": 156.9, "seuil_max_m": 1500, "largeur_libre_m": 60}}, {"type": "Feature", "geometry": {"type": "LineString", "coordinates": [[6.5366, 43.89393], [6.52995, 43.93653]]}, "properties": {"nom": "Lac de Castillon", "region": "PACA", "longueur_m": 4764, "aire_ha": 473.1, "seuil_max_m": 3000, "largeur_libre_m": 60}}, {"type": "Feature", "geometry": {"type": "LineString", "coordinates": [[6.54518, 43.85049], [6.55747, 43.8644]]}, "properties": {"nom": "Lac de Chaudanne", "region": "PACA", "longueur_m": 1835, "aire_ha": 64.9, "seuil_max_m": 1500, "largeur_libre_m": 60}}, {"type": "Feature", "geometry": {"type": "LineString", "coordinates": [[6.33913, 44.92456], [6.35483, 44.93862]]}, "properties": {"nom": "Glacier de Bonne Pierre", "region": "PACA", "longueur_m": 1993, "aire_ha": 133.8, "seuil_max_m": 1500, "largeur_libre_m": 60}}, {"type": "Feature", "geometry": {"type": "LineString", "coordinates": [[5.74848, 43.94374], [5.74484, 43.95137]]}, "properties": {"nom": "Retenue de la Laye", "region": "PACA", "longueur_m": 896, "aire_ha": 22.6, "seuil_max_m": 700, "largeur_libre_m": 60}}, {"type": "Feature", "geometry": {"type": "LineString", "coordinates": [[4.72788, 43.3525], [4.77703, 43.35737]]}, "properties": {"nom": null, "region": "PACA", "longueur_m": 4024, "aire_ha": 419.5, "seuil_max_m": 3000, "largeur_libre_m": 60}}, {"type": "Feature", "geometry": {"type": "LineString", "coordinates": [[4.83658, 43.45063], [4.83053, 43.45524]]}, "properties": {"nom": null, "region": "PACA", "longueur_m": 709, "aire_ha": 19.9, "seuil_max_m": 700, "largeur_libre_m": 60}}]}